{"type": "Feature", "geometry": {"type": "Polygon", "coordinates": [[[66.876, 35.382], [67.343, 35.459], [68.088, 35.467], [68.02, 35.06], [68.19, 35.017], [68.266, 34.795], [67.905, 34.601], [67.289, 34.631], [67.507, 34.31], [67.407, 34.129], [67.274, 34.012], [66.97, 33.913], [66.485, 34.065], [66.503, 34.296], [66.718, 34.6], [66.414, 34.914], [66.307, 35.177], [66.576, 35.171], [66.876, 35.382]]]}, "properties": {"name": "Bamyan", "iso2": "AF-BAM", "admin_level": 4, "osm_id": 1674849, "countrylevel_id": "iso2:AF-BAM", "osm_data": {"localname": "بامیان", "official_name": "", "alltags": {"is_in": "Afghanistan", "name:ar": "باميان", "name:cs": "Bamján", "name:el": "Μπαμιάν", "name:en": "Bamyan", "name:es": "Provincia de Bamiyan", "name:fa": "ولایت بامیان", "name:fr": "Bâmiyân", "name:hi": "बामयान प्रान्त", "name:ja": "バーミヤーン州", "name:lt": "Bamijano provincija", "name:pl": "Bamian", "name:ps": "باميان ولايت", "name:ru": "Бамиан", "name:tg": "Вилояти Бомиён", "name:uk": "Баміан", "name:ur": "صوبہ بامیان", "alt_name": "Bamiyan", "description": "Bamyan Province", "is_in:country": "Afghanistan", "is_in:continent": "Asia", "is_in:country_code": "AF"}}, "center_lat": 34.81, "center_lon": 67.23, "area_m2": 17892159417, "timezone": "Asia/Kabul", "population": 492400, "wikidata_id": "Q171382", "wikipedia_id": "ps:باميان ولايت"}}