{"type": "Feature", "geometry": {"type": "Polygon", "coordinates": [[[-94.618, 36.5], [-93.126, 36.498], [-91.407, 36.497], [-90.155, 36.497], [-90.084, 36.272], [-90.378, 35.996], [-89.733, 36.001], [-89.814, 35.76], [-90.04, 35.548], [-90.101, 35.117], [-90.309, 34.996], [-90.614, 34.391], [-91.088, 33.975], [-91.084, 33.657], [-91.228, 33.565], [-91.083, 33.222], [-91.166, 33.004], [-92.069, 33.008], [-94.043, 33.019], [-94.043, 33.552], [-94.388, 33.548], [-94.486, 33.638], [-94.431, 35.394], [-94.618, 36.5]]]}, "properties": {"name": "Arkansas", "iso2": "US-AR", "admin_level": 4, "osm_id": 161646, "countrylevel_id": "iso2:US-AR", "osm_data": {"localname": "Arkansas", "official_name": "", "alltags": {"name:ar": "أركنساس", "name:az": "Arkanzas", "name:bg": "Арканзас", "name:bn": "আর্কান্স", "name:br": "Arkansas", "name:el": "Αρκάνσας", "name:en": "Arkansas", "name:fa": "آرکانزاس", "name:he": "ארקנסו", "name:hi": "अरकांसास", "name:ht": "Akennsas", "name:hy": "Արկանզաս", "name:ja": "アーカンソー州", "name:ka": "არკანზასი", "name:kn": "ಆರ್ಕಾನ್ಸಸ್", "name:ko": "아칸소", "name:lt": "Arkanzasas", "name:ml": "അര്‍ക്കന്‍സാസ്", "name:mr": "आर्कान्सा", "name:nv": "Áákinsoo Hahoodzo", "name:pl": "Arkansas", "name:qu": "Arkansas suyu", "name:ru": "Арканзас", "name:sr": "Арканзас", "name:ta": "ஆர்கன்சா", "name:te": "ఆర్కాన్సా", "name:th": "รัฐอาร์คันซอ", "name:uk": "Арканзас", "name:ur": "آرکنساس", "name:uz": "Arkanzas", "name:yi": "ארקענסאו", "name:zh": "阿肯色州", "name:arc": "ܐܪܟܢܣܐܣ", "name:hak": "Â-khén-set", "name:haw": "‘Akanaka", "ref:fips": "05", "is_in:country_code": "US"}}, "center_lat": 34.9, "center_lon": -92.44, "area_m2": 138043224466, "timezone": "America/Chicago", "population": 3017804, "wikidata_id": "Q1612", "wikipedia_id": "en:Arkansas"}}