{"type": "Feature", "geometry": {"type": "Polygon", "coordinates": [[[-77.12, 38.934], [-76.909, 38.893], [-77.039, 38.792], [-77.12, 38.934]]]}, "properties": {"name": "Washington, D.C.", "iso2": "US-DC", "admin_level": 4, "osm_id": 162069, "countrylevel_id": "iso2:US-DC", "osm_data": {"localname": "District of Columbia", "official_name": "", "alltags": {"ele": "20", "woeid": "2347567", "name:af": "Washington, D.C.", "name:am": "ዋሺንግተን ዲሲ", "name:an": "Washington, DC", "name:ar": "واشنطن العاصمة", "name:as": "ৱাশ্বিংটন ডি.চি.", "name:av": "Вашингтон", "name:ay": "Washington, DC", "name:az": "Vaşinqton şəhəri", "name:ba": "Вашингтон", "name:be": "Вашынгтон", "name:bg": "Вашингтон", "name:bh": "वाशिंगटन, डीसी", "name:bm": "Washington, D.C.", "name:bn": "ওয়াশিংটন, ডি.সি.", "name:bo": "ཝ་ཤིན་ཏྲོན།", "name:br": "Washington D.C.", "name:bs": "Washington, D.C.", "name:ca": "Washington DC", "name:ce": "Вашингтон", "name:co": "Washington DC", "name:cs": "Washington, D.C.", "name:cv": "Вашингтон", "name:cy": "Washington, D.C.", "name:da": "Washington D.C.", "name:dv": "ވޮޝިންގޓަން، ޑީ.ސީ.", "name:ee": "Washington D.C.", "name:el": "Ουάσινγκτον", "name:en": "Washington, D.C.", "name:eo": "Vaŝingtono", "name:es": "Washington D. C.", "name:et": "Washington", "name:eu": "Washington", "name:fa": "واشینگتن، دی.سی.", "name:fi": "Washington (DC)", "name:fo": "Washington DC", "name:fr": "Washington", "name:fy": "Washington, D.C.", "name:ga": "Washington, D.C.", "name:gd": "Washington, D.C.", "name:gl": "Washington, D.C.", "name:gn": "Washington D. C.", "name:gv": "Washington, D.C.", "name:ha": "Washington, D.C.", "name:he": "וושינגטון די. סי.", "name:hi": "वॉशिंगटन, डी॰ सी॰", "name:hr": "Washington", "name:ht": "Wachintòn", "name:hu": "Washington", "name:hy": "Վաշինգտոն ԿՇ", "name:ia": "Washington, D.C.", "name:id": "Washington, D.C.", "name:ie": "Washington, D.C.", "name:ig": "Washington, D.C.", "name:io": "Washington D.C.", "name:is": "Washington", "name:it": "Washington", "name:ja": "ワシントンD.C.", "name:jv": "Washington, D.C.", "name:ka": "ვაშინგტონი", "name:kk": "Вашингтон", "name:kn": "ವಾಷಿಂಗ್ಟನ್, ಡಿ.ಸಿ.", "name:ko": "워싱턴 D.C.", "name:ku": "Washington", "name:kw": "Washington, D.C.", "name:ky": "Вашингтон", "name:la": "Vasingtonia (D.C.)", "name:lb": "Washington D.C.", "name:li": "Washington D.C.", "name:ln": "Washington", "name:lt": "Vašingtonas", "name:lv": "Vašingtona", "name:mg": "Washington D.C.", "name:mi": "Takiwā o Columbia", "name:mk": "Вашингтон", "name:ml": "വാഷിങ്ടൺ, ഡി.സി.", "name:mn": "Вашингтон хот", "name:mr": "वॉशिंग्टन, डी.सी.", "name:ms": "Washington, D.C.", "name:my": "ဝါရှင်တန်ဒီစီ", "name:ne": "वासिङ्टन, डी.सी.", "name:nl": "Washington D.C.", "name:nn": "Washington, D.C.", "name:no": "Washington, D.C.", "name:nv": "Kin Náhálgaaí Bił Hahoodzo", "name:ny": "Washington, D.C.", "name:oc": "Washington, DC", "name:os": "Вашингтон", "name:pa": "ਵਾਸ਼ਿੰਗਟਨ, ਡੀ.ਸੀ.", "name:pi": "वासिंगटन डि सि", "name:pl": "Waszyngton", "name:ps": "واشنګټن ډي سي", "name:pt": "Washington, D.C.", "name:qu": "Washington DC", "name:rm": "Washington, D.C.", "name:ro": "Washington, D.C.", "name:ru": "Вашингтон", "name:sa": "वाशिङ्ग्टन् डि सि", "name:sc": "Washington", "name:sd": "واشنگٽن ڊي سي", "name:se": "Washington D.C.", "name:sg": "Washington D.C.", "name:sh": "Washington, D.C.", "name:si": "වොෂින්ටන්, ඩී.සී.", "name:sk": "Washington D.C.", "name:sl": "Washington, D.C.", "name:sm": "Uasigitone D.C.", "name:sn": "Washington, DC", "name:so": "Washington D.C", "name:sq": "Uashington D.C.", "name:sr": "Вашингтон", "name:st": "Washington, D.C.", "name:sv": "Washington, D.C.", "name:sw": "Washington, D.C.", "name:ta": "வாசிங்டன், டி. சி.", "name:te": "వాషింగ్టన్, డి.సి.", "name:tg": "Вашингтон (шаҳр)", "name:th": "วอชิงตัน ดี.ซี.", "name:tk": "Waşington", "name:tl": "Washington, D.C.", "name:tn": "Washington, D.C.", "name:tr": "Washington, DC", "name:ts": "Washington, DC", "name:tt": "Вашингтон", "name:tw": "Wɔhyeten", "name:ty": "Washington", "name:ug": "ۋاشىنگتون", "name:uk": "Вашингтон", "name:ur": "واشنگٹن ڈی سی", "name:uz": "Vashington", "name:vi": "Washington, D.C.", "name:vo": "Washington", "name:xh": "Washington, D.C.", "name:yi": "וואשינגטאן די סי", "name:yo": "Washington, D.C.", "name:za": "Washington, D.C.", "name:zh": "华盛顿哥伦比亚特区/華盛頓特區哥倫比亞特區", "name:zu": "Washington, D.C.", "name:Kin": "Nahalgaai Bil Hahoodzo", "name:ace": "Washington, D.C.", "name:ady": "Вашингтон (къалэ)", "name:als": "Washington, D.C.", "name:ang": "Hwæsingatūn, D.C.", "name:arc": "ܘܐܫܢܓܛܘܢ (ܐܪܫܟܝܬܐ)", "name:arz": "واشينطون", "name:ast": "Washington DC", "name:azb": "واشینقتن، دی.سی.", "name:bar": "Washington, D.C.", "name:bcl": "Washington, D.C.", "name:bpy": "ডিসটিক্ট অফ কলম্বিয়া, ডিসি", "name:bxr": "Вашингтон", "name:cdo": "Washington, D.C.", "name:ceb": "Washington, D.C.", "name:chy": "Vášêtaëno", "name:ckb": "واشینگتن دی سی", "name:crh": "Vaşington", "name:diq": "Washington, D.C.", "name:dsb": "Washington, D.C.", "name:dty": "वाशिंगटन डीसी", "name:eml": "Washington", "name:ext": "Washington D.C.", "name:frp": "Washington", "name:frr": "Washington, D.C.", "name:gan": "華盛頓哥倫比亞特區", "name:gor": "Washington, D.C.", "name:hak": "Washington, D.C.", "name:haw": "Wakinekona, D.C.", "name:hif": "Washington, D.C.", "name:hsb": "Washington, D.C.", "name:ilo": "Washington, D.C.", "name:inh": "Вашингтон", "name:jam": "Washintan D.C.", "name:jbo": ".uacintyn. zei tcadu", "name:kaa": "Washington", "name:kab": "Washington", "name:kbd": "Уашингтон", "name:kbp": "Wasɩŋtɔŋ", "name:krc": "Вашингтон", "name:lad": "Washington, D.C.", "name:lez": "Вашингтон", "name:lfn": "Distrito de Columbia", "name:lij": "Washington D.C.", "name:lmo": "Washington, D.C.", "name:lrc": "ڤاشینڳتون دی سی", "name:min": "Washington, D.C.", "name:mwl": "Washington, D.C.", "name:myv": "Вашингтон ош", "name:mzn": "واشینگتن دی سی", "name:nan": "Washington, D.C.", "name:nds": "Washington D.C.", "name:new": "वाशिंग्तन, दिसि", "name:nov": "Washington D.K.", "name:nso": "Washington, D.C.", "name:olo": "Vašington", "name:pam": "Washington, D.C.", "name:pap": "Washington D.C.", "name:pdc": "Washington D.C.", "name:pfl": "Washington, D.C.", "name:pih": "Woshingtun, D.K.", "name:pms": "Washington", "name:pnb": "واشنگٹن ڈی سی", "name:rmy": "Washington, D.C.", "name:rue": "Вашінґтон", "name:sah": "Уашиҥтон", "name:scn": "Washington", "name:sco": "Washington, D.C.", "name:srn": "Washington D.C.", "name:szl": "Waszyngtůn", "name:tpi": "Wasington DC", "name:udm": "Вашингтон", "name:vec": "Washington D.C.", "name:vep": "Vašington", "name:war": "Washington, D.C.", "name:wuu": "华盛顿哥伦比亚特区", "name:xal": "Вашингтон", "name:xmf": "ვაშინგტონი", "name:yue": "華盛頓特區", "name:zea": "Washington D.C.", "short_name": "D.C.", "alt_name:vi": "Quận Columbia", "name:bat_smg": "Vašingtons", "name:cbk_zam": "Washington, D.C.", "name:fiu_vro": "Washington", "name:zh-Hans": "华盛顿哥伦比亚特区", "name:zh-Hant": "華盛頓哥倫比亞特區", "name:be_x_old": "Вашынгтон", "wikimedia_commons": "Category:District of Columbia"}}, "center_lat": 38.9, "center_lon": -77.02, "area_m2": 177274440, "timezone": "America/New_York", "population": 705749, "wikidata_id": "Q3551781", "wikipedia_id": "ceb:District of Columbia"}}