{"type": "Feature", "properties": {"name": "Ile-de-France", "iso2": "FR-IDF", "admin_level": 4, "osm_id": 8649, "countrylevel_id": "iso2:FR-IDF", "osm_data": {"localname": "Île-de-France", "official_name": "", "alltags": {"name:ar": "إيل دو فرانس", "name:az": "İl de Frans", "name:be": "Іль-дэ-Франс", "name:br": "Enez-Frañs", "name:ca": "Illa de França", "name:el": "Νήσος της Γαλλίας", "name:en": "Ile-de-France", "name:eo": "Francilio", "name:es": "Isla de Francia", "name:eu": "Île-de-France", "name:fa": "ایل-دو-فرانس", "name:he": "איל-דה-פראנס", "name:hi": "इल-दा-फ़्रान्स", "name:it": "Isola di Francia", "name:ko": "일드프랑스", "name:la": "Insula Franciae", "name:oc": "Illa de França", "name:pt": "Ilha de França", "name:ru": "Иль-де-Франс", "name:uk": "Іль-де-Франс", "name:zh": "法蘭西島大區", "website": "http://www.iledefrance.fr/", "ref:NUTS": "FR10", "ref:INSEE": "11", "population": "11852851"}}, "center_lat": 48.72, "center_lon": 2.55, "timezone": "Europe/Paris", "population": 12174880, "wikidata_id": "Q13917", "wikipedia_id": "fr:Île-de-France"}, "geometry": {"type": "MultiPolygon", "coordinates": [[[[1.501, 48.941], [1.922, 48.458], [1.994, 48.287], [2.403, 48.321], [2.937, 48.163], [3.415, 48.39], [3.402, 48.456], [3.402, 48.457], [3.556, 48.62], [3.485, 48.852], [3.072, 49.118], [2.59, 49.08], [1.704, 49.232], [1.608, 49.079], [1.501, 48.941]]]]}}