{"type": "Feature", "geometry": {"type": "Polygon", "coordinates": [[[23.399, 54.367], [23.512, 54.416], [23.755, 54.469], [23.972, 54.493], [24.17, 54.536], [24.414, 54.533], [24.437, 54.425], [25.02, 54.442], [24.836, 54.149], [24.448, 53.904], [24.202, 53.97], [23.835, 53.953], [23.515, 53.956], [23.322, 54.253], [23.399, 54.367]]]}, "properties": {"name": "Alytus County", "iso2": "LT-AL", "admin_level": 4, "osm_id": 1076930, "countrylevel_id": "iso2:LT-AL", "osm_data": {"localname": "Alytaus apskritis", "official_name": "", "alltags": {"name:ar": "مقاطعة أليتس", "name:be": "Алітускі павет", "name:bg": "Алитуски окръг", "name:ca": "Comtat d'Alytus", "name:cs": "Alytuský kraj", "name:da": "Alytus amt", "name:el": "Επαρχία Αλύτους", "name:en": "Alytus County", "name:eo": "Distrikto Alytus", "name:es": "Provincia de Alytus", "name:et": "Alytuse maakond", "name:eu": "Alytusko konderria", "name:fi": "Alytusin lääni", "name:fr": "Apskritis d'Alytus", "name:hr": "Okrug Alitus", "name:id": "County Alytus", "name:it": "Contea di Alytus", "name:ja": "アリートゥス県", "name:ka": "ალიტუსის მაზრა", "name:ko": "알리투스 주", "name:kw": "Konteth Alytus", "name:la": "Alytus districtus", "name:lt": "Alytaus apskritis", "name:lv": "Alītas apriņķis", "name:nl": "Alytus district", "name:no": "Alytus fylke", "name:pl": "Okręg olicki", "name:pt": "Alytus condado", "name:ro": "Județul Alytus", "name:ru": "Алитусский уезд", "name:sr": "Алитус округ", "name:sv": "Alytus provins", "name:sw": "Wilaya ya Alytus", "name:uk": "Алітуський повіт", "name:zh": "阿利圖斯縣", "name:pnb": "الوتس کاؤنٹی", "name:sco": "Alytus Coonty", "name:stq": "Distrikt Alytus", "population": "149897", "geonames:id": "864389", "name:bat-smg": "Alītaus apskrėtės", "is_in:country": "Lithuania", "name:be-tarask": "Аліцкі павет", "is_in:continent": "Europe", "is_in:country_code": "LT"}}, "center_lat": 54.22, "center_lon": 24.12, "area_m2": 5402118958, "timezone": "Europe/Vilnius", "population": 145131, "wikidata_id": "Q669470", "wikipedia_id": "lt:Alytaus apskritis"}}