{"type": "Feature", "geometry": {"type": "Polygon", "coordinates": [[[21.512, 55.809], [21.7, 56.07], [21.941, 56.159], [21.978, 56.385], [21.98, 56.396], [22.167, 56.42], [22.635, 56.367], [22.58, 56.095], [22.738, 56.069], [22.695, 55.908], [22.466, 55.673], [22.252, 55.684], [21.88, 55.597], [21.742, 55.759], [21.512, 55.809]]]}, "properties": {"name": "Telsiai County", "iso2": "LT-TE", "admin_level": 4, "osm_id": 1211025, "countrylevel_id": "iso2:LT-TE", "osm_data": {"localname": "Telšių apskritis", "official_name": "", "alltags": {"name:be": "Цяльшэйскі павет", "name:en": "Telsiai County", "name:es": "Provincia de Telšiai", "name:fr": "Apskritis de Telšiai", "name:lt": "Telšių apskritis", "name:pl": "Okręg telszański", "name:ru": "Тельшяйский уезд", "name:uk": "Тельшяйський повіт", "population": "145564", "is_in:country": "Lithuania", "name:be-tarask": "Цельшыцкі павет", "is_in:continent": "Europe", "is_in:country_code": "LT"}}, "center_lat": 56.0, "center_lon": 22.16, "area_m2": 4338853199, "timezone": "Europe/Vilnius", "population": 141357, "wikidata_id": "Q188963", "wikipedia_id": "lt:Telšių apskritis"}}