{"type": "Feature", "geometry": {"type": "Polygon", "coordinates": [[[24.43, 55.391], [24.654, 55.518], [25.073, 55.313], [25.169, 55.152], [25.222, 55.043], [25.526, 55.041], [25.734, 55.305], [25.865, 55.303], [26.447, 55.21], [26.745, 55.255], [26.358, 55.151], [26.209, 54.997], [25.752, 54.824], [25.638, 54.477], [25.513, 54.308], [24.836, 54.149], [25.02, 54.442], [24.437, 54.425], [24.414, 54.533], [24.457, 54.631], [24.47, 54.641], [24.809, 54.887], [24.552, 54.991], [24.591, 55.087], [24.391, 55.297], [24.43, 55.391]]]}, "properties": {"name": "Vilnius County", "iso2": "LT-VL", "admin_level": 4, "osm_id": 977317, "countrylevel_id": "iso2:LT-VL", "osm_data": {"localname": "Vilniaus apskritis", "official_name": "", "alltags": {"name:ar": "مقاطعة فيلنيوس", "name:be": "Віленскі павет", "name:bg": "Вилнюски окръг", "name:ca": "Comtat de Vílnius", "name:cs": "Vilniuský kraj", "name:el": "Επαρχία Βίλνιους", "name:en": "Vilnius County", "name:eo": "Distrikto Vilno", "name:es": "Provincia de Vilna", "name:et": "Vilniuse maakond", "name:eu": "Vilniusko konderria", "name:fa": "شهرستان ویلنیوس", "name:fi": "Vilnan lääni", "name:fr": "Apskritis de Vilnius", "name:ga": "Contae Vilnius", "name:hr": "Okrug Vilnius", "name:id": "County Vilnius", "name:it": "Contea di Vilnius", "name:ja": "ヴィリニュス県", "name:ka": "ვილნიუსის მაზრა", "name:ko": "빌뉴스 주", "name:kw": "Konteth Vilnius", "name:lt": "Vilniaus apskritis", "name:lv": "Viļņas apriņķis", "name:nn": "Vilnius fylke", "name:no": "Vilnius fylke", "name:pl": "Okręg wileński", "name:ro": "Județul Vilnius", "name:ru": "Вильнюсский уезд", "name:sa": "विल्ञुमण्डलम्", "name:sh": "Вилњус округ", "name:sr": "Вилњуски округ", "name:sv": "Vilnius län", "name:sw": "Wilaya ya Vilnius", "name:uk": "Вільнюський повіт", "name:ur": "ویلنیوس کاؤنٹی", "name:zh": "維爾紐斯縣", "name:pnb": "ویلنیوس کاؤنٹی", "name:sco": "Vilnius Coonty", "name:stq": "Distrikt Vilnius", "population": "810403", "geonames:id": "864485", "name:bat-smg": "Vėlniaus apskrėtės", "is_in:country": "Lithuania", "name:be-tarask": "Віленскі павет", "is_in:continent": "Europe", "is_in:country_code": "LT"}}, "center_lat": 54.82, "center_lon": 25.23, "area_m2": 9721463794, "timezone": "Europe/Vilnius", "population": 805142, "wikidata_id": "Q188061", "wikipedia_id": "lt:Vilniaus apskritis"}}