{"type": "Feature", "geometry": {"type": "Polygon", "coordinates": [[[27.374, 53.872], [27.583, 53.972], [27.644, 53.834], [27.374, 53.872]]]}, "properties": {"name": "Minsk", "iso2": "BY-HM", "admin_level": 4, "osm_id": 59195, "countrylevel_id": "iso2:BY-HM", "osm_data": {"localname": "Минск", "official_name": "", "alltags": {"capital": "yes", "name:cs": "Minsk", "name:cu": "Мѣньскъ", "name:cv": "Минск", "name:el": "Μινσκ", "name:en": "Minsk", "name:eo": "Minsko", "name:es": "Minsk", "name:et": "Minsk", "name:fa": "مینسک", "name:fi": "Minsk", "name:fr": "Minsk", "name:ga": "Minsc", "name:gl": "Minsk - Мінск", "name:he": "מינסק", "name:hi": "मिन्‍स्‍क", "name:hr": "Minsk", "name:hu": "Minszk", "name:hy": "Մինսկ", "name:ia": "Minsk", "name:io": "Minsk", "name:is": "Minsk", "name:ja": "ミンスク", "name:ka": "მინსკი", "name:kk": "Минск", "name:kn": "ಮಿನ್ಸ್ಕ್", "name:ko": "민스크", "name:ku": "Mînsk", "name:kv": "Минск", "name:ky": "Минск", "name:la": "Minscum", "name:lt": "Minskas", "name:lv": "Minska", "name:mk": "Минск", "name:ml": "മിൻസ്ക്", "name:mr": "मिन्‍स्‍क", "name:nl": "Minsk", "name:no": "Minsk", "name:os": "Минск", "name:pl": "Mińsk", "name:ru": "Минск", "name:sk": "Minsk", "name:sl": "Minsk", "name:sr": "Минск", "name:sv": "Minsk", "name:ta": "மின்ஸ்க்", "name:tg": "Минск", "name:th": "มินสก์", "name:tt": "Минск", "name:ug": "مىنىسكى", "name:uk": "Мінськ", "name:ur": "منسک", "name:vi": "Minxcơ", "name:vo": "Minsk", "name:yi": "מינסק", "name:zh": "明斯克", "website": "https://minsk.gov.by/", "int_name": "Minsk", "name:ckb": "مینسک", "name:csb": "Mińsk", "name:jbo": "misk", "name:mhr": "Минск", "name:myv": "Минск ош", "name:nds": "Minsk", "name:pnb": "منسک", "name:rue": "Мінск", "name:sah": "Минскай", "name:szl": "Mińsk", "name:udm": "Минск", "name:wuu": "明斯克", "nat_name": "Мінск", "old_name": "Менск", "population": "1982444", "alt_name:be": "Менск", "alt_name:vi": "Minsk;Minxcơva", "name:prefix": "город", "old_name:be": "Менск", "addr:country": "BY", "is_in:country": "Belarus", "is_in:continent": "Europe", "population:date": "2018-01-01", "is_in:country_code": "BY"}}, "center_lat": 53.89, "center_lon": 27.61, "area_m2": 348080179, "timezone": "Europe/Minsk", "population": 2020600, "wikidata_id": "Q2280", "wikipedia_id": "be:Мінск"}}