{"type": "Feature", "geometry": {"type": "Polygon", "coordinates": [[[41.55, 42.412], [41.949, 42.639], [41.868, 42.985], [42.081, 43.205], [42.414, 43.257], [42.853, 43.179], [43.146, 42.969], [43.01, 42.89], [43.008, 42.891], [43.003, 42.891], [42.471, 42.921], [42.618, 42.564], [42.225, 42.121], [42.028, 42.163], [41.869, 42.145], [41.716, 42.069], [41.55, 42.412]]]}, "properties": {"name": "Samegrelo-Upper Svaneti", "iso2": "GE-SZ", "admin_level": 4, "osm_id": 1996076, "countrylevel_id": "iso2:GE-SZ", "osm_data": {"localname": "სამეგრელო-ზემო სვანეთი", "official_name": "", "alltags": {"name:ab": "Агырны-Хыхьтәи Шәаны", "name:ca": "Samegrelo - Zemo Svaneti", "name:en": "Samegrelo-Upper Svaneti", "name:es": "Samegrelo-Zemo Svaneti", "name:fr": "Mingrélie-et-Haute-Svanétie", "name:it": "Mingrelia-Alta Svanezia", "name:ka": "სამეგრელო-ზემო სვანეთი", "name:ku": "Samêgrelo û Zêmo Svanêtî", "name:ru": "Самегрело и Верхняя Сванетия", "name:uk": "Самеґрело-Земо Сванеті", "website": "http://www.szs.gov.ge/cgi-bin/admin/index.pl", "int_name": "Samegrelo-Zemo Svaneti", "name:xmf": "სამარგალო-ჟიმოლენი შონეშ აკანი", "population": "466000"}}, "center_lat": 42.7, "center_lon": 42.25, "area_m2": 7521636847, "timezone": "Asia/Tbilisi", "population": 320805, "wikidata_id": "Q200309", "wikipedia_id": "ka:სამეგრელო-ზემო სვანეთის მხარე"}}