{"type": "Feature", "geometry": {"type": "Polygon", "coordinates": [[[17.396, 48.813], [17.647, 48.854], [17.92, 49.015], [18.108, 49.135], [18.323, 49.315], [18.575, 49.143], [18.826, 48.744], [18.479, 48.549], [17.979, 48.613], [17.396, 48.813]]]}, "properties": {"name": "Region of Trenčín", "iso2": "SK-TC", "admin_level": 4, "osm_id": 388267, "countrylevel_id": "iso2:SK-TC", "osm_data": {"localname": "Trenčiansky kraj", "official_name": "", "alltags": {"NUTS3": "SK022", "name:ar": "إقليم ترنتشين", "name:en": "Region of Trenčín", "name:es": "Región de Trenčín", "name:fr": "Région de Trenčín", "name:hr": "Trenčinski kraj", "name:hu": "Trencséni kerület", "name:pl": "Kraj trenczyński", "name:ru": "Тренчинский край", "name:uk": "Тренчинський край", "is_in:country": "Slovakia", "is_in:continent": "Europe", "is_in:country_code": "SK"}}, "center_lat": 48.86, "center_lon": 18.21, "area_m2": 4496984919, "timezone": "Europe/Bratislava", "population": 587364, "wikidata_id": "Q183139", "wikipedia_id": "sk:Trenčiansky kraj"}}