{"type": "Feature", "properties": {"name": "Lublin Voivodeship", "iso2": "PL-06", "admin_level": 4, "osm_id": 130919, "countrylevel_id": "iso2:PL-06", "osm_data": {"localname": "województwo lubelskie", "official_name": "", "alltags": {"name:ar": "محافظة لوبيلسكي", "name:be": "Люблінскае ваяводства", "name:cs": "Lublinské vojvodství", "name:en": "Lublin Voivodeship", "name:eo": "Lublina Provinco", "name:es": "Voivodato de Lublin", "name:fr": "Voïvodie de Lublin", "name:hr": "Lublinsko vojvodstvo", "name:hu": "Lublini vajdaság", "name:ja": "ルブリン県", "name:ka": "ლუბლინის სავოევოდო", "name:lt": "Liublino vaivadija", "name:nl": "Woiwodschap Lublin", "name:pl": "województwo lubelskie", "name:ru": "Люблинское воеводство", "name:sk": "Lubelské vojvodstvo", "name:sl": "Lublinsko vojvodstvo", "name:uk": "Люблінське воєводство", "name:zh": "卢布林省", "loc_name": "lubelskie", "name:szl": "wojewůdztwo lubelske", "short_name": "lubelskie", "teryt:terc": "06", "alt_name:en": "Lublin Province", "alt_name:pl": "lubelskie", "long_name:fr": "Voïvodie de Lublin", "is_in:country": "Poland", "name:be-tarask": "Люблінскае ваяводзтва", "is_in:continent": "Europe", "is_in:country_code": "PL", "license_plate_code": "L"}}, "center_lat": 51.23, "center_lon": 22.92, "timezone": "Europe/Warsaw", "population": 2151836, "wikidata_id": "Q54155", "wikipedia_id": "pl:Województwo lubelskie"}, "geometry": {"type": "MultiPolygon", "coordinates": [[[[21.803, 51.072], [21.864, 50.802], [22.536, 50.572], [22.412, 50.423], [23.548, 50.252], [24.098, 50.637], [24.145, 50.87], [23.618, 51.508], [23.688, 51.994], [23.178, 52.283], [23.128, 52.288], [22.903, 52.11], [21.88, 51.971], [21.803, 51.072]]]]}}