{"type": "Feature", "properties": {"name": "Świętokrzyskie Voivodeship", "iso2": "PL-26", "admin_level": 4, "osm_id": 130914, "countrylevel_id": "iso2:PL-26", "osm_data": {"localname": "województwo świętokrzyskie", "official_name": "", "alltags": {"name:be": "Свентакшыскае ваяводства", "name:cs": "Svatokřížské vojvodství", "name:en": "Świętokrzyskie Voivodeship", "name:eo": "Sanktakruca Provinco", "name:es": "Voivodato de Santa Cruz", "name:fr": "Sainte-Croix", "name:hr": "Svetokriško vojvodstvo", "name:ja": "シフィェンティクシシュ県", "name:lt": "Švento Kryžiaus vaivadija", "name:nl": "Woiwodschap Swiety Krzyz", "name:pl": "województwo świętokrzyskie", "name:ru": "Свентокшиское воеводство", "name:sk": "Svätokrížske vojvodstvo", "name:sl": "Svetokriško vojvodstvo", "name:uk": "Свентокшиське воєводство", "name:szl": "śwjyntokrziske wojewůdztwo", "short_name": "świętokrzyskie", "teryt:terc": "26", "alt_name:en": "Świętokrzyskie Province", "long_name:fr": "Voïvodie de Sainte-Croix", "is_in:country": "Poland", "name:be-tarask": "Сьвентакшыскае ваяводзтва", "is_in:continent": "Europe", "is_in:country_code": "PL", "license_plate_code": "T"}}, "center_lat": 50.76, "center_lon": 20.75, "timezone": "Europe/Warsaw", "wikidata_id": "Q54183", "wikipedia_id": "pl:Województwo świętokrzyskie"}, "geometry": {"type": "MultiPolygon", "coordinates": [[[[19.95, 50.505], [20.416, 50.191], [21.209, 50.355], [21.864, 50.802], [21.803, 51.072], [21.464, 51.013], [20.433, 51.339], [19.747, 50.866], [19.95, 50.505]]]]}}