{"type": "Feature", "properties": {"name": "Greater Poland Voivodeship", "iso2": "PL-30", "admin_level": 4, "osm_id": 130971, "countrylevel_id": "iso2:PL-30", "osm_data": {"localname": "województwo wielkopolskie", "official_name": "", "alltags": {"name:be": "Вялікапольскае ваяводства", "name:cs": "Velkopolské vojvodství", "name:en": "Greater Poland Voivodeship", "name:eo": "Grandpollanda Provinco", "name:es": "Voivodato de Gran Polonia", "name:fr": "Grande-Pologne", "name:hr": "Velikopoljsko vojvodstvo", "name:hu": "Nagy-lengyelországi vajdaság", "name:ja": "ヴィエルコポルスカ県", "name:lt": "Didžiosios Lenkijos vaivadija", "name:nl": "Woiwodschap Groot-Polen", "name:pl": "województwo wielkopolskie", "name:ru": "Великопольское воеводство", "name:sk": "Veľkopoľské vojvodstvo", "name:uk": "Великопольське воєводство", "short_name": "wielkopolskie", "teryt:terc": "30", "long_name:fr": "Voïvodie de Grande-Pologne", "is_in:country": "Poland", "name:be-tarask": "Вялікапольскае ваяводзтва", "is_in:continent": "Europe", "is_in:country_code": "PL", "license_plate_code": "P"}}, "center_lat": 52.35, "center_lon": 17.22, "timezone": "Europe/Warsaw", "wikidata_id": "Q54187", "wikipedia_id": "pl:Województwo wielkopolskie"}, "geometry": {"type": "MultiPolygon", "coordinates": [[[[16.416, 51.785], [16.928, 51.552], [17.47, 51.626], [17.795, 51.194], [18.164, 51.173], [18.472, 51.851], [19.047, 52.333], [17.648, 52.69], [17.302, 52.995], [17.391, 53.491], [16.892, 53.656], [16.436, 53.461], [16.697, 53.301], [15.962, 53.041], [15.833, 52.111], [16.416, 51.785]]]]}}