{"type": "Feature", "properties": {"name": "Anhui", "iso2": "CN-AH", "admin_level": 4, "osm_id": 913011, "countrylevel_id": "iso2:CN-AH", "osm_data": {"localname": "安徽省", "official_name": "", "alltags": {"name:af": "Anhui", "name:ar": "آنهوي", "name:az": "Anhoy", "name:be": "Аньхой", "name:bg": "Анхуей", "name:bn": "আনহুই", "name:bo": "ཨན་ཧུའེ་ཞིང་ཆེན།", "name:br": "Anhui", "name:bs": "Anhui", "name:ca": "Anhui", "name:ce": "Аньхой", "name:cs": "An-chuej", "name:cy": "Anhui", "name:da": "Anhui", "name:el": "Ανχουέι", "name:en": "Anhui", "name:eo": "Anhujo", "name:es": "Anhui", "name:et": "Anhui", "name:eu": "Anhui", "name:fa": "آن‌هوئی", "name:fi": "Anhui", "name:fr": "Anhui", "name:ga": "Anhui", "name:gl": "Anhui", "name:gv": "Anhui", "name:he": "אנחווי", "name:hi": "अनहुइ", "name:hr": "Anhui", "name:hu": "Anhuj", "name:hy": "Անհոյ", "name:ia": "Anhui", "name:id": "Anhui", "name:it": "Anhui", "name:ja": "安徽省", "name:ka": "ანხოი", "name:kg": "Anhui", "name:kk": "Аньхой", "name:ko": "안후이성", "name:la": "Anhui", "name:lt": "Anhujus", "name:lv": "Aņhui", "name:mg": "Anhui", "name:ml": "ആൻഹുയി", "name:mn": "Аньхуй муж", "name:mr": "आंह्वी", "name:ms": "Anhui", "name:my": "အန်းဟွေးပြည်နယ်", "name:nl": "Anhui", "name:nn": "Anhui", "name:no": "Anhui", "name:oc": "Anhui", "name:pa": "ਅਨਹੁਈ", "name:pl": "Anhui", "name:pt": "Anhui", "name:qu": "Anhui pruwinsya", "name:ro": "Anhui", "name:ru": "Аньхой", "name:sk": "An-chuej", "name:sr": "Анхуеј", "name:sv": "Anhui", "name:sw": "Anhui", "name:ta": "அன்ஹுயி மாகாணம்", "name:tg": "Анҳуй", "name:th": "มณฑลอานฮุย", "name:tl": "Anhui", "name:tr": "Anhui", "name:ug": "ئەنخۇي ئۆلكىسى", "name:uk": "Аньхой", "name:ur": "انہوئی", "name:uz": "Anxoy", "name:vi": "An Huy", "name:wa": "Anhoui", "name:za": "Anhveih", "name:zh": "安徽省", "int_name": "Anhui", "name:lzh": "安徽省", "name:nan": "An-hui-séng", "name:yue": "安徽省", "china_class": "province", "name:zh-Hans": "安徽省", "name:zh-Hant": "安徽省", "name:zh_pinyin": "Ānhuī", "PRC_adm_div_code": "34;340000", "is_in:country_code": "CN", "中国行政区划": "省"}}, "center_lat": 31.83, "center_lon": 117.23, "timezone": "Asia/Shanghai", "population": 60300000, "wikidata_id": "Q40956", "wikipedia_id": "zh:安徽省"}, "geometry": {"type": "MultiPolygon", "coordinates": [[[[115.368, 31.407], [115.387, 31.394], [115.368, 31.35], [115.436, 31.346], [115.457, 31.323], [115.454, 31.282], [115.499, 31.271], [115.537, 31.232], [115.534, 31.195], [115.554, 31.163], [115.589, 31.149], [115.642, 31.211], [115.696, 31.203], [115.758, 31.136], [115.787, 31.126], [115.866, 31.144], [115.888, 31.104], [115.936, 31.071], [115.936, 31.046], [116.001, 31.037], [116.01, 31.014], [116.054, 31.015], [116.066, 30.971], [115.994, 30.947], [115.919, 30.889], [115.862, 30.868], [115.837, 30.837], [115.863, 30.781], [115.847, 30.759], [115.778, 30.755], [115.758, 30.688], [115.808, 30.64], [115.802, 30.618], [115.874, 30.583], [115.881, 30.546], [115.916, 30.519], [115.89, 30.455], [115.942, 30.427], [115.879, 30.385], [115.911, 30.338], [115.899, 30.313], [115.98, 30.294], [115.985, 30.265], [116.06, 30.207], [116.051, 30.184], [116.065, 30.135], [116.083, 30.129], [116.072, 30.069], [116.069, 29.966], [116.125, 29.899], [116.131, 29.826], [116.196, 29.832], [116.259, 29.784], [116.33, 29.833], [116.462, 29.899], [116.547, 29.913], [116.581, 30.049], [116.606, 30.073], [116.657, 30.08], [116.769, 30.044], [116.797, 29.999], [116.825, 30.014], [116.822, 29.979], [116.891, 29.971], [116.892, 29.913], [116.842, 29.851], [116.783, 29.794], [116.757, 29.808], [116.704, 29.746], [116.683, 29.743], [116.664, 29.702], [116.684, 29.675], [116.645, 29.646], [116.708, 29.595], [116.72, 29.566], [116.755, 29.605], [116.775, 29.573], [116.83, 29.572], [116.875, 29.62], [116.961, 29.656], [116.991, 29.686], [117.031, 29.683], [117.115, 29.728], [117.1, 29.752], [117.134, 29.786], [117.068, 29.834], [117.124, 29.865], [117.125, 29.903], [117.201, 29.93], [117.262, 29.889], [117.238, 29.851], [117.284, 29.837], [117.333, 29.856], [117.351, 29.816], [117.382, 29.844], [117.424, 29.84], [117.403, 29.801], [117.455, 29.734], [117.445, 29.694], [117.468, 29.669], [117.523, 29.662], [117.537, 29.591], [117.586, 29.586], [117.643, 29.617], [117.678, 29.594], [117.686, 29.556], [117.725, 29.549], [117.807, 29.579], [117.877, 29.546], [117.954, 29.572], [117.979, 29.56], [118.022, 29.576], [118.052, 29.541], [118.096, 29.54], [118.138, 29.493], [118.134, 29.419], [118.188, 29.397], [118.245, 29.434], [118.31, 29.426], [118.299, 29.492], [118.358, 29.483], [118.378, 29.513], [118.49, 29.521], [118.494, 29.579], [118.531, 29.594], [118.569, 29.641], [118.616, 29.657], [118.638, 29.644], [118.696, 29.709], [118.741, 29.743], [118.733, 29.815], [118.748, 29.847], [118.78, 29.847], [118.84, 29.899], [118.836, 29.934], [118.889, 29.949], [118.894, 29.987], [118.879, 30.102], [118.862, 30.101], [118.843, 30.166], [118.895, 30.182], [118.926, 30.208], [118.879, 30.24], [118.89, 30.26], [118.876, 30.317], [118.951, 30.361], [118.983, 30.335], [119.026, 30.33], [119.058, 30.305], [119.086, 30.326], [119.182, 30.294], [119.232, 30.296], [119.244, 30.344], [119.259, 30.339], [119.321, 30.374], [119.344, 30.351], [119.399, 30.376], [119.362, 30.388], [119.329, 30.45], [119.332, 30.507], [119.307, 30.533], [119.267, 30.512], [119.236, 30.536], [119.263, 30.577], [119.234, 30.609], [119.307, 30.623], [119.333, 30.666], [119.386, 30.691], [119.397, 30.655], [119.441, 30.652], [119.48, 30.704], [119.478, 30.777], [119.522, 30.778], [119.551, 30.828], [119.57, 30.829], [119.548, 30.903], [119.587, 30.954], [119.575, 30.966], [119.626, 31.01], [119.636, 31.106], [119.618, 31.131], [119.601, 31.109], [119.527, 31.161], [119.454, 31.158], [119.425, 31.183], [119.386, 31.176], [119.355, 31.212], [119.375, 31.271], [119.345, 31.304], [119.329, 31.266], [119.261, 31.253], [119.192, 31.275], [119.195, 31.298], [119.153, 31.297], [119.127, 31.263], [119.048, 31.233], [119.009, 31.243], [118.865, 31.245], [118.79, 31.232], [118.758, 31.278], [118.712, 31.292], [118.741, 31.375], [118.805, 31.373], [118.845, 31.394], [118.878, 31.499], [118.879, 31.568], [118.854, 31.626], [118.8, 31.62], [118.769, 31.685], [118.743, 31.678], [118.731, 31.635], [118.638, 31.652], [118.693, 31.711], [118.649, 31.732], [118.636, 31.761], [118.567, 31.748], [118.548, 31.731], [118.529, 31.769], [118.477, 31.781], [118.5, 31.843], [118.447, 31.886], [118.359, 31.932], [118.386, 31.994], [118.38, 32.063], [118.41, 32.09], [118.495, 32.125], [118.505, 32.196], [118.639, 32.212], [118.671, 32.258], [118.653, 32.306], [118.704, 32.34], [118.674, 32.397], [118.686, 32.475], [118.622, 32.47], [118.587, 32.486], [118.611, 32.513], [118.604, 32.54], [118.558, 32.567], [118.593, 32.604], [118.628, 32.581], [118.652, 32.6], [118.683, 32.59], [118.714, 32.616], [118.8, 32.584], [118.816, 32.605], [118.83, 32.572], [118.904, 32.589], [118.882, 32.555], [118.932, 32.56], [118.97, 32.507], [119.035, 32.518], [119.077, 32.452], [119.141, 32.493], [119.146, 32.564], [119.181, 32.601], [119.206, 32.57], [119.224, 32.613], [119.204, 32.616], [119.205, 32.729], [119.18, 32.829], [119.102, 32.823], [119.054, 32.867], [119.015, 32.958], [118.93, 32.939], [118.89, 32.961], [118.844, 32.96], [118.83, 32.915], [118.802, 32.917], [118.809, 32.862], [118.734, 32.854], [118.742, 32.816], [118.733, 32.767], [118.755, 32.739], [118.712, 32.726], [118.636, 32.748], [118.569, 32.723], [118.555, 32.733], [118.482, 32.724], [118.449, 32.745], [118.426, 32.723], [118.365, 32.724], [118.356, 32.774], [118.322, 32.763], [118.296, 32.782], [118.296, 32.849], [118.245, 32.851], [118.229, 32.929], [118.305, 32.964], [118.241, 32.995], [118.238, 33.034], [118.214, 33.118], [118.217, 33.181], [118.168, 33.218], [118.146, 33.171], [118.034, 33.142], [117.989, 33.174], [117.973, 33.229], [117.932, 33.227], [117.938, 33.265], [117.98, 33.314], [117.962, 33.351], [117.999, 33.353], [118.019, 33.376], [118.014, 33.426], [118.054, 33.496], [118.099, 33.485], [118.107, 33.62], [118.156, 33.663], [118.176, 33.734], [118.106, 33.768], [117.978, 33.754], [117.938, 33.732], [117.797, 33.741], [117.747, 33.722], [117.715, 33.748], [117.736, 33.764], [117.751, 33.891], [117.71, 33.881], [117.667, 33.936], [117.664, 33.993], [117.607, 34.032], [117.61, 34.004], [117.566, 33.985], [117.512, 34.06], [117.404, 34.028], [117.347, 34.091], [117.303, 34.069], [117.182, 34.074], [117.126, 34.099], [117.121, 34.127], [117.029, 34.172], [117.056, 34.226], [116.965, 34.282], [116.956, 34.321], [116.973, 34.35], [116.956, 34.394], [116.915, 34.408], [116.823, 34.39], [116.721, 34.477], [116.563, 34.494], [116.587, 34.511], [116.489, 34.57], [116.472, 34.616], [116.432, 34.627], [116.424, 34.654], [116.37, 34.637], [116.321, 34.621], [116.309, 34.598], [116.274, 34.606], [116.243, 34.553], [116.194, 34.572], [116.198, 34.51], [116.157, 34.46], [116.21, 34.405], [116.208, 34.383], [116.279, 34.367], [116.296, 34.343], [116.358, 34.318], [116.358, 34.277], [116.451, 34.27], [116.498, 34.298], [116.578, 34.274], [116.538, 34.241], [116.56, 34.171], [116.531, 34.152], [116.524, 34.11], [116.547, 34.102], [116.599, 34.025], [116.602, 34.001], [116.643, 33.975], [116.635, 33.891], [116.562, 33.91], [116.553, 33.882], [116.48, 33.871], [116.432, 33.848], [116.428, 33.797], [116.311, 33.773], [116.258, 33.732], [116.192, 33.727], [116.15, 33.711], [116.095, 33.784], [116.05, 33.806], [116.055, 33.865], [115.982, 33.902], [115.995, 33.966], [115.952, 34.009], [115.905, 34.01], [115.872, 34.031], [115.872, 34.005], [115.807, 34.061], [115.73, 34.078], [115.7, 34.061], [115.648, 34.062], [115.644, 34.037], [115.596, 34.027], [115.541, 33.876], [115.626, 33.872], [115.609, 33.777], [115.56, 33.782], [115.59, 33.734], [115.596, 33.66], [115.635, 33.587], [115.559, 33.578], [115.504, 33.555], [115.458, 33.569], [115.417, 33.558], [115.389, 33.508], [115.36, 33.525], [115.34, 33.504], [115.341, 33.452], [115.319, 33.459], [115.311, 33.419], [115.359, 33.334], [115.355, 33.3], [115.329, 33.3], [115.338, 33.265], [115.291, 33.203], [115.298, 33.15], [115.169, 33.112], [115.162, 33.09], [115.107, 33.084], [115.026, 33.088], [114.99, 33.104], [114.961, 33.149], [114.927, 33.156], [114.9, 33.124], [114.891, 33.084], [114.911, 33.084], [114.917, 33.018], [114.889, 33.022], [114.877, 32.992], [114.939, 32.936], [115.005, 32.942], [115.025, 32.909], [115.131, 32.901], [115.151, 32.867], [115.19, 32.86], [115.177, 32.79], [115.178, 32.668], [115.214, 32.659], [115.189, 32.643], [115.195, 32.594], [115.284, 32.592], [115.299, 32.555], [115.405, 32.578], [115.403, 32.552], [115.473, 32.512], [115.509, 32.453], [115.562, 32.407], [115.597, 32.428], [115.621, 32.407], [115.692, 32.468], [115.699, 32.497], [115.738, 32.479], [115.762, 32.507], [115.78, 32.468], [115.888, 32.579], [115.905, 32.569], [115.84, 32.508], [115.865, 32.508], [115.894, 32.394], [115.907, 32.223], [115.937, 32.168], [115.927, 32.112], [115.938, 32.08], [115.919, 32.059], [115.924, 32.006], [115.902, 31.952], [115.915, 31.924], [115.888, 31.839], [115.904, 31.794], [115.809, 31.764], [115.763, 31.79], [115.725, 31.762], [115.677, 31.781], [115.654, 31.762], [115.489, 31.675], [115.471, 31.645], [115.481, 31.612], [115.433, 31.589], [115.408, 31.526], [115.367, 31.5], [115.384, 31.45], [115.368, 31.407]], [[116.694, 29.712], [116.694, 29.712], [116.694, 29.712], [116.694, 29.712]], [[116.7, 29.692], [116.7, 29.692], [116.7, 29.692], [116.7, 29.692]], [[116.827, 30.005], [116.827, 30.005], [116.827, 30.005], [116.827, 30.005]], [[118.836, 31.232], [118.836, 31.232], [118.836, 31.232], [118.836, 31.232]], [[118.838, 31.23], [118.838, 31.23], [118.838, 31.23], [118.838, 31.23]], [[118.839, 31.236], [118.839, 31.236], [118.839, 31.236], [118.839, 31.236]], [[118.84, 31.505], [118.84, 31.505], [118.84, 31.505], [118.84, 31.505]], [[118.841, 31.234], [118.841, 31.234], [118.841, 31.234], [118.841, 31.234]], [[118.845, 31.239], [118.845, 31.239], [118.845, 31.239], [118.845, 31.239]], [[118.848, 31.241], [118.848, 31.241], [118.848, 31.241], [118.848, 31.241]]]]}}