{"type": "Feature", "geometry": {"type": "Polygon", "coordinates": [[[39.439, 36.697], [39.817, 36.756], [40.233, 36.911], [40.762, 37.125], [41.218, 37.062], [41.665, 37.118], [42.035, 37.182], [42.352, 37.105], [42.369, 37.056], [41.817, 36.588], [41.402, 36.524], [41.256, 36.06], [41.369, 35.844], [41.324, 35.554], [40.756, 35.636], [39.92, 36.305], [39.804, 36.464], [39.439, 36.697]]]}, "properties": {"name": "Al-Hasakah", "iso2": "SY-HA", "admin_level": 4, "osm_id": 184856, "countrylevel_id": "iso2:SY-HA", "osm_data": {"localname": "الحسكة", "official_name": "", "alltags": {"name:ar": "الحسكة", "name:cs": "guvernorát Hasaka", "name:en": "Al-Hasakah", "name:es": "Gobernación de Hasaka", "name:fr": "Gouvernorat d'al-Hasaka", "name:ja": "ハサカ県", "name:pl": "Al-Hasaka", "name:ru": "Хасеке", "name:zh": "哈塞克省", "sorting_name:cs": "Hasaka"}}, "center_lat": 36.51, "center_lon": 40.91, "area_m2": 22742716920, "timezone": "Asia/Damascus", "population": 1512000, "wikidata_id": "Q233914", "wikipedia_id": "ar:محافظة الحسكة"}}