{"type": "Feature", "properties": {"name": "Afghanistan", "iso1": "AF", "admin_level": 2, "osm_id": 303427, "countrylevel_id": "iso1:AF", "osm_data": {"localname": "ÿßŸÅÿ∫ÿßŸÜÿ≥ÿ™ÿßŸÜ", "official_name": "C·ªông h√≤a H·ªìi gi√°o Afghanistan", "alltags": {"flag": "http://upload.wikimedia.org/wikipedia/commons/9/9a/Flag_of_Afghanistan.svg", "name:af": "Afghanistan", "name:ak": "Afganistan", "name:am": "·ä†·çç·åã·äí·àµ·â≥·äï", "name:an": "Afganist√°n", "name:ar": "ÿ£ŸÅÿ∫ÿßŸÜÿ≥ÿ™ÿßŸÜ", "name:as": "‡¶Ü‡¶´‡¶ó‡¶æ‡¶®‡¶ø‡¶∏‡ßç‡¶§‡¶æ‡¶®", "name:az": "∆èfqanƒ±stan", "name:ba": "–ê—Ñ“ì–∞–Ω—Å—Ç–∞–Ω", "name:be": "–ê—Ñ–≥–∞–Ω—ñ—Å—Ç–∞–Ω", "name:bg": "–ê—Ñ–≥–∞–Ω–∏—Å—Ç–∞–Ω", "name:bh": "‡§Ö‡§´‡§º‡§ó‡§º‡§æ‡§®‡§ø‡§∏‡•ç‡§§‡§æ‡§®", "name:bm": "Afiganista≈ã", "name:bn": "‡¶Ü‡¶´‡¶ó‡¶æ‡¶®‡¶ø‡¶∏‡ßç‡¶§‡¶æ‡¶®", "name:bo": "‡Ω®‡ºã‡Ωß‡æ•‡Ω¥‡Ω†‡Ω¥‡ºã‡Ω¢‡æí‡Ωì‡ºã‡Ω¶‡Ω≤‡ºã‡Ωê‡Ωì‡ºç", "name:br": "Afghanistan", "name:bs": "Afganistan", "name:ca": "Afganistan", "name:ce": "–ê—Ñ–≥I–∞–Ω–∏—Å—Ç–∞–Ω", "name:co": "Afghanistan", "name:cs": "Afgh√°nist√°n", "name:cv": "–ê—Ñ–≥–∞–Ω–∏—Å—Ç–∞–Ω", "name:cy": "Affganistan", "name:da": "Afghanistan", "name:dv": "ﬁáﬁ¶ﬁäﬁ∞ﬁ£ﬁßﬁÇﬁ®ﬁêﬁ∞ﬁåﬁßﬁÇﬁ∞", "name:dz": "‡Ω®‡Ωï‡ºã‡ΩÇ‡ºã‡Ωì‡Ω≤‡Ω¶‡Ω≤‡ºã‡Ωè‡Ω±‡Ωì‡ºã", "name:ee": "Afghanistan nutome", "name:el": "ŒëœÜŒ≥Œ±ŒΩŒπœÉœÑŒ¨ŒΩ", "name:en": "Afghanistan", "name:eo": "Afganujo", "name:es": "Afganist√°n", "name:et": "Afganistan", "name:eu": "Afganistan", "name:fa": "ÿßŸÅÿ∫ÿßŸÜÿ≥ÿ™ÿßŸÜ", "name:ff": "Afganistaan", "name:fi": "Afganistan", "name:fo": "Afghanistan", "name:fr": "Afghanistan", "name:fy": "Afganistan", "name:ga": "An Afganast√°in", "name:gd": "Afganastan", "name:gl": "Afganist√°n - ÿßŸÅÿ∫ÿßŸÜÿ≥ÿ™ÿßŸÜ", "name:gn": "Ahyganit√£", "name:gu": "‡™Ö‡™´‡™ò‡™æ‡™®‡™ø‡™∏‡´ç‡™§‡™æ‡™®", "name:gv": "Yn Afghanistaan", "name:ha": "Afghanistan", "name:he": "◊ê◊§◊í◊†◊ô◊°◊ò◊ü", "name:hi": "‡§Ö‡§´‡§º‡•ç‡§ó‡§æ‡§®‡§ø‡§∏‡•ç‡§§‡§æ‡§®", "name:hr": "Afganistan", "name:ht": "Afganistan", "name:hu": "Afganiszt√°n", "name:hy": "‘±÷Ü’≤’°’∂’Ω’ø’°’∂", "name:ia": "Afghanistan", "name:id": "Afganistan", "name:ie": "Afghanistan", "name:io": "Afganistan", "name:is": "Afganistan", "name:it": "Afghanistan", "name:ja": "„Ç¢„Éï„Ç¨„Éã„Çπ„Çø„É≥", "name:jv": "Afganistan", "name:ka": "·Éê·Éï·É¶·Éê·Éú·Éî·Éó·Éò", "name:kg": "Afghanistan", "name:ki": "Afghanistan", "name:kk": "–ê—É“ì–∞–Ω—Å—Ç–∞–Ω", "name:kl": "Afghanistan", "name:km": "·ûü·û∂·ûí·û∂·ûö·ûé·ûö·ûä·üí·ûã·û•·ûü·üí·ûõ·û∂·ûò·û¢·û∂·û†·üí·ûú·û†·üí·ûÄ·û∂·ûì·û∏·ûü·üí·ûê·û∂·ûì", "name:kn": "‡≤Ö‡≤´‡≥ç‡≤ò‡≤æ‡≤®‡≤ø‡≤∏‡≥ç‡≤§‡≤æ‡≤®", "name:ko": "ÏïÑÌîÑÍ∞ÄÎãàÏä§ÌÉÑ", "name:ks": "ÿßŸéŸÅÿ∫ÿßŸÜŸéÿ≥ÿ™ÿßŸÜ", "name:ku": "Afxanistan", "name:kv": "–ê—Ñ–≥–∞–Ω–∏—Å—Ç–∞–Ω", "name:kw": "Afghanistan", "name:ky": "–û–æ–≥–∞–Ω—Å—Ç–∞–Ω", "name:la": "Afgania", "name:lb": "Afghanistan", "name:lg": "Afaganisitani", "name:li": "Afghanistan", "name:ln": "Afganist√°ni", "name:lo": "‡∫≠‡∫±‡∫ö‡∫Å‡∫≤‡∫ô‡∫¥‡∫™‡∫∞‡∫ñ‡∫≤‡∫ô", "name:lt": "Afganistanas", "name:lv": "AfganistƒÅna", "name:mg": "Afganistana", "name:mi": "ƒÄwhekenetƒÅna", "name:mk": "–ê–≤–≥–∞–Ω–∏—Å—Ç–∞–Ω", "name:ml": "‡¥Ö‡¥´‡µç‡¥ó‡¥æ‡¥®‡¥ø‡¥∏‡µç‡¥§‡¥æ‡µª", "name:mn": "–ê—Ñ–≥–∞–Ω–∏—Å—Ç–∞–Ω", "name:mo": "–ê—Ñ–≥–∞–Ω–∏—Å—Ç–∞–Ω", "name:mr": "‡§Ö‡§´‡§ó‡§æ‡§£‡§ø‡§∏‡•ç‡§§‡§æ‡§®", "name:ms": "Afghanistan", "name:mt": "Afganistan", "name:my": "·Ä°·Ä¨·Äñ·ÄÇ·Äî·Ä∫·Äî·ÄÖ·Äπ·ÄÖ·Äê·Äî·Ä∫·Äî·Ä≠·ÄØ·ÄÑ·Ä∫·ÄÑ·Ä∂", "name:na": "Apeganitan", "name:ne": "‡§Ö‡§´‡§ó‡§æ‡§®‡§ø‡§∏‡•ç‡§§‡§æ‡§®", "name:nl": "Afghanistan", "name:nn": "Afghanistan", "name:no": "Afghanistan", "name:oc": "Afganistan", "name:om": "Afgaanistaan", "name:or": "‡¨Ü‡¨´‡¨ó‡¨æ‡¨®‡¨ø‡¨∏‡≠ç‡¨§‡¨æ‡¨®", "name:os": "–ê—Ñ–≥—ä–∞–Ω–∏—Å—Ç–∞–Ω", "name:pa": "‡®Ö‡®´‡®º‡®ó‡®º‡®æ‡®®‡®ø‡®∏‡®§‡®æ‡®®", "name:pi": "‡§Ö‡§´‡§ó‡§æ‡§®‡§∏‡•ç‡§•‡§æ‡§®", "name:pl": "Afganistan", "name:ps": "ÿßŸÅÿ∫ÿßŸÜÿ≥ÿ™ÿßŸÜ", "name:pt": "Afeganist√£o", "name:qu": "Afgansuyu", "name:rm": "Afganistan", "name:rn": "Afuganisitani", "name:ro": "Afganistan", "name:ru": "–ê—Ñ–≥–∞–Ω–∏—Å—Ç–∞–Ω", "name:rw": "Afuganisitani", "name:sa": "‡§Ö‡§´‡§ó‡§æ‡§®‡§∏‡•ç‡§•‡§æ‡§®", "name:sd": "ÿßŸÅÿ∫ÿßŸÜÿ≥ÿ™ÿßŸÜ", "name:se": "Afganist√°na", "name:sg": "Fagan√Øta, Afgan√Øst√§an", "name:sh": "Afganistan", "name:si": "‡∂á‡∑Ü‡∑ä‡∂ú‡∂±‡∑í‡∑É‡∑ä‡∂Æ‡∑è‡∂±‡∂∫", "name:sk": "Afganistan", "name:sl": "Afganistan", "name:sm": "Afakanisitana", "name:sn": "Afghanistan", "name:so": "Afgaanistan", "name:sq": "Afganistani", "name:sr": "–ê–≤–≥–∞–Ω–∏—Å—Ç–∞–Ω", "name:ss": "I-Afugani", "name:su": "Apganistan", "name:sv": "Afghanistan", "name:sw": "Afghanistan", "name:ta": "‡ÆÜ‡Æ™‡Øç‡Æï‡Ææ‡Æ©‡Æø‡Æ§‡Øç‡Æ§‡Ææ‡Æ©‡Øç", "name:te": "‡∞Ü‡∞´‡±ç‡∞ò‡∞®‡∞ø‡∞∏‡±ç‡∞§‡∞æ‡∞®‡±ç", "name:tg": "–ê—Ñ“ì–æ–Ω–∏—Å—Ç–æ–Ω", "name:th": "‡∏õ‡∏£‡∏∞‡πÄ‡∏ó‡∏®‡∏≠‡∏±‡∏ü‡∏Å‡∏≤‡∏ô‡∏¥‡∏™‡∏ñ‡∏≤‡∏ô", "name:ti": "·ä†·çç·åã·äí·àµ·â≥·äï", "name:tk": "Owganystan", "name:tl": "Apganistan", "name:to": " ªAfukanisitani", "name:tr": "Afganistan", "name:tt": "”ò—Ñ–≥–∞–Ω—Å—Ç–∞–Ω", "name:ug": "ÿ¶ÿßŸÅÿ∫ÿßŸÜŸâÿ≥ÿ™ÿßŸÜ", "name:uk": "–ê—Ñ–≥–∞–Ω—ñ—Å—Ç–∞–Ω", "name:ur": "ÿßŸÅÿ∫ÿßŸÜÿ≥ÿ™ÿßŸÜ", "name:uz": "Afg ªoniston", "name:vi": "Afghanistan", "name:vo": "Lafganist√§n", "name:wo": "Afganistaan", "name:yi": "◊ê◊§◊í◊ê◊†◊ô◊°◊ò◊ê◊ü", "name:yo": "Afghan√≠st√†n", "name:za": "Afghanistan", "name:zh": "ÈòøÂØåÊ±ó", "name:zu": "I-Afganistani", "int_name": "Afghanistan", "name:ace": "Afghanistan", "name:ady": "–ê—Ñ–≥–∞–Ω–∏—Å—Ç–∞–Ω", "name:als": "Afghanischtan", "name:ang": "Afghanistan", "name:arc": "‹ê‹¶‹ì‹ê‹¢‹£‹õ‹ê‹¢", "name:arz": "ÿßŸÅÿ∫ÿßŸÜÿ≥ÿ™ÿßŸÜ", "name:ast": "Afganist√°n", "name:azb": "ÿßŸÅÿ∫ÿßŸÜ€åÿ≥ÿ™ÿßŸÜ", "name:bar": "Afghanistan", "name:bcl": "Apganistan", "name:bpy": "‡¶Ü‡¶´‡¶ó‡¶æ‡¶®‡¶ø‡¶∏‡ßç‡¶§‡¶æ‡¶®", "name:bug": "Afghanistan", "name:bxr": "–ê—Ñ–≥–∞–Ω–∏—Å—Ç–∞–Ω", "name:cdo": "Afghanistan", "name:ceb": "Apganistan", "name:chr": "·é†·è´·é®·èÇ·èç·èñ·èÇ", "name:ckb": "ÿ¶€ïŸÅÿ∫ÿßŸÜÿ≥ÿ™ÿßŸÜ", "name:crh": "Afƒüanistan", "name:csb": "Afganist√≥n", "name:diq": "Efƒüanƒ±stan", "name:dsb": "Afghanistan", "name:dty": "‡§Ö‡§´‡§ó‡§æ‡§®‡§ø‡§∏‡•ç‡§§‡§æ‡§®", "name:ext": "Afganist√°n", "name:frp": "Afganistan", "name:frr": "Afghanistan", "name:fur": "Afghanistan", "name:gag": "Afganistan", "name:gom": "‡§Ö‡§´‡§ó‡§æ‡§£‡§ø‡§∏‡•ç‡§§‡§æ‡§®", "name:got": "êå∞êçÜêå≤êå∞êåΩêåπêçÉêçÑêå∞êåΩ", "name:hak": "√Ç-fu-hon", "name:haw": "‚ÄòApekanikana", "name:hif": "Afghanistan", "name:hsb": "Afghanistan", "name:ilo": "Apganist√°n", "name:jam": "Afganistan", "name:jbo": "afyganisTAN", "name:kaa": "Afg'anstan", "name:kab": "Af…£anistan", "name:kbd": "–ê—Ñ–≥–∞–Ω–∏—Å—Ç—ç–Ω", "name:kbp": "Afganistani", "name:krc": "–ê—Ñ–≥–∞–Ω–∏—Å—Ç–∞–Ω", "name:ksh": "Afghanistan", "name:lad": "Afganistan", "name:lez": "–ê—Ñ–≥–∞–Ω–∏—Å—Ç–∞–Ω", "name:lij": "Afghanistan", "name:lmo": "Afghanistan", "name:lrc": "ÿ£ŸÅÿ∫ÿßŸÜÿ≥ÿ™ÿßŸÜ", "name:lzh": "ÈòøÂØåÊ±ó", "name:mai": "‡§Ö‡§´‡§ó‡§æ‡§®‡§ø‡§∏‡•ç‡§§‡§æ‡§®", "name:mdf": "–ê—Ñ–≥–∞–Ω–∏—Å—Ç–∞–Ω", "name:mhr": "–ê—Ñ–≥–∞–Ω–∏—Å—Ç–∞–Ω", "name:min": "Afganistan", "name:mwl": "Afeganistan", "name:myv": "–ê—Ñ–≥–∞–Ω–∏—Å—Ç–∞–Ω –ú–∞—Å—Ç–æ—Ä", "name:mzn": "ÿßŸÅÿ∫ÿßŸÜÿ≥ÿ™ÿßŸÜ", "name:nah": "Afganistan", "name:nan": "Afghanistan", "name:nds": "Afghanistan", "name:new": "‡§Ö‡§´‡§ó‡§æ‡§®‡§ø‡§∏‡•ç‡§§‡§æ‡§®", "name:nov": "Afganistan", "name:olo": "Afganistuanu", "name:pag": "Afghanistan", "name:pam": "Afganistan", "name:pap": "Afganist√°n", "name:pdc": "Afganischtaan", "name:pih": "Afganistaan", "name:pms": "Afg√†nistan", "name:pnb": "ÿßŸÅÿ∫ÿßŸÜÿ≥ÿ™ÿßŸÜ", "name:rue": "–ê—Ñ“ë–∞–Ω—ñ—Å—Ç–∞–Ω", "name:sah": "–ê—Ñ–≥–∞–Ω–∏—Å—Ç–∞–∞–Ω", "name:scn": "Afganist√†n", "name:sco": "Afghanistan", "name:stq": "Afghanistan", "name:szl": "Afga≈Ñistan", "name:tet": "Afeganistaun", "name:tok": "ma Akanisan", "name:tpi": "Afghanistan", "name:tum": "Afghanistan", "name:udm": "–ê—Ñ–≥–∞–Ω–∏—Å—Ç–∞–Ω", "name:vec": "Afganistan", "name:vep": "Afganistan", "name:vls": "Afghanistan", "name:war": "Afganistan", "name:wuu": "ÈòøÂØåÊ±ó", "name:xal": "–°–∞—Ä—Ç–∞ –ê–ø–≥–∞–Ω–º—É–¥–∏–Ω –û—Ä–Ω", "name:xmf": "·Éê·Éï·É¶·Éê·Éú·Éî·Éó·Éò", "name:yue": "ÈòøÂØåÊ±ó", "name:zea": "Afghanistan", "name:UN:ar": "ÿ£ŸÅÿ∫ÿßŸÜÿ≥ÿ™ÿßŸÜ", "name:UN:en": "Afghanistan", "name:UN:es": "Afganist√°n (el)", "name:UN:fr": "Afghanistan (l')", "name:UN:ru": "–ê—Ñ–≥–∞–Ω–∏—Å—Ç–∞–Ω", "name:UN:zh": "ÈòøÂØåÊ±ó", "alt_name:af": "Afganistan", "alt_name:eo": "Afganistano;Afganio", "alt_name:gd": "Afghanast√†n", "alt_name:io": "Afgania", "alt_name:it": "Afganistan", "alt_name:la": "Afghanistania", "alt_name:li": "Afganistan", "alt_name:mn": "–ê—Ñ–≥–∞–Ω —É–ª—Å", "alt_name:sh": "Avganistan", "alt_name:so": "Afqaanistan", "alt_name:vi": "√Åp-ga-n√≠t-xtƒÉng", "name:nds-nl": "Afghanistan", "old_name:vi": "A Ph√∫ H√£n", "alt_name:mzn": "ÿßŸÅÿ∫ÿßŸÜÿ≥ÿ™ŸàŸÜ", "alt_name:vec": "Afghanistan", "alt_name:war": "Afghanistan", "name:bat-smg": "Afganƒóstans", "name:cbk-zam": "Afghanistan", "name:fiu-vro": "Afganistan", "name:roa-rup": "Afganistan", "name:roa-tara": "Afghanistan", "official_name": "C·ªông h√≤a H·ªìi gi√°o Afghanistan", "name:be-tarask": "–ê—û–≥–∞–Ω—ñ—Å—Ç–∞–Ω", "name:zh_pinyin": "ƒÄf√πh√†n", "is_in:continent": "Asia", "default_language": "fa", "official_name:af": "Islamitiese Republiek van Afghanistan", "official_name:an": "Republica Islamica d'Afganist√°n", "official_name:ar": "ÿ¨ŸÖŸáŸàÿ±Ÿäÿ© ÿ£ŸÅÿ∫ÿßŸÜÿ≥ÿ™ÿßŸÜ ÿßŸÑÿ•ÿ≥ŸÑÿßŸÖŸäÿ©", "official_name:az": "∆èfqanƒ±stan ƒ∞slam Respublikasƒ±", "official_name:ba": "–ê—Ñ“ì–∞–Ω—Å—Ç–∞–Ω –ò—Å–ª–∞–º –†–µ—Å–ø—É–±–ª–∏–∫–∞“ª—ã", "official_name:be": "–Ü—Å–ª–∞–º—Å–∫–∞—è –†—ç—Å–ø—É–±–ª—ñ–∫–∞ –ê—Ñ–≥–∞–Ω—ñ—Å—Ç–∞–Ω", "official_name:bg": "–ò—Å–ª—è–º—Å–∫–∞ —Ä–µ–ø—É–±–ª–∏–∫–∞ –ê—Ñ–≥–∞–Ω–∏—Å—Ç–∞–Ω", "official_name:bn": "‡¶Ü‡¶´‡¶ó‡¶æ‡¶®‡¶ø‡¶∏‡ßç‡¶§‡¶æ‡¶® ‡¶á‡¶∏‡¶≤‡¶æ‡¶Æ‡ßÄ ‡¶™‡ßç‡¶∞‡¶ú‡¶æ‡¶§‡¶®‡ßç‡¶§‡ßç‡¶∞", "official_name:br": "Republik Islamek Afghanistan", "official_name:bs": "Islamska Republika Afganistan", "official_name:ce": "–ò—Å–ª–∞–º–∞–Ω –†–µ—Å–ø—É–±–ª–∏–∫–∞ –û–≤—Ö”Ä–∞–Ω", "official_name:cs": "Afgh√°nsk√° isl√°msk√° republika", "official_name:cv": "–ò—Å–ª–∞–º –ø–∞—Ç—à–∞–ªƒÉ—Öƒï –ê—Ñ–≥–∞–Ω–∏—Å—Ç–∞–Ω", "official_name:cy": "Gweriniaeth Islamaidd Affganistan", "official_name:da": "Den Islamiske Republik Afghanistan", "official_name:de": "Islamische Republik Afghanistan", "official_name:el": "ŒôœÉŒªŒ±ŒºŒπŒ∫ŒÆ ŒîŒ∑ŒºŒøŒ∫œÅŒ±œÑŒØŒ± œÑŒøœÖ ŒëœÜŒ≥Œ±ŒΩŒπœÉœÑŒ¨ŒΩ", "official_name:en": "Islamic Republic of Afghanistan", "official_name:eo": "Islama Respubliko Afganistano", "official_name:es": "Rep√∫blica Isl√°mica de Afganist√°n", "official_name:et": "Afganistani Islamivabariik", "official_name:eu": "Afganistango Estatu Islamiarra", "official_name:fa": "ÿ¨ŸÖŸáŸàÿ±€å ÿßÿ≥ŸÑÿßŸÖ€å ÿßŸÅÿ∫ÿßŸÜÿ≥ÿ™ÿßŸÜ", "official_name:fi": "Afganistanin islamilainen tasavalta", "official_name:fo": "Ta√∞ Islamska L√Ω√∞veldi√∞ Afghanistan", "official_name:fr": "R√©publique islamique d'Afghanistan", "official_name:fy": "Islamityske Republyk Afganistan", "official_name:ga": "Poblacht Ioslamach na Afganast√°in", "official_name:gd": "Poblachd Ioslamach Afghanast√†n", "official_name:gl": "Rep√∫blica Isl√°mica de Afganist√°n", "official_name:gn": "Tet√£ Isl√£rehegua Ahyganit√£", "official_name:he": "◊î◊®◊§◊ï◊ë◊ú◊ô◊ß◊î ◊î◊ê◊°◊ú◊ê◊û◊ô◊™ ◊©◊ú ◊ê◊§◊í◊†◊ô◊°◊ò◊ü", "official_name:hi": "‡§Ö‡§´‡§º‡•ç‡§ó‡§º‡§æ‡§®‡§ø‡§∏‡•ç‡§§‡§æ‡§® ‡§á‡§∏‡•ç‡§≤‡§æ‡§Æ‡§ø‡§ï ‡§ó‡§£‡§∞‡§æ‡§ú‡•ç‡§Ø", "official_name:hr": "Islamska Republika Afganistan", "official_name:hu": "Afganiszt√°ni Iszl√°m K√∂zt√°rsas√°g", "official_name:hy": "‘±÷Ü’≤’°’∂’Ω’ø’°’∂’´ ‘ª’Ω’¨’°’¥’°’Ø’°’∂ ’Ä’°’∂÷Ä’°’∫’•’ø’∏÷Ç’©’µ’∏÷Ç’∂", "official_name:id": "Republik Islam Afganistan", "official_name:is": "√çslamska l√Ω√∞veldi√∞ Afganistan", "official_name:it": "Repubblica Islamica dell'Afghanistan", "official_name:ja": "„Ç¢„Éï„Ç¨„Éã„Çπ„Çø„É≥„Éª„Ç§„Çπ„É©„É†ÂÖ±ÂíåÂõΩ", "official_name:ka": "·Éê·Éï·É¶·Éê·Éú·Éî·Éó·Éò·É° ·Éò·É°·Éö·Éê·Éõ·É£·É†·Éò ·É†·Éî·É°·Éû·É£·Éë·Éö·Éò·Éô·Éê", "official_name:kk": "–ê—É“ì–∞–Ω—Å—Ç–∞–Ω –ò—Å–ª–∞–º –†–µ—Å–ø—É–±–ª–∏–∫–∞—Å—ã", "official_name:km": "·ûü·û∂·ûí·û∂·ûö·ûé·ûö·ûä·üí·ûã·û•·ûü·üí·ûõ·û∂·ûò·û¢·û∂·û†·üí·ûú·û†·üí·ûÇ·û∂·ûì·û∏·ûü·üí·ûê·û∂·ûì", "official_name:kn": "‡≤Ö‡≤´‡≥ç‡≤ò‡≤æ‡≤®‡≤ø‡≤∏‡≥ç‡≤§‡≤æ‡≤® ‡≤á‡≤∏‡≥ç‡≤≤‡≤æ‡≤Æ‡≥Ä‡≤Ø ‡≤ó‡≤£‡≤∞‡≤æ‡≤ú‡≥ç‡≤Ø", "official_name:ko": "ÏïÑÌîÑÍ∞ÄÎãàÏä§ÌÉÑ Ïù¥Ïä¨Îûå Í≥µÌôîÍµ≠", "official_name:ku": "Komara √éslam√Æ ya Efxanistan√™", "official_name:ky": "–ê—Ñ–≥–∞–Ω—Å—Ç–∞–Ω –ò—Å–ª–∞–º ”©–ª–∫”©—Å“Ø", "official_name:la": "Res Publica Islamica Afganiae", "official_name:lt": "Afganist√£no Isl√£mo Resp√πblika", "official_name:lv": "AfganistƒÅnas IslƒÅma Republika", "official_name:mg": "Repoblika islamikan' Afganistana", "official_name:mi": "Ihirama o Repupirita o ƒÄwhekenetƒÅna", "official_name:mk": "–ò—Å–ª–∞–º—Å–∫–∞ –†–µ–ø—É–±–ª–∏–∫–∞ –ê–≤–≥–∞–Ω–∏—Å—Ç–∞–Ω", "official_name:ml": "‡¥á‡¥∏‡µç‡¥≤‡¥æ‡¥Æ‡¥ø‡¥ï‡µç‚Äå ‡¥±‡¥ø‡¥™‡¥¨‡µç‡¥≤‡¥ø‡¥ï‡µç‚Äå ‡¥ì‡¥´‡µç‚Äå ‡¥Ö‡¥´‡µç‡¥ó‡¥æ‡¥®‡¥ø‡¥∏‡µç‡¥§‡¥æ‡µª", "official_name:mn": "–ò—Å–ª–∞–º—ã–Ω –ë“Ø–≥–¥ –ù–∞–π—Ä–∞–º–¥–∞—Ö –ê—Ñ–≥–∞–Ω –£–ª—Å", "official_name:mr": "‡§Ö‡§´‡§ó‡§æ‡§£‡§ø‡§∏‡•ç‡§§‡§æ‡§®‡§ö‡•á ‡§á‡§∏‡•ç‡§≤‡§æ‡§Æ‡•Ä ‡§™‡•ç‡§∞‡§ú‡§æ‡§∏‡§§‡•ç‡§§‡§æ‡§ï", "official_name:ms": "Republik Islam Afghanistan", "official_name:mt": "Repubblika I≈ºlamika tal-Afganistan", "official_name:my": "·Ä°·Ä¨·Äñ·ÄÇ·Äî·Ä∫·Äî·ÄÖ·Äπ·ÄÖ·Äê·Äî·Ä∫ ·Ä°·ÄÖ·Äπ·ÄÖ·Äú·Ä¨·Äô·Ä∫ ·Äû·Äô·Äπ·Äô·Äê·Äî·Ä≠·ÄØ·ÄÑ·Ä∫·ÄÑ·Ä∂", "official_name:ne": "‡§á‡§∏‡•ç‡§≤‡§æ‡§Æ‡§ø‡§ï ‡§ó‡§£‡§§‡§®‡•ç‡§§‡•ç‡§∞ ‡§Ö‡§´‡§ó‡§æ‡§®‡§ø‡§∏‡•ç‡§§‡§æ‡§®", "official_name:nl": "Islamitische Republiek Afghanistan", "official_name:nn": "Den islamske republikken Afghanistan", "official_name:no": "Den islamske republikken Afghanistan", "official_name:oc": "Republica islamica d'Afganistan", "official_name:or": "‡¨Ü‡¨´‡¨ó‡¨æ‡¨®‡¨ø‡¨∏‡≠ç‡¨§‡¨æ‡¨® ‡¨á‡¨∏‡¨≤‡¨æ‡¨Æ‡¨ø‡¨ï ‡¨ó‡¨£‡¨§‡¨®‡≠ç‡¨§‡≠ç‡¨∞", "official_name:os": "–ê—Ñ–≥—ä–∞–Ω–∏—Å—Ç–∞–Ω—ã –ø—ã—Å—ã–ª–º–æ–Ω —Ä–µ—Å–ø—É–±–ª–∏–∫√¶", "official_name:pa": "‡®Ö‡®´‡®º‡®ó‡®º‡®æ‡®®‡®ø‡®∏‡®§‡®æ‡®® ‡®á‡®∏‡®≤‡®æ‡®Æ‡©Ä ‡®ó‡®£‡®∞‡®æ‡®ú", "official_name:pl": "Islamska Republika Afganistanu", "official_name:ps": "ÿØ ÿßŸÅÿ∫ÿßŸÜÿ≥ÿ™ÿßŸÜ ÿßÿ≥ŸÑÿßŸÖŸä ÿ¨ŸÖŸáŸàÿ±Ÿäÿ™", "official_name:pt": "Rep√∫blica Isl√¢mica do Afeganist√£o", "official_name:qu": "Muslim Ripuwlika Afgansuyu", "official_name:rm": "Rep√∫blica Isl√°mica de Afganist√°n", "official_name:ro": "Republica IslamicƒÉ Afghanistan", "official_name:ru": "–ò—Å–ª–∞ÃÅ–º—Å–∫–∞—è –†–µ—Å–ø—ÉÃÅ–±–ª–∏–∫–∞ –ê—Ñ–≥–∞–Ω–∏—Å—Ç–∞ÃÅ–Ω", "official_name:rw": "Repebulika y‚ÄôUbuyisilamu ya Afuganisitani", "official_name:se": "Afganistana islamla≈° d√°ssev√°ldi", "official_name:sh": "Islamska Republika Avganistan", "official_name:si": "‡∂á‡∑Ü‡∑ä‡∂ú‡∂±‡∑í‡∑É‡∑ä‡∂Æ‡∑è‡∂± ‡∂â‡∑É‡∑ä‡∂Ω‡∑è‡∂∏‡∑í‡∂ö ‡∂¢‡∂±‡∂ª‡∂¢‡∂∫", "official_name:sk": "Afgansk√° islamsk√° republika", "official_name:sl": "Islamska republika Afganistan", "official_name:so": "Jamuuriyadda islaamiga Afqaanistan", "official_name:sq": "Republika Islamike e Afganistanit", "official_name:sr": "–ò—Å–ª–∞–º—Å–∫–∞ –†–µ–ø—É–±–ª–∏–∫–∞ –ê–≤–≥–∞–Ω–∏—Å—Ç–∞–Ω", "official_name:su": "R√©publik Islam Apganistan", "official_name:sv": "Islamiska republiken Afghanistan", "official_name:sw": "Jamhuri ya Kiislamu ya Afghanistan", "official_name:ta": "‡ÆÖ‡Æ™‡Øç‡Æï‡Ææ‡Æ©‡Æø‡Æ§‡Øç‡Æ§‡Ææ‡Æ©‡Øç ‡Æá‡Æö‡ØÅ‡Æ≤‡Ææ‡ÆÆ‡Æø‡ÆØ‡Æï‡Øç ‡Æï‡ØÅ‡Æü‡Æø‡ÆØ‡Æ∞‡Æö‡ØÅ", "official_name:te": "‡∞á‡∞∏‡±ç‡∞≤‡∞æ‡∞Æ‡∞ø‡∞ï‡±ç ‡∞∞‡∞ø‡∞™‡∞¨‡±ç‡∞≤‡∞ø‡∞ï‡±ç ‡∞Ü‡∞´‡±ç ‡∞Ü‡∞´‡±ç‡∞ò‡∞®‡∞ø‡∞∏‡±ç‡∞§‡∞æ‡∞®‡±ç", "official_name:tg": "“∂—É–º“≥—É—Ä–∏–∏ –ò—Å–ª–æ–º–∏–∏ –ê—Ñ“ì–æ–Ω–∏—Å—Ç–æ–Ω", "official_name:th": "‡∏™‡∏≤‡∏ò‡∏≤‡∏£‡∏ì‡∏£‡∏±‡∏ê‡∏≠‡∏¥‡∏™‡∏•‡∏≤‡∏°‡∏≠‡∏±‡∏ü‡∏Å‡∏≤‡∏ô‡∏¥‡∏™‡∏ñ‡∏≤‡∏ô", "official_name:tk": "Owganystan Yslam Respublikasy", "official_name:tl": "Republikang Islamiko ng Afghanistan", "official_name:tr": "Afganistan ƒ∞slam Cumhuriyeti", "official_name:tt": "”ò—Ñ–≥–∞–Ω—Å—Ç–∞–Ω –ò—Å–ª–∞–º “ñ”©–º“ª“Ø—Ä–∏—è—Ç–µ", "official_name:ug": "ÿ¶ÿßŸÅÿ∫ÿßŸÜŸâÿ≥ÿ™ÿßŸÜ ÿ¶Ÿâÿ≥ŸÑÿßŸÖ ÿ¨€áŸÖ⁄æ€áÿ±ŸâŸäŸâÿ™Ÿâ", "official_name:uk": "–Ü—Å–ª–∞ÃÅ–º—Å—å–∫–∞ –†–µ—Å–ø—ÉÃÅ–±–ª—ñ–∫–∞ –ê—Ñ–≥–∞–Ω—ñ—Å—Ç–∞ÃÅ–Ω", "official_name:ur": "ÿßÿ≥ŸÑÿßŸÖ€å ÿ¨ŸÖ€ÅŸàÿ±€å€Å ÿßŸÅÿ∫ÿßŸÜÿ≥ÿ™ÿßŸÜ", "official_name:uz": "Afg ªoniston Islom Respublikasi", "official_name:vi": "C·ªông h√≤a H·ªìi gi√°o Afghanistan", "official_name:wo": "Etaa Islaamik u Taraansiso≈ã bu Afganistaan", "official_name:yi": "◊ê◊ô◊°◊ú◊ê◊û◊ô◊©◊¢ ◊®◊¢◊§◊ï◊ë◊ú◊ô◊ß ◊§◊ï◊ü ◊ê÷∑◊§÷ø◊í◊ê÷∑◊†◊ô◊°◊ò◊ê÷∑◊ü", "official_name:zh": "ÈòøÂØåÊ±ó‰ºäÊñØÂÖ∞ÂÖ±ÂíåÂõΩ", "official_name:ace": "Republik Islam Afghanistan", "official_name:ady": "–ò—Å–ª—ä–∞–º –†–µ—Å–ø—É–±–ª–∏–∫—ç—É –ê—Ñ–≥–∞–Ω–∏—Å—Ç–∞–Ω", "official_name:azb": "ÿßŸÅÿ∫ÿßŸÜ€åÿ≥ÿ™ÿßŸÜ ÿß€åÿ≥ŸÑÿßŸÖ ÿ¨ŸàŸÖŸáŸàÿ±€åÿ™€å", "official_name:bar": "Islamische Republik Afghanistan", "official_name:bcl": "Islamikong Republika kan Apganistan", "official_name:bpy": "‡¶á‡¶∏‡¶≤‡¶æ‡¶Æ‡¶ø‡¶ï ‡¶™‡ßç‡¶∞‡¶ú‡¶æ‡¶§‡¶®‡ßç‡¶§‡ßç‡¶∞‡¶ø ‡¶Ü‡¶´‡¶ó‡¶æ‡¶®‡¶ø‡¶∏‡ßç‡¶§‡¶æ‡¶®", "official_name:bxr": "–õ–∞–ª—ã–Ω –ë“Ø–≥—ç–¥—ç –ù–∞–π—Ä–∞–º–¥–∞—Ö–∞ –ê—Ñ–≥–∞–Ω –£–ª–∞—Å", "official_name:ceb": "Islamikong Republika sa Apganistan", "official_name:chr": "·é¢·èç·é≥·éª·é© ·èç·é¶·èö·é© ·éæ·éø ·é†·è´·é®·èÇ·èç·èñ·èÇ", "official_name:ckb": "⁄©€ÜŸÖÿßÿ±€å ÿ¶€åÿ≥ŸÑÿßŸÖ€å€å ÿ¶€ïŸÅÿ∫ÿßŸÜÿ≥ÿ™ÿßŸÜ", "official_name:crh": "Afƒüanistan ƒ∞sl√¢m Cumhuriyeti", "official_name:diq": "Cumhuriyet√™ Efƒüanƒ±stano ƒ∞slami", "official_name:dsb": "Islamska republika Afghanistan", "official_name:dty": "‡§á‡§∏‡•ç‡§≤‡§æ‡§Æ‡§ø‡§ï ‡§ó‡§£‡§§‡§®‡•ç‡§§‡•ç‡§∞ ‡§Ö‡§´‡§ó‡§æ‡§®‡§ø‡§∏‡•ç‡§§‡§æ‡§®", "official_name:ext": "Rep√∫brica Isl√°mica d'Afganist√°n", "official_name:frp": "R√®publica islamica d‚ÄôAfganistan", "official_name:frr": "Islamisk Republik faan Afghanistan", "official_name:hsb": "Islamski stat Afghanistan", "official_name:ilo": "Islamiko a Republibka iti Apganistan", "official_name:jam": "Izlamik Ripoblik a Afganistan", "official_name:kbd": "–ê—Ñ–≥–∞–Ω–∏—Å—Ç—ç–Ω –ú—ã—Å–ª–∏–º—ç–Ω –†–µ—Å–ø—É–±–ª–∏–∫—ç", "official_name:krc": "–ê—Ñ–≥–∞–Ω–∏—Å—Ç–∞–Ω –ò—Å–ª–∞–º –†–µ—Å–ø—É–±–ª–∏–∫–∞", "official_name:ksh": "Islamische Republik Afghanistan", "official_name:lez": "–ò—Å–ª–∞–º–¥–∏–Ω –†–µ—Å–ø—ÉÃÅ–±–ª–∏–∫–∞ –ê—Ñ–≥—ä–∞–Ω–∏—Å—Ç–∞ÃÅ–Ω", "official_name:lzh": "ÈòøÂØåÊ±ó‰ºäÊñØËò≠ÂÖ±ÂíåÂúã", "official_name:mai": "‡§Ö‡§´‡§ó‡§æ‡§®‡§ø‡§∏‡•ç‡§§‡§æ‡§® ‡§á‡§∏‡•ç‡§≤‡§æ‡§Æ‡§ø‡§ï ‡§ó‡§£‡§§‡§®‡•ç‡§§‡•ç‡§∞", "official_name:mdf": "–ò—Å–ª–∞–º–æ–Ω—å –†–µ—Å–ø—É–±–ª–∏–∫ –ê—Ñ–≥–∞–Ω–∏—Å—Ç–∞–Ω", "official_name:mhr": "–ê—Ñ–≥–∞–Ω–∏—Å—Ç–∞ÃÅ–Ω –ò—Å–ª–∞–º –†–µ—Å–ø—ÉÃÅ–±–ª–∏–∫", "official_name:min": "Republik Islam Afganistan", "official_name:mwl": "Rep√∫blica Eisl√°mica de l Afeganistan", "official_name:myv": "–ò—Å–ª–∞–º–æ–Ω—å –†–µ—Å–ø—É–±–ª–∏–∫–∞—Å—å –ê—Ñ–≥–∞–Ω–∏—Å—Ç–∞–Ω", "official_name:nah": "IslantlƒÅcatlahtohcƒÅy≈çtl Afganistan", "official_name:nan": "Afghanistan Islam Ki≈çng-h√¥-kok", "official_name:nds": "Islaamsche Republik Afghanistan", "official_name:new": "‡§á‡§∏‡•ç‡§≤‡§æ‡§Æ‡•Ä ‡§ó‡§£‡§§‡§®‡•ç‡§§‡•ç‡§∞ ‡§Ö‡§´‡§ó‡§æ‡§®‡§ø‡§∏‡•ç‡§§‡§æ‡§®", "official_name:pam": "Islamicung Republica ning Afghanistan", "official_name:pap": "Rep√∫blica Isl√°mica de Afganist√°n", "official_name:pnb": "ÿßÿ≥ŸÑÿßŸÖ€å ŸÑŸà⁄©ÿ±ÿßÿ¨ ÿßŸÅÿ∫ÿßŸÜÿ≥ÿ™ÿßŸÜ", "official_name:sah": "–ê—Ñ–≥–∞–Ω–∏—Å—Ç–∞–∞–Ω –ò—Å–ª–∞–º ”®—Ä”©—Å–ø“Ø“Ø–±“Ø–ª“Ø–∫—ç—Ç—ç", "official_name:scn": "Rip√πbblica Islamica di Afghanistan", "official_name:sco": "Islamic Republic o Afghanistan", "official_name:szl": "Islamsk≈è Rebublika Afganistanu", "official_name:udm": "–ò—Å–ª–∞ÃÅ–º –ö—É–Ω –ê—Ñ–≥–∞–Ω–∏—Å—Ç–∞ÃÅ–Ω", "official_name:vec": "Republica Islamica de ≈Ç'Afghanistan", "official_name:vep": "Afganistanan Islamine Tazovaldkund", "official_name:vls": "Islamitische Republiek Afghanistan", "official_name:war": "Republika Islamika han Afganistan", "official_name:xmf": "·Éê·Éï·É¶·Éê·Éú·Éî·Éó·Éò·É® ·Éò·É°·Éö·Éê·Éõ·É£·É†·Éò ·É†·Éî·É°·Éû·É£·Éë·Éö·Éò·Éô·Éê", "official_name:yue": "ÈòøÂØåÊ±ó‰ºäÊñØËò≠ÂÖ±ÂíåÂúã", "official_name:zea": "Islamitische Rippubliek van Afghanistan", "official_name:nds-nl": "islamietiese republiek Afghanistan", "official_name:bat-smg": "Afganƒóstana ƒñslamƒÅ Respublika", "official_name:cbk-zam": "Estado Islimico del Afganistan", "official_name:fiu-vro": "Afganistani Islamivabariik", "official_name:roa-tara": "Repubbleche Islameche de ll'Afghanistan", "official_name:be-tarask": "–Ü—Å–ª–∞ÃÅ–º—Å–∫–∞—è –†—ç—Å–ø—ÉÃÅ–±–ª—ñ–∫–∞ –ê—û–≥–∞–Ω—ñ—Å—Ç–∞ÃÅ–Ω"}}, "center_lat": 33.83, "center_lon": 66.03, "timezone": "Asia/Kabul", "population": 34940837, "wikidata_id": "Q889", "wikipedia_id": "fa:ÿßŸÅÿ∫ÿßŸÜÿ≥ÿ™ÿßŸÜ"}, "geometry": {"type": "MultiPolygon", "coordinates": [[[[60.873, 29.859], [61.097, 29.794], [61.382, 29.711], [61.564, 29.658], [61.897, 29.56], [62.239, 29.458], [62.471, 29.39], [62.891, 29.427], [63.233, 29.458], [63.247, 29.454], [63.267, 29.457], [63.289, 29.454], [63.306, 29.459], [63.327, 29.458], [63.347, 29.452], [63.348, 29.468], [63.577, 29.487], [63.692, 29.469], [64.054, 29.407], [64.08, 29.389], [64.098, 29.38], [64.128, 29.378], [64.135, 29.39], [64.16, 29.391], [64.155, 29.403], [64.168, 29.407], [64.163, 29.425], [64.142, 29.433], [64.147, 29.447], [64.166, 29.459], [64.159, 29.465], [64.179, 29.484], [64.187, 29.477], [64.229, 29.484], [64.236, 29.496], [64.249, 29.499], [64.251, 29.517], [64.274, 29.523], [64.293, 29.521], [64.303, 29.527], [64.326, 29.521], [64.336, 29.528], [64.347, 29.525], [64.36, 29.535], [64.377, 29.537], [64.383, 29.547], [64.394, 29.544], [64.406, 29.548], [64.42, 29.543], [64.438, 29.56], [64.45, 29.548], [64.455, 29.556], [64.467, 29.557], [64.473, 29.568], [64.495, 29.565], [64.525, 29.576], [64.544, 29.575], [64.543, 29.588], [64.565, 29.591], [64.571, 29.586], [64.867, 29.552], [64.987, 29.539], [65.065, 29.529], [65.493, 29.645], [65.668, 29.695], [65.697, 29.705], [65.809, 29.729], [65.93, 29.762], [65.987, 29.779], [66.25, 29.85], [66.267, 29.858], [66.274, 29.872], [66.286, 29.88], [66.297, 29.897], [66.319, 29.907], [66.329, 29.917], [66.352, 29.953], [66.362, 29.955], [66.373, 29.971], [66.319, 30.006], [66.232, 30.063], [66.23, 30.073], [66.26, 30.098], [66.263, 30.123], [66.274, 30.131], [66.289, 30.153], [66.288, 30.175], [66.296, 30.186], [66.302, 30.209], [66.314, 30.214], [66.321, 30.24], [66.326, 30.247], [66.323, 30.269], [66.329, 30.297], [66.34, 30.311], [66.339, 30.351], [66.344, 30.355], [66.342, 30.384], [66.353, 30.396], [66.353, 30.405], [66.367, 30.421], [66.349, 30.433], [66.339, 30.445], [66.353, 30.465], [66.356, 30.484], [66.349, 30.481], [66.336, 30.487], [66.327, 30.497], [66.308, 30.5], [66.309, 30.51], [66.295, 30.515], [66.287, 30.526], [66.293, 30.547], [66.278, 30.569], [66.288, 30.577], [66.392, 30.941], [66.427, 30.953], [66.578, 30.977], [66.674, 31.068], [66.679, 31.065], [66.691, 31.076], [66.688, 31.092], [66.697, 31.102], [66.691, 31.107], [66.692, 31.12], [66.703, 31.129], [66.703, 31.141], [66.715, 31.156], [66.71, 31.16], [66.719, 31.169], [66.715, 31.177], [66.72, 31.196], [66.731, 31.209], [66.753, 31.207], [66.769, 31.199], [66.776, 31.206], [66.796, 31.21], [66.813, 31.223], [66.815, 31.236], [66.834, 31.265], [66.855, 31.269], [66.889, 31.289], [66.906, 31.293], [66.917, 31.291], [66.956, 31.308], [66.966, 31.304], [66.981, 31.309], [67, 31.309], [67.013, 31.304], [67.038, 31.31], [67.044, 31.298], [67.059, 31.286], [67.051, 31.273], [67.024, 31.256], [67.024, 31.237], [67.035, 31.242], [67.053, 31.238], [67.053, 31.222], [67.07, 31.214], [67.103, 31.23], [67.126, 31.239], [67.139, 31.236], [67.154, 31.248], [67.17, 31.245], [67.181, 31.224], [67.197, 31.217], [67.258, 31.213], [67.262, 31.201], [67.277, 31.198], [67.302, 31.213], [67.309, 31.205], [67.316, 31.207], [67.345, 31.205], [67.353, 31.211], [67.368, 31.207], [67.384, 31.213], [67.388, 31.208], [67.4, 31.211], [67.405, 31.22], [67.416, 31.218], [67.429, 31.229], [67.437, 31.225], [67.478, 31.237], [67.484, 31.232], [67.513, 31.244], [67.516, 31.251], [67.536, 31.253], [67.548, 31.263], [67.579, 31.265], [67.589, 31.27], [67.607, 31.266], [67.626, 31.275], [67.669, 31.288], [67.685, 31.303], [67.721, 31.327], [67.766, 31.321], [67.787, 31.333], [67.792, 31.345], [67.796, 31.383], [67.786, 31.4], [67.75, 31.416], [67.691, 31.401], [67.651, 31.392], [67.651, 31.399], [67.637, 31.397], [67.629, 31.417], [67.613, 31.413], [67.6, 31.426], [67.609, 31.449], [67.589, 31.479], [67.593, 31.485], [67.582, 31.499], [67.582, 31.507], [67.57, 31.525], [67.601, 31.524], [67.627, 31.526], [67.64, 31.533], [67.653, 31.526], [67.66, 31.515], [67.683, 31.518], [67.716, 31.514], [67.721, 31.521], [67.749, 31.533], [67.755, 31.546], [67.776, 31.562], [67.794, 31.568], [67.804, 31.584], [67.815, 31.589], [67.821, 31.601], [67.838, 31.609], [67.858, 31.624], [67.893, 31.631], [67.902, 31.625], [67.919, 31.635], [67.938, 31.633], [67.975, 31.64], [68.016, 31.669], [68.042, 31.68], [68.052, 31.69], [68.07, 31.696], [68.072, 31.717], [68.093, 31.735], [68.094, 31.741], [68.113, 31.748], [68.147, 31.804], [68.171, 31.835], [68.179, 31.817], [68.266, 31.803], [68.254, 31.784], [68.279, 31.757], [68.367, 31.759], [68.428, 31.755], [68.443, 31.75], [68.461, 31.735], [68.484, 31.741], [68.523, 31.735], [68.546, 31.716], [68.565, 31.715], [68.591, 31.753], [68.516, 31.757], [68.468, 31.747], [68.458, 31.75], [68.45, 31.762], [68.433, 31.763], [68.475, 31.773], [68.556, 31.824], [68.576, 31.834], [68.643, 31.778], [68.709, 31.771], [68.722, 31.709], [68.728, 31.695], [68.759, 31.668], [68.775, 31.667], [68.787, 31.654], [68.79, 31.622], [68.802, 31.619], [68.807, 31.611], [68.82, 31.615], [68.834, 31.606], [68.84, 31.61], [68.854, 31.595], [68.864, 31.596], [68.87, 31.608], [68.88, 31.604], [68.895, 31.607], [68.908, 31.597], [68.927, 31.607], [68.934, 31.606], [68.943, 31.616], [68.96, 31.649], [68.975, 31.645], [68.98, 31.633], [68.995, 31.637], [68.994, 31.628], [69.02, 31.629], [69.025, 31.645], [69.037, 31.65], [69.04, 31.661], [69.056, 31.667], [69.082, 31.682], [69.089, 31.694], [69.116, 31.7], [69.125, 31.726], [69.135, 31.734], [69.141, 31.749], [69.156, 31.761], [69.156, 31.788], [69.169, 31.795], [69.183, 31.813], [69.18, 31.822], [69.193, 31.831], [69.193, 31.847], [69.211, 31.86], [69.221, 31.858], [69.23, 31.864], [69.241, 31.88], [69.251, 31.878], [69.273, 31.894], [69.275, 31.91], [69.295, 31.916], [69.303, 31.925], [69.324, 31.928], [69.325, 31.947], [69.318, 31.953], [69.32, 31.964], [69.311, 31.989], [69.303, 31.987], [69.3, 32.009], [69.296, 32.01], [69.287, 32.063], [69.288, 32.087], [69.296, 32.088], [69.281, 32.122], [69.276, 32.126], [69.27, 32.157], [69.277, 32.199], [69.27, 32.226], [69.274, 32.231], [69.27, 32.261], [69.272, 32.281], [69.281, 32.286], [69.277, 32.307], [69.283, 32.311], [69.281, 32.322], [69.282, 32.345], [69.276, 32.365], [69.248, 32.416], [69.24, 32.464], [69.261, 32.489], [69.278, 32.529], [69.305, 32.545], [69.312, 32.54], [69.371, 32.563], [69.383, 32.56], [69.383, 32.57], [69.398, 32.583], [69.414, 32.603], [69.409, 32.611], [69.42, 32.624], [69.433, 32.646], [69.445, 32.647], [69.454, 32.658], [69.452, 32.672], [69.436, 32.688], [69.434, 32.705], [69.445, 32.712], [69.442, 32.729], [69.428, 32.727], [69.407, 32.741], [69.407, 32.748], [69.393, 32.758], [69.388, 32.768], [69.391, 32.781], [69.406, 32.792], [69.412, 32.803], [69.441, 32.804], [69.447, 32.819], [69.468, 32.836], [69.462, 32.844], [69.469, 32.855], [69.547, 32.875], [69.496, 32.886], [69.507, 32.896], [69.506, 32.91], [69.495, 32.933], [69.494, 32.986], [69.496, 33.021], [69.51, 33.031], [69.52, 33.045], [69.536, 33.054], [69.559, 33.072], [69.572, 33.088], [69.573, 33.099], [69.583, 33.103], [69.598, 33.098], [69.608, 33.101], [69.642, 33.098], [69.658, 33.09], [69.664, 33.1], [69.672, 33.101], [69.69, 33.092], [69.711, 33.09], [69.73, 33.094], [69.735, 33.114], [69.767, 33.118], [69.784, 33.127], [69.799, 33.132], [69.819, 33.107], [69.839, 33.098], [69.843, 33.101], [69.879, 33.095], [69.886, 33.103], [69.926, 33.104], [69.924, 33.119], [69.935, 33.119], [69.936, 33.129], [69.973, 33.133], [69.981, 33.142], [69.993, 33.139], [70.005, 33.145], [70.021, 33.138], [70.04, 33.164], [70.065, 33.207], [70.062, 33.213], [70.073, 33.22], [70.096, 33.205], [70.114, 33.209], [70.12, 33.204], [70.13, 33.216], [70.164, 33.219], [70.165, 33.233], [70.171, 33.238], [70.185, 33.237], [70.187, 33.243], [70.203, 33.246], [70.233, 33.267], [70.264, 33.3], [70.272, 33.299], [70.285, 33.313], [70.286, 33.322], [70.309, 33.338], [70.327, 33.331], [70.325, 33.356], [70.31, 33.364], [70.311, 33.379], [70.324, 33.39], [70.318, 33.401], [70.3, 33.408], [70.297, 33.43], [70.284, 33.436], [70.269, 33.429], [70.251, 33.44], [70.245, 33.452], [70.248, 33.468], [70.237, 33.474], [70.22, 33.473], [70.213, 33.484], [70.2, 33.487], [70.209, 33.496], [70.207, 33.503], [70.189, 33.505], [70.173, 33.519], [70.171, 33.539], [70.2, 33.623], [70.195, 33.625], [70.2, 33.643], [70.192, 33.646], [70.178, 33.641], [70.143, 33.658], [70.152, 33.681], [70.153, 33.695], [70.145, 33.697], [70.14, 33.712], [70.143, 33.725], [70.126, 33.728], [70.112, 33.725], [70.107, 33.718], [70.088, 33.717], [70.079, 33.726], [70.059, 33.727], [70.031, 33.738], [70.019, 33.737], [70.015, 33.729], [69.99, 33.743], [69.989, 33.749], [69.972, 33.758], [69.962, 33.782], [69.966, 33.796], [69.956, 33.824], [69.944, 33.838], [69.916, 33.851], [69.913, 33.86], [69.915, 33.887], [69.909, 33.899], [69.892, 33.907], [69.885, 33.916], [69.859, 33.925], [69.861, 33.939], [69.856, 33.949], [69.863, 33.967], [69.873, 33.968], [69.877, 33.98], [69.902, 33.982], [69.889, 34.02], [69.905, 34.04], [69.949, 34.036], [69.968, 34.04], [69.977, 34.035], [69.992, 34.047], [70.011, 34.04], [70.027, 34.042], [70.049, 34.035], [70.088, 34.009], [70.112, 34.011], [70.128, 34.009], [70.149, 34.014], [70.159, 34.002], [70.175, 33.998], [70.201, 33.981], [70.222, 33.985], [70.243, 33.976], [70.255, 33.981], [70.291, 33.981], [70.305, 33.971], [70.325, 33.966], [70.353, 33.967], [70.362, 33.961], [70.376, 33.969], [70.396, 33.962], [70.414, 33.967], [70.437, 33.951], [70.458, 33.945], [70.506, 33.942], [70.512, 33.949], [70.547, 33.943], [70.552, 33.95], [70.584, 33.962], [70.634, 33.959], [70.643, 33.952], [70.657, 33.957], [70.677, 33.958], [70.685, 33.963], [70.7, 33.96], [70.715, 33.965], [70.745, 33.961], [70.753, 33.966], [70.779, 33.961], [70.79, 33.967], [70.811, 33.967], [70.822, 33.978], [70.843, 33.983], [70.864, 33.982], [70.866, 33.972], [70.883, 33.974], [70.921, 33.998], [70.914, 34.011], [70.936, 34.007], [70.937, 34.013], [70.969, 34.03], [71.001, 34.025], [71.022, 34.04], [71.034, 34.055], [71.06, 34.05], [71.076, 34.056], [71.083, 34.064], [71.08, 34.087], [71.071, 34.109], [71.094, 34.12], [71.091, 34.132], [71.13, 34.165], [71.122, 34.186], [71.124, 34.207], [71.139, 34.225], [71.119, 34.241], [71.125, 34.245], [71.124, 34.259], [71.13, 34.282], [71.152, 34.294], [71.151, 34.307], [71.158, 34.314], [71.156, 34.326], [71.17, 34.334], [71.167, 34.339], [71.173, 34.365], [71.143, 34.366], [71.14, 34.371], [71.116, 34.377], [71.127, 34.407], [71.126, 34.416], [71.107, 34.434], [71.078, 34.438], [71.06, 34.424], [71.04, 34.445], [71.024, 34.451], [71.013, 34.49], [71.004, 34.5], [71.018, 34.51], [71.011, 34.534], [71.023, 34.55], [71.025, 34.56], [71.045, 34.574], [71.07, 34.588], [71.086, 34.585], [71.092, 34.602], [71.103, 34.617], [71.117, 34.629], [71.108, 34.643], [71.1, 34.647], [71.089, 34.673], [71.097, 34.69], [71.11, 34.705], [71.122, 34.705], [71.15, 34.714], [71.152, 34.727], [71.17, 34.728], [71.181, 34.735], [71.187, 34.75], [71.226, 34.753], [71.224, 34.76], [71.25, 34.793], [71.277, 34.799], [71.294, 34.835], [71.291, 34.846], [71.296, 34.857], [71.296, 34.877], [71.304, 34.878], [71.332, 34.897], [71.351, 34.915], [71.381, 34.918], [71.427, 34.932], [71.433, 34.944], [71.449, 34.943], [71.475, 34.949], [71.481, 34.961], [71.512, 34.975], [71.506, 35.006], [71.552, 35.023], [71.559, 35.033], [71.542, 35.053], [71.543, 35.073], [71.531, 35.088], [71.537, 35.097], [71.568, 35.117], [71.582, 35.123], [71.589, 35.138], [71.625, 35.139], [71.634, 35.163], [71.647, 35.174], [71.656, 35.175], [71.659, 35.186], [71.68, 35.205], [71.681, 35.216], [71.654, 35.226], [71.633, 35.225], [71.623, 35.24], [71.6, 35.26], [71.582, 35.267], [71.578, 35.275], [71.564, 35.278], [71.554, 35.292], [71.557, 35.304], [71.543, 35.31], [71.562, 35.326], [71.569, 35.341], [71.587, 35.356], [71.609, 35.393], [71.621, 35.406], [71.636, 35.409], [71.641, 35.425], [71.655, 35.437], [71.648, 35.457], [71.62, 35.48], [71.605, 35.482], [71.594, 35.5], [71.602, 35.525], [71.599, 35.537], [71.616, 35.551], [71.62, 35.571], [71.61, 35.581], [71.585, 35.579], [71.563, 35.587], [71.547, 35.6], [71.521, 35.606], [71.499, 35.63], [71.512, 35.645], [71.507, 35.659], [71.52, 35.662], [71.541, 35.673], [71.534, 35.686], [71.551, 35.694], [71.548, 35.701], [71.553, 35.723], [71.534, 35.734], [71.508, 35.739], [71.494, 35.75], [71.483, 35.77], [71.49, 35.778], [71.485, 35.79], [71.503, 35.802], [71.479, 35.809], [71.478, 35.822], [71.46, 35.833], [71.45, 35.861], [71.439, 35.869], [71.431, 35.888], [71.414, 35.894], [71.396, 35.891], [71.38, 35.905], [71.39, 35.916], [71.385, 35.93], [71.377, 35.933], [71.388, 35.942], [71.387, 35.953], [71.37, 35.966], [71.359, 35.967], [71.342, 35.961], [71.322, 35.959], [71.313, 35.971], [71.313, 35.982], [71.304, 35.982], [71.289, 35.997], [71.258, 35.999], [71.229, 36.029], [71.212, 36.027], [71.195, 36.04], [71.198, 36.053], [71.215, 36.075], [71.216, 36.086], [71.23, 36.095], [71.246, 36.094], [71.254, 36.102], [71.243, 36.109], [71.254, 36.123], [71.251, 36.129], [71.265, 36.139], [71.273, 36.138], [71.308, 36.159], [71.319, 36.169], [71.347, 36.168], [71.357, 36.183], [71.361, 36.204], [71.376, 36.203], [71.416, 36.22], [71.436, 36.233], [71.443, 36.266], [71.462, 36.278], [71.475, 36.279], [71.481, 36.295], [71.51, 36.302], [71.521, 36.31], [71.527, 36.335], [71.54, 36.327], [71.577, 36.327], [71.583, 36.345], [71.558, 36.373], [71.577, 36.378], [71.597, 36.391], [71.597, 36.396], [71.616, 36.403], [71.614, 36.409], [71.626, 36.419], [71.623, 36.432], [71.639, 36.441], [71.634, 36.453], [71.638, 36.46], [71.636, 36.476], [71.657, 36.484], [71.693, 36.458], [71.706, 36.46], [71.709, 36.454], [71.732, 36.447], [71.751, 36.43], [71.764, 36.426], [71.771, 36.416], [71.793, 36.402], [71.807, 36.399], [71.822, 36.417], [71.819, 36.436], [71.798, 36.483], [71.81, 36.508], [71.825, 36.509], [71.843, 36.504], [71.872, 36.501], [71.917, 36.509], [71.924, 36.533], [71.936, 36.546], [71.963, 36.556], [72.003, 36.557], [72.009, 36.565], [72.029, 36.575], [72.03, 36.592], [72.062, 36.593], [72.08, 36.588], [72.088, 36.597], [72.086, 36.625], [72.097, 36.647], [72.131, 36.647], [72.163, 36.66], [72.179, 36.655], [72.202, 36.656], [72.21, 36.664], [72.198, 36.688], [72.188, 36.698], [72.196, 36.704], [72.185, 36.711], [72.199, 36.723], [72.211, 36.721], [72.217, 36.728], [72.231, 36.729], [72.228, 36.739], [72.242, 36.743], [72.247, 36.752], [72.298, 36.74], [72.331, 36.753], [72.335, 36.767], [72.376, 36.758], [72.396, 36.765], [72.395, 36.775], [72.423, 36.781], [72.447, 36.774], [72.478, 36.777], [72.503, 36.784], [72.524, 36.802], [72.55, 36.814], [72.559, 36.828], [72.567, 36.826], [72.59, 36.838], [72.608, 36.837], [72.623, 36.845], [72.632, 36.843], [72.653, 36.852], [72.659, 36.847], [72.687, 36.841], [72.705, 36.844], [72.718, 36.837], [72.737, 36.847], [72.768, 36.854], [72.775, 36.843], [72.802, 36.851], [72.818, 36.842], [72.839, 36.841], [72.851, 36.846], [72.862, 36.841], [72.897, 36.841], [72.911, 36.849], [72.93, 36.843], [72.943, 36.868], [72.953, 36.875], [72.969, 36.876], [72.986, 36.862], [73.029, 36.862], [73.066, 36.872], [73.063, 36.881], [73.083, 36.887], [73.119, 36.881], [73.148, 36.895], [73.164, 36.89], [73.177, 36.879], [73.204, 36.88], [73.218, 36.888], [73.226, 36.882], [73.251, 36.883], [73.269, 36.893], [73.291, 36.883], [73.301, 36.869], [73.309, 36.87], [73.337, 36.891], [73.354, 36.879], [73.377, 36.88], [73.376, 36.888], [73.395, 36.89], [73.401, 36.899], [73.414, 36.894], [73.461, 36.892], [73.48, 36.897], [73.509, 36.893], [73.524, 36.879], [73.541, 36.873], [73.547, 36.89], [73.574, 36.889], [73.586, 36.901], [73.595, 36.9], [73.601, 36.909], [73.618, 36.906], [73.624, 36.897], [73.657, 36.91], [73.692, 36.916], [73.716, 36.905], [73.735, 36.903], [73.753, 36.912], [73.758, 36.905], [73.771, 36.905], [73.773, 36.899], [73.79, 36.901], [73.8, 36.891], [73.815, 36.891], [73.827, 36.899], [73.826, 36.913], [73.836, 36.925], [73.853, 36.918], [73.891, 36.913], [73.907, 36.901], [73.905, 36.887], [73.892, 36.88], [73.913, 36.869], [73.932, 36.875], [73.956, 36.859], [73.957, 36.843], [73.994, 36.83], [74.003, 36.837], [74.048, 36.826], [74.063, 36.84], [74.092, 36.839], [74.096, 36.842], [74.121, 36.838], [74.124, 36.849], [74.135, 36.854], [74.129, 36.859], [74.137, 36.874], [74.16, 36.887], [74.153, 36.898], [74.172, 36.903], [74.181, 36.916], [74.204, 36.904], [74.214, 36.907], [74.224, 36.897], [74.237, 36.895], [74.266, 36.904], [74.271, 36.912], [74.295, 36.912], [74.309, 36.919], [74.316, 36.938], [74.333, 36.945], [74.349, 36.962], [74.388, 36.964], [74.395, 36.973], [74.416, 36.975], [74.421, 36.989], [74.414, 36.993], [74.419, 37.007], [74.447, 37.002], [74.456, 37.004], [74.471, 36.991], [74.491, 36.988], [74.506, 36.966], [74.534, 36.957], [74.544, 36.973], [74.536, 36.98], [74.537, 36.991], [74.517, 37.011], [74.519, 37.017], [74.536, 37.026], [74.565, 37.031], [74.554, 37.045], [74.533, 37.051], [74.538, 37.064], [74.533, 37.077], [74.514, 37.078], [74.509, 37.065], [74.495, 37.065], [74.495, 37.091], [74.486, 37.093], [74.491, 37.118], [74.461, 37.129], [74.456, 37.143], [74.471, 37.15], [74.47, 37.159], [74.486, 37.166], [74.49, 37.178], [74.468, 37.197], [74.495, 37.211], [74.502, 37.222], [74.501, 37.239], [74.518, 37.244], [74.534, 37.242], [74.543, 37.249], [74.552, 37.243], [74.582, 37.236], [74.594, 37.259], [74.615, 37.254], [74.63, 37.265], [74.647, 37.251], [74.645, 37.24], [74.658, 37.234], [74.688, 37.266], [74.703, 37.268], [74.715, 37.282], [74.749, 37.285], [74.781, 37.251], [74.798, 37.245], [74.799, 37.231], [74.809, 37.215], [74.855, 37.219], [74.859, 37.225], [74.888, 37.222], [74.89, 37.234], [74.887, 37.258], [74.879, 37.261], [74.877, 37.275], [74.855, 37.295], [74.832, 37.334], [74.821, 37.337], [74.804, 37.355], [74.772, 37.363], [74.736, 37.379], [74.707, 37.384], [74.692, 37.405], [74.674, 37.389], [74.642, 37.383], [74.632, 37.377], [74.615, 37.384], [74.566, 37.372], [74.556, 37.388], [74.558, 37.397], [74.528, 37.409], [74.522, 37.401], [74.495, 37.396], [74.483, 37.403], [74.482, 37.413], [74.466, 37.427], [74.468, 37.407], [74.452, 37.405], [74.44, 37.417], [74.428, 37.395], [74.418, 37.389], [74.402, 37.392], [74.386, 37.403], [74.39, 37.412], [74.375, 37.424], [74.348, 37.422], [74.343, 37.407], [74.324, 37.407], [74.321, 37.4], [74.276, 37.402], [74.267, 37.41], [74.257, 37.408], [74.239, 37.414], [74.23, 37.395], [74.237, 37.392], [74.251, 37.373], [74.238, 37.373], [74.222, 37.349], [74.212, 37.351], [74.208, 37.341], [74.185, 37.335], [74.177, 37.341], [74.155, 37.342], [74.128, 37.325], [74.115, 37.328], [74.111, 37.321], [74.095, 37.318], [74.061, 37.324], [74.063, 37.311], [74.041, 37.3], [74.033, 37.309], [74.018, 37.292], [73.999, 37.289], [73.987, 37.298], [73.965, 37.299], [73.953, 37.275], [73.924, 37.285], [73.89, 37.277], [73.885, 37.267], [73.852, 37.257], [73.844, 37.249], [73.843, 37.234], [73.829, 37.227], [73.814, 37.232], [73.802, 37.226], [73.782, 37.239], [73.764, 37.235], [73.761, 37.222], [73.739, 37.227], [73.725, 37.247], [73.701, 37.251], [73.664, 37.249], [73.66, 37.239], [73.651, 37.238], [73.631, 37.249], [73.631, 37.265], [73.618, 37.273], [73.633, 37.283], [73.642, 37.281], [73.654, 37.294], [73.648, 37.3], [73.656, 37.314], [73.671, 37.31], [73.697, 37.311], [73.705, 37.307], [73.711, 37.316], [73.733, 37.316], [73.754, 37.323], [73.75, 37.331], [73.774, 37.34], [73.771, 37.344], [73.77, 37.409], [73.776, 37.44], [73.72, 37.447], [73.666, 37.441], [73.64, 37.434], [73.615, 37.443], [73.583, 37.444], [73.543, 37.467], [73.53, 37.473], [73.51, 37.474], [73.452, 37.474], [73.414, 37.465], [73.403, 37.455], [73.368, 37.444], [73.365, 37.462], [73.357, 37.459], [73.335, 37.467], [73.301, 37.462], [73.255, 37.437], [73.236, 37.416], [73.21, 37.404], [73.194, 37.409], [73.166, 37.41], [73.15, 37.404], [73.132, 37.371], [73.107, 37.363], [73.102, 37.344], [73.107, 37.341], [73.094, 37.325], [73.062, 37.311], [73.038, 37.305], [73.027, 37.307], [72.977, 37.297], [72.971, 37.291], [72.952, 37.291], [72.933, 37.273], [72.891, 37.243], [72.858, 37.229], [72.836, 37.235], [72.818, 37.233], [72.797, 37.216], [72.776, 37.195], [72.76, 37.16], [72.739, 37.119], [72.727, 37.108], [72.717, 37.09], [72.702, 37.08], [72.703, 37.069], [72.69, 37.058], [72.677, 37.036], [72.663, 37.018], [72.644, 37.019], [72.641, 37.025], [72.622, 37.029], [72.592, 37.017], [72.588, 37.008], [72.57, 37.008], [72.53, 36.999], [72.505, 37], [72.474, 36.994], [72.461, 37.002], [72.427, 37.006], [72.4, 36.994], [72.366, 36.991], [72.326, 36.981], [72.297, 36.963], [72.276, 36.953], [72.241, 36.942], [72.226, 36.928], [72.209, 36.925], [72.193, 36.906], [72.137, 36.878], [72.122, 36.868], [72.112, 36.847], [72.087, 36.838], [72.069, 36.84], [72.049, 36.822], [72.018, 36.811], [72.007, 36.794], [71.982, 36.78], [71.958, 36.756], [71.939, 36.746], [71.903, 36.734], [71.899, 36.723], [71.865, 36.695], [71.844, 36.681], [71.819, 36.683], [71.794, 36.676], [71.759, 36.679], [71.749, 36.675], [71.728, 36.676], [71.71, 36.672], [71.69, 36.677], [71.675, 36.671], [71.654, 36.687], [71.635, 36.69], [71.622, 36.711], [71.588, 36.735], [71.563, 36.764], [71.563, 36.784], [71.551, 36.806], [71.553, 36.816], [71.544, 36.822], [71.542, 36.846], [71.529, 36.859], [71.513, 36.898], [71.492, 36.916], [71.491, 36.924], [71.468, 36.951], [71.463, 36.968], [71.472, 36.985], [71.47, 36.999], [71.461, 37.013], [71.459, 37.029], [71.444, 37.041], [71.432, 37.056], [71.429, 37.072], [71.435, 37.088], [71.443, 37.094], [71.442, 37.12], [71.445, 37.143], [71.452, 37.152], [71.445, 37.17], [71.45, 37.181], [71.463, 37.191], [71.454, 37.207], [71.467, 37.225], [71.476, 37.228], [71.485, 37.245], [71.488, 37.275], [71.495, 37.284], [71.494, 37.3], [71.507, 37.313], [71.487, 37.336], [71.496, 37.369], [71.487, 37.382], [71.475, 37.387], [71.48, 37.407], [71.493, 37.406], [71.504, 37.451], [71.522, 37.466], [71.527, 37.48], [71.507, 37.509], [71.506, 37.523], [71.495, 37.533], [71.507, 37.583], [71.511, 37.587], [71.504, 37.607], [71.518, 37.618], [71.526, 37.631], [71.529, 37.676], [71.54, 37.689], [71.551, 37.736], [71.532, 37.762], [71.557, 37.787], [71.591, 37.797], [71.596, 37.807], [71.588, 37.825], [71.585, 37.847], [71.598, 37.874], [71.589, 37.885], [71.591, 37.923], [71.556, 37.937], [71.553, 37.941], [71.526, 37.952], [71.503, 37.952], [71.491, 37.938], [71.478, 37.936], [71.448, 37.922], [71.421, 37.916], [71.405, 37.909], [71.378, 37.905], [71.329, 37.885], [71.314, 37.919], [71.299, 37.932], [71.289, 37.933], [71.282, 37.92], [71.261, 37.922], [71.253, 37.934], [71.267, 37.941], [71.263, 37.954], [71.275, 37.965], [71.267, 37.984], [71.279, 37.995], [71.276, 38.006], [71.295, 38.018], [71.296, 38.032], [71.284, 38.042], [71.304, 38.044], [71.312, 38.061], [71.321, 38.067], [71.322, 38.092], [71.317, 38.098], [71.336, 38.113], [71.339, 38.129], [71.347, 38.146], [71.362, 38.149], [71.377, 38.161], [71.365, 38.182], [71.364, 38.198], [71.379, 38.213], [71.369, 38.221], [71.374, 38.256], [71.356, 38.271], [71.334, 38.271], [71.328, 38.285], [71.334, 38.293], [71.333, 38.304], [71.309, 38.304], [71.299, 38.313], [71.279, 38.315], [71.252, 38.311], [71.245, 38.318], [71.225, 38.322], [71.197, 38.344], [71.183, 38.347], [71.176, 38.369], [71.163, 38.388], [71.149, 38.39], [71.144, 38.402], [71.129, 38.398], [71.119, 38.407], [71.105, 38.409], [71.105, 38.422], [71.087, 38.422], [71.065, 38.413], [71.069, 38.403], [71.056, 38.399], [71.046, 38.411], [71.037, 38.442], [71.029, 38.454], [71.031, 38.461], [71, 38.479], [70.998, 38.488], [70.988, 38.488], [70.966, 38.475], [70.946, 38.476], [70.945, 38.466], [70.961, 38.46], [70.956, 38.439], [70.936, 38.442], [70.933, 38.433], [70.906, 38.439], [70.895, 38.465], [70.871, 38.468], [70.857, 38.458], [70.856, 38.442], [70.842, 38.44], [70.843, 38.447], [70.825, 38.454], [70.815, 38.445], [70.77, 38.456], [70.757, 38.428], [70.741, 38.419], [70.714, 38.414], [70.699, 38.42], [70.674, 38.405], [70.674, 38.389], [70.692, 38.386], [70.694, 38.372], [70.684, 38.364], [70.664, 38.358], [70.662, 38.352], [70.643, 38.349], [70.631, 38.353], [70.611, 38.346], [70.616, 38.323], [70.606, 38.304], [70.61, 38.297], [70.602, 38.28], [70.575, 38.273], [70.558, 38.259], [70.546, 38.244], [70.538, 38.222], [70.537, 38.211], [70.518, 38.194], [70.505, 38.169], [70.5, 38.146], [70.506, 38.122], [70.492, 38.122], [70.468, 38.104], [70.432, 38.099], [70.42, 38.088], [70.417, 38.076], [70.377, 38.055], [70.363, 38.055], [70.367, 38.039], [70.357, 38.027], [70.337, 38.014], [70.329, 37.999], [70.31, 37.997], [70.291, 37.987], [70.286, 37.97], [70.261, 37.979], [70.261, 37.968], [70.276, 37.944], [70.262, 37.938], [70.244, 37.944], [70.213, 37.931], [70.214, 37.922], [70.202, 37.929], [70.193, 37.943], [70.182, 37.942], [70.171, 37.93], [70.18, 37.904], [70.182, 37.886], [70.177, 37.879], [70.185, 37.85], [70.222, 37.832], [70.24, 37.833], [70.26, 37.828], [70.279, 37.816], [70.274, 37.799], [70.28, 37.779], [70.298, 37.768], [70.286, 37.749], [70.299, 37.736], [70.296, 37.721], [70.287, 37.716], [70.301, 37.704], [70.303, 37.691], [70.286, 37.684], [70.279, 37.675], [70.277, 37.657], [70.265, 37.65], [70.261, 37.639], [70.269, 37.621], [70.266, 37.611], [70.24, 37.611], [70.214, 37.606], [70.222, 37.583], [70.204, 37.585], [70.213, 37.568], [70.196, 37.563], [70.18, 37.572], [70.182, 37.56], [70.173, 37.546], [70.173, 37.532], [70.156, 37.536], [70.145, 37.525], [70.112, 37.524], [70.096, 37.534], [70.08, 37.534], [70.073, 37.542], [70.056, 37.549], [70.047, 37.544], [70.035, 37.552], [70.023, 37.547], [70.002, 37.555], [69.998, 37.567], [69.959, 37.565], [69.95, 37.574], [69.95, 37.591], [69.941, 37.608], [69.899, 37.615], [69.879, 37.609], [69.841, 37.604], [69.828, 37.591], [69.828, 37.574], [69.802, 37.569], [69.786, 37.583], [69.762, 37.591], [69.732, 37.587], [69.714, 37.575], [69.668, 37.584], [69.645, 37.579], [69.63, 37.57], [69.572, 37.572], [69.548, 37.577], [69.549, 37.582], [69.533, 37.59], [69.511, 37.581], [69.503, 37.561], [69.504, 37.553], [69.491, 37.528], [69.479, 37.516], [69.462, 37.514], [69.457, 37.494], [69.433, 37.478], [69.422, 37.477], [69.418, 37.455], [69.403, 37.448], [69.389, 37.449], [69.39, 37.431], [69.374, 37.422], [69.372, 37.404], [69.365, 37.401], [69.378, 37.393], [69.371, 37.379], [69.393, 37.36], [69.395, 37.351], [69.381, 37.34], [69.399, 37.332], [69.398, 37.315], [69.407, 37.312], [69.41, 37.299], [69.424, 37.29], [69.414, 37.272], [69.425, 37.246], [69.437, 37.243], [69.456, 37.261], [69.469, 37.26], [69.47, 37.249], [69.451, 37.23], [69.437, 37.206], [69.424, 37.196], [69.404, 37.168], [69.395, 37.164], [69.37, 37.166], [69.358, 37.154], [69.332, 37.135], [69.323, 37.118], [69.287, 37.114], [69.277, 37.105], [69.262, 37.104], [69.256, 37.093], [69.227, 37.105], [69.219, 37.124], [69.157, 37.158], [69.137, 37.166], [69.108, 37.186], [69.095, 37.211], [69.073, 37.229], [69.043, 37.244], [69.03, 37.256], [69.012, 37.294], [69, 37.308], [68.979, 37.32], [68.962, 37.325], [68.921, 37.324], [68.894, 37.338], [68.884, 37.334], [68.888, 37.322], [68.904, 37.303], [68.92, 37.295], [68.924, 37.285], [68.919, 37.276], [68.905, 37.272], [68.883, 37.287], [68.866, 37.316], [68.85, 37.325], [68.831, 37.327], [68.809, 37.322], [68.808, 37.306], [68.826, 37.269], [68.826, 37.248], [68.801, 37.245], [68.771, 37.275], [68.752, 37.278], [68.723, 37.271], [68.704, 37.27], [68.688, 37.278], [68.671, 37.276], [68.662, 37.262], [68.675, 37.245], [68.67, 37.239], [68.656, 37.247], [68.646, 37.244], [68.651, 37.231], [68.648, 37.22], [68.632, 37.215], [68.617, 37.198], [68.572, 37.188], [68.539, 37.165], [68.518, 37.159], [68.49, 37.157], [68.46, 37.148], [68.449, 37.134], [68.439, 37.133], [68.426, 37.149], [68.406, 37.145], [68.415, 37.12], [68.413, 37.104], [68.39, 37.098], [68.352, 37.103], [68.344, 37.107], [68.302, 37.111], [68.286, 37.101], [68.278, 37.087], [68.277, 37.066], [68.284, 37.031], [68.275, 37.012], [68.253, 37.005], [68.213, 37.018], [68.187, 37.021], [68.174, 37.014], [68.112, 36.966], [68.051, 36.929], [68.016, 36.925], [68.001, 36.936], [67.997, 36.949], [67.972, 36.98], [67.951, 36.99], [67.911, 37.014], [67.9, 37.031], [67.889, 37.057], [67.88, 37.064], [67.836, 37.069], [67.806, 37.077], [67.791, 37.086], [67.779, 37.102], [67.791, 37.138], [67.787, 37.186], [67.756, 37.207], [67.723, 37.219], [67.643, 37.221], [67.632, 37.224], [67.609, 37.237], [67.587, 37.235], [67.573, 37.217], [67.558, 37.222], [67.537, 37.248], [67.517, 37.265], [67.494, 37.269], [67.474, 37.26], [67.453, 37.236], [67.402, 37.218], [67.377, 37.219], [67.361, 37.21], [67.325, 37.198], [67.305, 37.194], [67.27, 37.182], [67.246, 37.189], [67.224, 37.244], [67.194, 37.261], [67.165, 37.258], [67.138, 37.266], [67.111, 37.285], [67.107, 37.291], [67.114, 37.316], [67.112, 37.328], [67.087, 37.343], [67.087, 37.35], [67.069, 37.36], [67.061, 37.371], [67.045, 37.38], [67.011, 37.373], [66.992, 37.384], [66.979, 37.386], [66.95, 37.398], [66.935, 37.394], [66.897, 37.372], [66.873, 37.366], [66.851, 37.353], [66.824, 37.356], [66.801, 37.363], [66.769, 37.361], [66.751, 37.354], [66.73, 37.364], [66.708, 37.356], [66.693, 37.357], [66.672, 37.342], [66.666, 37.328], [66.652, 37.324], [66.622, 37.333], [66.61, 37.355], [66.594, 37.369], [66.575, 37.369], [66.551, 37.354], [66.481, 37.331], [66.464, 37.33], [66.431, 37.319], [66.4, 37.324], [66.343, 37.324], [66.307, 37.32], [66.246, 37.356], [66.208, 37.364], [66.203, 37.37], [66.167, 37.369], [66.162, 37.391], [66.149, 37.399], [66.114, 37.401], [66.085, 37.439], [66.07, 37.446], [66.043, 37.45], [66.002, 37.442], [66.008, 37.455], [65.974, 37.467], [65.937, 37.473], [65.894, 37.476], [65.864, 37.487], [65.818, 37.5], [65.811, 37.506], [65.803, 37.523], [65.783, 37.527], [65.746, 37.54], [65.706, 37.539], [65.69, 37.516], [65.646, 37.439], [65.644, 37.329], [65.556, 37.241], [65.519, 37.237], [65.37, 37.23], [65.284, 37.228], [65.228, 37.251], [65.191, 37.236], [65.124, 37.244], [64.99, 37.218], [64.755, 37.113], [64.798, 36.922], [64.707, 36.796], [64.619, 36.637], [64.622, 36.604], [64.619, 36.583], [64.636, 36.442], [64.59, 36.379], [64.58, 36.352], [64.526, 36.305], [64.445, 36.243], [64.431, 36.243], [64.389, 36.228], [64.356, 36.227], [64.355, 36.22], [64.329, 36.207], [64.315, 36.208], [64.314, 36.2], [64.284, 36.152], [64.255, 36.161], [64.237, 36.15], [64.212, 36.167], [64.195, 36.165], [64.189, 36.159], [64.17, 36.163], [64.16, 36.161], [64.158, 36.146], [64.147, 36.147], [64.112, 36.123], [64.094, 36.13], [64.081, 36.11], [64.058, 36.103], [64.06, 36.075], [64.057, 36.058], [64.064, 36.024], [64.071, 36.027], [64.069, 35.997], [63.989, 36.036], [63.899, 36.013], [63.81, 35.992], [63.703, 35.968], [63.536, 35.948], [63.501, 35.898], [63.299, 35.857], [63.263, 35.856], [63.121, 35.862], [63.122, 35.852], [63.112, 35.847], [63.116, 35.832], [63.108, 35.822], [63.118, 35.809], [63.134, 35.801], [63.131, 35.794], [63.143, 35.771], [63.159, 35.751], [63.168, 35.75], [63.174, 35.733], [63.19, 35.732], [63.195, 35.713], [63.211, 35.707], [63.226, 35.711], [63.233, 35.703], [63.242, 35.704], [63.249, 35.681], [63.164, 35.652], [63.112, 35.634], [63.107, 35.621], [63.095, 35.618], [63.1, 35.593], [63.109, 35.578], [63.104, 35.574], [63.107, 35.548], [63.13, 35.544], [63.122, 35.513], [63.113, 35.514], [63.12, 35.491], [63.108, 35.462], [63.109, 35.447], [63.101, 35.436], [63.099, 35.418], [63.093, 35.421], [63.076, 35.415], [63.052, 35.412], [63.037, 35.416], [63.025, 35.412], [63.013, 35.418], [63.022, 35.401], [63.006, 35.409], [63.002, 35.405], [62.962, 35.387], [62.934, 35.38], [62.911, 35.359], [62.894, 35.359], [62.892, 35.344], [62.88, 35.347], [62.868, 35.337], [62.853, 35.315], [62.842, 35.313], [62.824, 35.3], [62.801, 35.303], [62.786, 35.301], [62.781, 35.293], [62.763, 35.287], [62.751, 35.272], [62.748, 35.255], [62.738, 35.25], [62.725, 35.252], [62.713, 35.24], [62.693, 35.24], [62.674, 35.231], [62.669, 35.233], [62.641, 35.223], [62.636, 35.214], [62.623, 35.209], [62.611, 35.235], [62.583, 35.226], [62.575, 35.231], [62.554, 35.234], [62.542, 35.249], [62.543, 35.258], [62.528, 35.262], [62.525, 35.273], [62.514, 35.266], [62.505, 35.267], [62.498, 35.277], [62.478, 35.279], [62.326, 35.145], [62.306, 35.129], [62.298, 35.138], [62.301, 35.169], [62.293, 35.179], [62.291, 35.215], [62.294, 35.232], [62.289, 35.241], [62.291, 35.256], [62.276, 35.268], [62.274, 35.282], [62.266, 35.295], [62.154, 35.341], [62.106, 35.385], [62.064, 35.434], [61.968, 35.454], [61.78, 35.411], [61.588, 35.437], [61.45, 35.52], [61.444, 35.533], [61.425, 35.539], [61.409, 35.554], [61.401, 35.553], [61.386, 35.569], [61.401, 35.584], [61.394, 35.591], [61.375, 35.591], [61.369, 35.615], [61.375, 35.621], [61.36, 35.63], [61.321, 35.624], [61.322, 35.612], [61.303, 35.595], [61.287, 35.6], [61.283, 35.609], [61.274, 35.605], [61.271, 35.589], [61.279, 35.577], [61.27, 35.56], [61.283, 35.55], [61.278, 35.52], [61.254, 35.491], [61.254, 35.48], [61.244, 35.476], [61.234, 35.462], [61.236, 35.45], [61.222, 35.443], [61.233, 35.433], [61.227, 35.421], [61.214, 35.42], [61.187, 35.4], [61.201, 35.388], [61.199, 35.378], [61.184, 35.371], [61.184, 35.358], [61.176, 35.356], [61.177, 35.34], [61.191, 35.32], [61.186, 35.316], [61.19, 35.293], [61.169, 35.29], [61.156, 35.277], [61.155, 35.285], [61.133, 35.278], [61.11, 35.283], [61.092, 35.264], [61.097, 35.258], [61.096, 35.24], [61.102, 35.234], [61.098, 35.218], [61.118, 35.211], [61.106, 35.191], [61.093, 35.183], [61.099, 35.174], [61.087, 35.167], [61.093, 35.159], [61.107, 35.163], [61.111, 35.152], [61.125, 35.135], [61.133, 35.134], [61.131, 35.107], [61.14, 35.102], [61.128, 35.094], [61.141, 35.088], [61.141, 35.073], [61.122, 35.076], [61.126, 35.058], [61.112, 35.061], [61.117, 35.044], [61.1, 35.024], [61.108, 35.019], [61.12, 35.002], [61.104, 34.997], [61.108, 34.982], [61.096, 34.974], [61.097, 34.952], [61.084, 34.951], [61.085, 34.942], [61.062, 34.917], [61.074, 34.909], [61.058, 34.908], [61.067, 34.895], [61.068, 34.882], [61.081, 34.876], [61.07, 34.87], [61.069, 34.851], [61.074, 34.843], [61.063, 34.839], [61.068, 34.833], [61.068, 34.812], [61.061, 34.803], [61.055, 34.783], [61.05, 34.78], [61.034, 34.749], [61.014, 34.732], [61.003, 34.709], [60.999, 34.654], [61.001, 34.643], [60.984, 34.62], [60.96, 34.619], [60.922, 34.623], [60.897, 34.567], [60.849, 34.542], [60.823, 34.545], [60.742, 34.527], [60.742, 34.511], [60.751, 34.508], [60.791, 34.476], [60.809, 34.472], [60.807, 34.462], [60.822, 34.442], [60.822, 34.43], [60.83, 34.416], [60.842, 34.411], [60.838, 34.402], [60.846, 34.392], [60.85, 34.368], [60.859, 34.368], [60.871, 34.348], [60.881, 34.348], [60.891, 34.332], [60.918, 34.305], [60.882, 34.303], [60.834, 34.311], [60.784, 34.31], [60.737, 34.307], [60.686, 34.311], [60.672, 34.303], [60.669, 34.272], [60.641, 34.258], [60.621, 34.244], [60.566, 34.193], [60.555, 34.168], [60.537, 34.151], [60.534, 34.128], [60.523, 34.107], [60.518, 34.062], [60.582, 33.805], [60.547, 33.731], [60.551, 33.64], [60.581, 33.597], [60.655, 33.557], [60.703, 33.546], [60.753, 33.543], [60.903, 33.54], [60.946, 33.513], [60.929, 33.497], [60.882, 33.505], [60.851, 33.482], [60.863, 33.462], [60.866, 33.421], [60.824, 33.4], [60.759, 33.344], [60.634, 33.228], [60.583, 33.13], [60.629, 33.021], [60.71, 32.696], [60.815, 32.481], [60.847, 32.34], [60.859, 32.266], [60.883, 32.198], [60.843, 32.069], [60.823, 32.033], [60.816, 32.027], [60.819, 32.012], [60.833, 31.98], [60.822, 31.964], [60.827, 31.929], [60.818, 31.89], [60.813, 31.709], [60.84, 31.569], [60.856, 31.487], [61.319, 31.427], [61.571, 31.394], [61.606, 31.389], [61.707, 31.376], [61.771, 31.312], [61.778, 31.302], [61.774, 31.265], [61.77, 31.251], [61.777, 31.214], [61.772, 31.206], [61.788, 31.195], [61.806, 31.16], [61.803, 31.145], [61.816, 31.104], [61.83, 31.092], [61.827, 31.074], [61.829, 31.048], [61.839, 31.035], [61.828, 31.029], [61.833, 31.02], [61.824, 30.998], [61.827, 30.981], [61.835, 30.978], [61.814, 30.955], [61.79, 30.944], [61.782, 30.911], [61.786, 30.897], [61.795, 30.887], [61.793, 30.867], [61.805, 30.839], [61.802, 30.833], [61.772, 30.809], [61.585, 30.613], [61.512, 30.539], [61.343, 30.359], [60.873, 29.859]]]]}}