{"type": "Feature", "properties": {"name": "Bulgaria", "iso1": "BG", "admin_level": 2, "osm_id": 186382, "countrylevel_id": "iso1:BG", "osm_data": {"localname": "–ë—ä–ª–≥a—Ä–∏—è", "official_name": "–†–µ–ø—ÉÃÄ–±–ª–∏–∫–∞ –ë—ä–ª–≥–∞ÃÄ—Ä–∏—è", "alltags": {"flag": "http://upload.wikimedia.org/wikipedia/commons/9/9a/Flag_of_Bulgaria.svg", "name:ab": "–ë–æ–ª–≥–∞ÃÅ—Ä–∏–∞", "name:af": "Bulgarye", "name:ak": "Bulgaria", "name:am": "·â°·àç·åã·à™·ã´", "name:an": "Bulgaria", "name:ar": "ÿ®ŸÑÿ∫ÿßÿ±Ÿäÿß", "name:av": "–ë–æ–ª–≥–∞ÃÅ—Ä–∏—è", "name:ay": "Bulkariya", "name:az": "Bolqarƒ±stan", "name:ba": "–ë–æ–ª–≥–∞ÃÅ—Ä–∏—è", "name:be": "–ë–∞–ª–≥–∞ÃÅ—Ä—ã—è", "name:bg": "–ë—ä–ª–≥–∞—Ä–∏—è", "name:bh": "‡§¨‡•Å‡§≤‡•ç‡§ó‡§æ‡§∞‡§ø‡§Ø‡§æ", "name:bi": "Bulgaria", "name:bn": "‡¶¨‡ßÅ‡¶≤‡¶ó‡ßá‡¶∞‡¶ø‡¶Ø‡¶º‡¶æ", "name:bo": "‡Ωî‡Ω¥‡ºã‡Ω¢‡ºã‡ΩÇ‡ºã‡Ω¢‡Ω≤‡ºã‡Ω°‡ºç", "name:br": "Bulgaria", "name:bs": "Bugarska", "name:ca": "Bulg√†ria", "name:ce": "–ë–æ–ª–≥–∞ÃÅ—Ä–∏", "name:ch": "Bulgaria", "name:co": "Bulgaria", "name:cs": "Bulharsko", "name:cu": "–ë–ª—ä–≥–∞—Ä—óÍôó", "name:cv": "–üƒÉ–ª—Ö–∞—Äƒï", "name:cy": "Bwlgaria", "name:da": "Bulgarien", "name:dv": "ﬁÑﬁ¶ﬁçﬁ∞ﬁéﬁ≠ﬁÉﬁ®ﬁáﬁß", "name:ee": "Bulgaria", "name:el": "ŒíŒøœÖŒªŒ≥Œ±œÅŒØŒ±", "name:en": "Bulgaria", "name:eo": "Bulgarujo", "name:es": "Bulgaria", "name:et": "Bulgaaria", "name:eu": "Bulgaria", "name:fa": "ÿ®ŸÑÿ∫ÿßÿ±ÿ≥ÿ™ÿßŸÜ", "name:ff": "Bulgariya", "name:fi": "Bulgaria", "name:fo": "Bulgaria", "name:fr": "Bulgarie", "name:fy": "Bulgarije", "name:ga": "an Bhulg√°ir", "name:gd": "Bulg√†iria", "name:gl": "Bulgaria", "name:gn": "Vugaria", "name:gu": "‡™¨‡™≤‡´ç‡™ó‡´á‡™∞‡™ø‡™Ø‡™æ", "name:gv": "yn Vulgeyr", "name:ha": "Bulgairiya", "name:he": "◊ë÷º◊ï÷º◊ú÷∞◊í÷∑◊®÷∞◊ô÷∏◊î", "name:hi": "‡§¨‡•Å‡§≤‡•ç‡§ó‡§æ‡§∞‡§ø‡§Ø‡§æ", "name:hr": "Bugarska", "name:ht": "Bilgari", "name:hu": "Bulg√°ria", "name:hy": "‘≤’∏÷Ç’¨’≤’°÷Ä’´’°", "name:ia": "Bulgaria", "name:id": "Bulgaria", "name:ie": "Bulgaria", "name:ig": "Bulgaria", "name:io": "Bulgaria", "name:is": "B√∫lgar√≠a", "name:it": "Bulgaria", "name:ja": "„Éñ„É´„Ç¨„É™„Ç¢", "name:jv": "Bulgaria", "name:ka": "·Éë·É£·Éö·Éí·Éê·É†·Éî·Éó·Éò", "name:kg": "Balgaria", "name:kk": "–ë–æ–ª–≥–∞—Ä–∏—è", "name:kl": "Bulgaria", "name:kn": "‡≤¨‡≤≤‡≥ç‡≤ó‡≥á‡≤∞‡≤ø‡≤Ø", "name:ko": "Î∂àÍ∞ÄÎ¶¨ÏïÑ", "name:ku": "Bulgaristan", "name:kv": "–ë–æ–ª–≥–∞—Ä–∏—è", "name:kw": "Bulgari", "name:ky": "–ë–æ–ª–≥–∞—Ä–∏—è", "name:la": "Bulgaria", "name:lb": "Bulgarien", "name:li": "B√∂lgarije", "name:ln": "Bulgaria", "name:lo": "‡∫õ‡∫∞‡ªÄ‡∫ó‡∫î‡∫ö‡∫π‡∫ô‡∫Å‡∫≤‡∫•‡∫µ", "name:lt": "Bulgarija", "name:lv": "BulgƒÅrija", "name:mg": "Biolgaria", "name:mi": "PurukƒÅria", "name:mk": "–ë—É–≥–∞—Ä–∏—ò–∞", "name:ml": "‡¥¨‡µæ‡¥ó‡µá‡¥±‡¥ø‡¥Ø", "name:mn": "–ë–æ–ª–≥–∞—Ä", "name:mr": "‡§¨‡§≤‡•ç‡§ó‡•á‡§∞‡§ø‡§Ø‡§æ", "name:ms": "Bulgaria", "name:mt": "Bulgarija", "name:my": "·Äò·Ä∞·Äú·Ä∫·ÄÇ·Ä±·Ä∏·Äõ·ÄÆ·Ä∏·Äö·Ä¨·Ä∏·Äî·Ä≠·ÄØ·ÄÑ·Ä∫·ÄÑ·Ä∂", "name:na": "Borgeriya", "name:ne": "‡§¨‡•Å‡§≤‡•ç‡§ó‡•á‡§∞‡§ø‡§Ø‡§æ", "name:nl": "Bulgarije", "name:nn": "Bulgaria", "name:no": "Bulgaria", "name:nv": "B√°lgaa Bik√©yah", "name:oc": "Bulgaria", "name:om": "Bulgeeriyaa", "name:or": "‡¨¨‡≠Å‡¨≤‡¨ó‡¨æ‡¨∞‡¨ø‡¨Ü", "name:os": "–ë–æ–ª–≥–∞—Ä–∏", "name:pa": "‡®¨‡©Å‡®≤‡®ó‡®æ‡®∞‡©Ä‡®Ü", "name:pi": "‡§¨‡•Å‡§≤‡•ç‡§ó‡§æ‡§∞‡§ø‡§Ø‡§æ", "name:pl": "Bu≈Çgaria", "name:ps": "ÿ®ŸÑÿ∫ÿßÿ±€åÿß", "name:pt": "Bulg√°ria", "name:qu": "Bulgarya", "name:rm": "Bulgaria", "name:rn": "Bulgaria", "name:ro": "Bulgaria", "name:ru": "–ë–æ–ª–≥–∞—Ä–∏—è", "name:rw": "Bulugariya", "name:sa": "‡§¨‡•Å‡§≤‡•ç‡§ó‡§æ‡§∞‡§ø‡§Ø‡§æ", "name:sc": "Bulgaria", "name:sd": "ÿ®ŸÑÿ∫ÿßÿ±ŸäŸá", "name:se": "Bulg√°ria", "name:sg": "Bulugar√Øi", "name:sh": "Bugarska", "name:si": "‡∂∂‡∂Ω‡∑ä‡∂ú‡∑ö‡∂ª‡∑í‡∂∫‡∑è‡∑Ä", "name:sk": "Bulharsko", "name:sl": "Bolgarija", "name:sm": "Bultalia", "name:sn": "Bulgaria", "name:so": "Bulgaria", "name:sq": "Bullgaria", "name:sr": "–ë—É–≥–∞—Ä—Å–∫–∞", "name:ss": "iBhulgariya", "name:su": "Bulgaria", "name:sv": "Bulgarien", "name:sw": "Bulgaria", "name:ta": "‡Æ™‡Æ≤‡Øç‡Æï‡Øá‡Æ∞‡Æø‡ÆØ‡Ææ", "name:te": "‡∞¨‡∞≤‡±ç‡∞ó‡±á‡∞∞‡∞ø‡∞Ø‡∞æ", "name:tg": "–ë—É–ª“ì–æ—Ä–∏—Å—Ç–æ–Ω", "name:th": "‡∏ö‡∏±‡∏•‡πÅ‡∏Å‡πÄ‡∏£‡∏µ‡∏¢", "name:tk": "Bolgari√Ωa", "name:tl": "Bulgarya", "name:tr": "Bulgaristan", "name:ts": "Bulgaria", "name:tt": "–ë–æ–ª–≥–∞—Ä–∏—è", "name:tw": "Bulgaria", "name:ug": "ÿ®€áŸÑÿ∫ÿßÿ±ŸâŸä€ï", "name:uk": "–ë–æ–ª–≥–∞ÃÅ—Ä—ñ—è", "name:ur": "ÿ®ŸÑÿ∫ÿßÿ±€å€Å", "name:uz": "Bolgariya", "name:vi": "Bulgaria", "name:vo": "Bulgar√§n", "name:wa": "Bulg√•reye", "name:wo": "Bulgaari", "name:yi": "◊ë◊ï◊ú◊í◊ê÷∑◊®◊ô◊¢", "name:yo": "B√πlg√°r√≠√†", "name:zh": "‰øùÂä†Âà©‰∫ö", "name:zu": "IBulgariya", "int_name": "Bulgaria", "name:ace": "Bulgaria", "name:ady": "–ë—É–ª–≥–∞—Ä–∏–µ", "name:als": "Bulgarie", "name:ang": "Pulgaraland", "name:arc": "‹í‹ò‹†‹ì‹ê‹™‹ù‹ê", "name:arz": "ÿ®ŸÑÿ¨ÿßÿ±Ÿäÿß", "name:ast": "Bulgaria", "name:azb": "ÿ®ŸàŸÑÿ∫ÿßÿ±€åÿ≥ÿ™ÿßŸÜ", "name:bar": "Buigarien", "name:bcl": "Bulgarya", "name:bpy": "‡¶¨‡ßÅ‡¶≤‡¶ó‡ßá‡¶∞‡¶ø‡¶Ø‡¶º‡¶æ", "name:bxr": "–ë–æ–ª–≥–∞—Ä–∏", "name:cdo": "B≈çÃ§-gƒÉ-l√™-ƒÅ", "name:ceb": "Bulgaria", "name:chr": "·èä·éµ·é®·éµ·é†", "name:ckb": "ÿ®ŸàŸÑ⁄Øÿßÿ±€åÿß", "name:crh": "Bulƒüaristan", "name:csb": "B√πlgarsk√¥", "name:diq": "Bulƒüarƒ±stan", "name:dsb": "Bulgarska", "name:dty": "‡§¨‡•Å‡§≤‡•ç‡§ó‡•á‡§∞‡§ø‡§Ø‡§æ", "name:eml": "Bulgar√Æ", "name:ext": "Bulg√°ria", "name:frp": "Bulgarie", "name:frr": "Bulgarien", "name:fur": "Bulgarie", "name:gag": "Bulgariya", "name:gom": "‡§¨‡§≤‡•ç‡§ó‡•á‡§∞‡§ø‡§Ø‡§æ", "name:got": "êå±êåøêåªêå≤êå∞êçÇêåπêå∞", "name:hak": "P√≥-k√¢-li-√¢", "name:haw": "Pulukalia", "name:hif": "Bulgaria", "name:hsb": "Bo≈Çharska", "name:ilo": "Bulgaria", "name:jam": "Bulgieria", "name:jbo": "bylgAri,as", "name:kaa": "Bolgariya", "name:kab": "Bulgarya", "name:kbd": "–ë–æ–ª–≥–∞—Ä–∏—ç", "name:kbp": "Puligari", "name:koi": "–ë”ß–ª–≥–∞—Ä–∏—è", "name:krc": "–ë–æ–ª–≥–∞—Ä–∏—è", "name:ksh": "Bulgarije", "name:lad": "Bulgaria", "name:lbe": "–ë–æ–ª–≥–∞—Ä–∏–∞", "name:lez": "–ë–æ–ª–≥–∞—Ä–∏—è", "name:lij": "Burgaja", "name:lmo": "B√ºlgaria", "name:lrc": "ÿ®ŸàŸÑÿ∫ÿßÿ±ÿ¶ÿ≥ÿ™ÿßŸÜ", "name:ltg": "Bulgareja", "name:lzh": "‰øùÂä†Âà©‰∫û", "name:mai": "‡§¨‡•Å‡§≤‡•ç‡§ó‡•á‡§∞‡§ø‡§Ø‡§æ", "name:mdf": "–ë–æ–ª–≥–∞—Ä–∏–µ", "name:mhr": "–ë–æ–ª–≥–∞—Ä–∏–π", "name:mrj": "–ë–æ–ª–≥–∞—Ä–∏", "name:mwl": "Bulg√°ria", "name:myv": "–ë–æ–ª–≥–∞—Ä–∏—è –ú–∞—Å—Ç–æ—Ä", "name:mzn": "ÿ®ŸÑÿ∫ÿßÿ±ÿ≥ÿ™ŸàŸÜ", "name:nah": "Bulgaria", "name:nan": "PuÃçt-g√¢-lƒ´", "name:nap": "Bulgaria", "name:nds": "Bulgarien", "name:new": "‡§¨‡•Å‡§≤‡•ç‡§ó‡•á‡§∞‡§ø‡§Ø‡§æ", "name:nov": "Bulgaria", "name:nrm": "Bulgarie", "name:olo": "Bolguarii", "name:pag": "Bulgariya", "name:pam": "Bulgaria", "name:pap": "Bulgaria", "name:pcd": "Bulgarie", "name:pdc": "Bulgarien", "name:pfl": "Bulgarije", "name:pih": "Bulgeriya", "name:pms": "Bulgar√¨a", "name:pnb": "ÿ®ŸÑÿ∫ÿßÿ±€å€Å", "name:pnt": "ŒíŒøœÖŒªŒ≥Œ±œÅŒØŒ±", "name:rmy": "Bulgariya", "name:rue": "–ë—É–ª–≥–∞—Ä—ñ—è", "name:sah": "–ë–æ–ª–≥–∞—Ä–∏—è", "name:scn": "Bulgar√¨a", "name:sco": "Bulgarie", "name:srn": "Bulgarikondre", "name:stq": "Bulgarien", "name:szl": "Bu≈Çgaryjo", "name:tet": "Bulg√°ria", "name:tok": "ma Pokasi", "name:tpi": "Balgeria", "name:tum": "Bulgaria", "name:tzl": "B√ºlgaria", "name:udm": "–ë–æ–ª–≥–∞ÃÅ—Ä–∏—è", "name:vec": "Bulgaria", "name:vep": "Bolgarii", "name:vls": "Bulgareye", "name:war": "Bulgarya", "name:wuu": "‰øùÂä†Âà©‰∫ö", "name:xal": "–ë–æ–ª–≥–∞—Ä–º—É–¥–∏–Ω", "name:xmf": "·Éë·É£·Éö·Éí·Éê·É†·Éî·Éó·Éò", "name:yue": "‰øùÂä†Âà©‰∫û", "name:zea": "Bulharije", "alt_name:ba": "–ë–æ–ª“ì–∞—Ä—Å—Ç–∞–Ω", "alt_name:eo": "Bulgario", "alt_name:gd": "A' Bhulgair;Bulgaria", "alt_name:ht": "Boulgari", "alt_name:kk": "–ë“±–ª“ì–∞—Ä–∏—è", "alt_name:rw": "Buligariya", "alt_name:ta": "‡Æ™‡Æ≤‡Øç‡Æï‡Ææ‡Æ∞‡Æø‡ÆØ‡Ææ", "alt_name:tk": "Bolgarystan", "name:nds-nl": "Bulgarije", "alt_name:jbo": "bulgarias", "alt_name:lij": "Burgaja", "alt_name:mzn": "ÿ®ŸÑÿ∫ÿßÿ±ÿ≥ÿ™ÿßŸÜ", "alt_name:nan": "P√≥-ka-lƒ´-√°", "alt_name:rmy": "Dasikanipe", "name:bat-smg": "Bulgarƒójƒó", "name:cbk-zam": "Bulgaria", "name:fiu-vro": "Bulgaaria", "name:roa-rup": "Vurgaria", "name:sr-Latn": "Bugarska", "name:roa-tara": "Bulgarie", "official_name": "–†–µ–ø—ÉÃÄ–±–ª–∏–∫–∞ –ë—ä–ª–≥–∞ÃÄ—Ä–∏—è", "name:be-tarask": "–ë–∞—û–≥–∞ÃÅ—Ä—ã—è", "is_in:continent": "Europe", "default_language": "bg", "official_name:af": "Republiek van Bulgarye", "official_name:am": "·ã®·â°·àç·åã·à™·ã´ ·à™·çê·â•·àä·ä®", "official_name:an": "Republica de Bulgaria", "official_name:ar": "ÿ¨ŸÖŸáŸàÿ±Ÿäÿ© ÿ®ŸÑÿ∫ÿßÿ±Ÿäÿß", "official_name:av": "–ë–æ–ª–≥–∞ÃÅ—Ä–∏—è –ñ—É–º–≥—å—É—Ä–∏—è—Ç", "official_name:ay": "Ripublika Bulkariya", "official_name:az": "Bolqarƒ±stan Respublikasƒ±", "official_name:ba": "–ë–æ–ª–≥–∞ÃÅ—Ä–∏—è –†–µ—Å–ø—ÉÃÅ–±–ª–∏–∫–∞“ª—ã", "official_name:be": "–†—ç—Å–ø—ÉÃÅ–±–ª—ñ–∫–∞ –ë–∞–ª–≥–∞ÃÅ—Ä—ã—è", "official_name:bg": "–†–µ–ø—ÉÃÄ–±–ª–∏–∫–∞ –ë—ä–ª–≥–∞ÃÄ—Ä–∏—è", "official_name:bn": "‡¶¨‡ßÅ‡¶≤‡¶ó‡ßá‡¶∞‡¶ø‡¶Ø‡¶º‡¶æ ‡¶™‡ßç‡¶∞‡¶ú‡¶æ‡¶§‡¶®‡ßç‡¶§‡ßç‡¶∞", "official_name:br": "Republik Bulgaria", "official_name:bs": "Republika Bugarska", "official_name:ce": "–†–µ—Å–ø—ÉÃÅ–±–ª–∏–∫–∞ –ë–æ–ª–≥–∞ÃÅ—Ä–∏", "official_name:co": "Republica di Bulgaria", "official_name:cs": "Bulharsk√° republika", "official_name:cu": "–ë–ª—ä–≥–∞—Ä—ñÃÅÍôó –î–∏–º–æ–∫—Ä–∞—Ç—ñÃÅÍôó", "official_name:cv": "–¢ƒÉ–Ω–∞–π√ß–∏ –üƒÉ–ª—Ö–∞—Äƒï", "official_name:cy": "Gweriniaeth Bwlgaria", "official_name:da": "Republikken Bulgarien", "official_name:de": "Republik Bulgarien", "official_name:el": "ŒîŒ∑ŒºŒøŒ∫œÅŒ±œÑŒØŒ± œÑŒ∑œÇ ŒíŒøœÖŒªŒ≥Œ±œÅŒØŒ±œÇ", "official_name:en": "Republic of Bulgaria", "official_name:eo": "Bulgara Respubliko", "official_name:es": "Rep√∫blica de Bulgaria", "official_name:et": "Bulgaaria Vabariik", "official_name:eu": "Bulgaria", "official_name:fa": "ÿ¨ŸÖŸáŸàÿ±€å ÿ®ŸÑÿ∫ÿßÿ±ÿ≥ÿ™ÿßŸÜ", "official_name:fi": "Bulgarian tasavalta", "official_name:fo": "L√Ω√∞veldi√∞ Bulgaria", "official_name:fr": "R√©publique de Bulgarie", "official_name:fy": "Republyk Bulgarije", "official_name:ga": "Poblacht na Bulg√°ire", "official_name:gl": "Rep√∫blica de Bulgaria", "official_name:gu": "‡™¨‡™≤‡´ç‡™ó‡´á‡™∞‡™ø‡™Ø‡™æ ‡™ó‡™£‡™∞‡™æ‡™ú‡´ç‡™Ø", "official_name:gv": "Pobblaght ny Bulgeyr", "official_name:he": "◊î÷∏◊®÷∂◊§÷º◊ï÷º◊ë÷∞÷º◊ú÷¥◊ô◊ß÷∏◊î ◊î÷∑◊ë÷º◊ï÷º◊ú÷∞◊í÷∏◊®÷¥◊ô◊™", "official_name:hi": "‡§¨‡•Å‡§≤‡•ç‡§ó‡§æ‡§∞‡§ø‡§Ø‡§æ ‡§ó‡§£‡§§‡§Ç‡§§‡•ç‡§∞", "official_name:hr": "Republika Bugarska", "official_name:hu": "Bolg√°r K√∂zt√°rsas√°g", "official_name:hy": "‘≤’∏÷Ç’¨’≤’°÷Ä’´’°’µ’´ ’Ä’°’∂÷Ä’°’∫’•’ø’∏÷Ç’©’µ’∏÷Ç’∂", "official_name:ia": "Republica de Bulgaria", "official_name:id": "Republika Bulgaria", "official_name:is": "L√Ω√∞veldi√∞ B√∫lgar√≠a", "official_name:it": "Repubblica di Bulgaria", "official_name:ja": "„Éñ„É´„Ç¨„É™„Ç¢ÂÖ±ÂíåÂõΩ", "official_name:ka": "·Éë·É£·Éö·Éí·Éê·É†·Éî·Éó·Éò·É° ·É†·Éî·É°·Éû·É£·Éë·Éö·Éò·Éô·Éê", "official_name:kk": "–ë–æ–ª–≥–∞—Ä–∏—è –†–µ—Å–ø—É–±–ª–∏–∫–∞—Å—ã", "official_name:kl": "Kunngiitsuuffik Bulgaria", "official_name:kn": "‡≤¨‡≤≤‡≥ç‡≤ó‡≥á‡≤∞‡≤ø‡≤Ø ‡≤ó‡≤£‡≤∞‡≤æ‡≤ú‡≥ç‡≤Ø", "official_name:ko": "Î∂àÍ∞ÄÎ¶¨ÏïÑ Í≥µÌôîÍµ≠", "official_name:ku": "Komara Bulgaristan√™", "official_name:kv": "–ë–æ–ª–≥–∞—Ä–∏—è –†–µ—Å–ø—É–±–ª–∏–∫–∞", "official_name:kw": "Repoblek Bulgari", "official_name:ky": "–ë–æ–ª–≥–∞—Ä –†–µ—Å–ø—É–±–ª–∏–∫–∞—Å—ã", "official_name:lb": "Republik Bulgarien", "official_name:ln": "Republ√≠ki ya Bulgaria", "official_name:lt": "Bulgarijos respublika", "official_name:lv": "BulgƒÅrijas Republika", "official_name:mi": "T≈´wehe PurukƒÅria", "official_name:mk": "–†–µ–ø—É–±–ª–∏–∫–∞ –ë—É–≥–∞—Ä–∏—ò–∞", "official_name:ml": "‡¥±‡¥ø‡¥™‡µç‡¥™‡¥¨‡µç‡¥≤‡¥ø‡¥ï‡µç‡¥ï‡µç ‡¥ì‡¥´‡µç ‡¥¨‡µæ‡¥ó‡µá‡¥±‡¥ø‡¥Ø", "official_name:mn": "–ë“Ø–≥–¥ –ù–∞–π—Ä–∞–º–¥–∞—Ö –ë–æ–ª–≥–∞—Ä –£–ª—Å", "official_name:mr": "‡§¨‡§≤‡•ç‡§ó‡•á‡§∞‡§ø‡§Ø‡§æ‡§ö‡•á ‡§™‡•ç‡§∞‡§ú‡§æ‡§∏‡§§‡•ç‡§§‡§æ‡§ï", "official_name:ms": "Republik Bulgaria", "official_name:mt": "Repubblika tal-Bulgarija", "official_name:my": "·Äò·Ä∞·Äú·Ä∫·ÄÇ·Ä±·Ä∏·Äõ·ÄÆ·Ä∏·Äö·Ä¨·Ä∏ ·Äï·Äº·Ää·Ä∫·Äû·Ä∞·Ä∑·Äû·Äô·Äπ·Äô·Äê·Äî·Ä≠·ÄØ·ÄÑ·Ä∫·ÄÑ·Ä∂·Äê·Ä±·Ä¨·Ä∫", "official_name:ne": "‡§ó‡§£‡§§‡§®‡•ç‡§§‡•ç‡§∞ ‡§¨‡•Å‡§≤‡•ç‡§ó‡•á‡§∞‡§ø‡§Ø‡§æ", "official_name:nl": "Republiek Bulgarije", "official_name:nn": "Republikken Bulgaria", "official_name:no": "Republikken Bulgaria", "official_name:oc": "Republica bulgara", "official_name:om": "Rippabliikii Bulgeeriyaa", "official_name:os": "–†–µ—Å–ø—É–±–ª–∏–∫√¶ –ë–æ–ª–≥–∞—Ä–∏", "official_name:pl": "Republika Bu≈Çgarii", "official_name:ps": "ÿØ ÿ®ŸÑÿ∫ÿßÿ±Ÿäÿß ŸàŸÑÿ≥ŸÖÿ¥ÿ±Ÿäÿ≤Ÿá", "official_name:pt": "Rep√∫blica da Bulg√°ria", "official_name:qu": "Bulgarya Ripuwlika", "official_name:ro": "Republica Bulgaria", "official_name:ru": "–†–µ—Å–ø—É–±–ª–∏–∫–∞ –ë–æ–ª–≥–∞—Ä–∏—è", "official_name:sc": "Republica de Bulgaria", "official_name:se": "Bulg√°ria d√°ssev√°ldi", "official_name:sh": "Republika Bugarska", "official_name:sk": "Bulharsk√° republika", "official_name:sl": "Republika Bolgarija", "official_name:sm": "Lepulika o Bultalia", "official_name:so": "Jamhuuriyadda Bulgaria", "official_name:sq": "Republika e Bullgaris√´", "official_name:sr": "–†–µ–ø—É–±–ª–∏–∫–∞ –ë—É–≥–∞—Ä—Å–∫–∞", "official_name:su": "Republik Bulgaria", "official_name:sv": "Republiken Bulgarien", "official_name:sw": "Jamhuri ya Bulgaria", "official_name:ta": "‡Æ™‡Æ≤‡Øç‡Æï‡Øá‡Æ∞‡Æø‡ÆØ‡Æï‡Øç ‡Æï‡ØÅ‡Æü‡Æø‡ÆØ‡Æ∞‡Æö‡ØÅ", "official_name:te": "‡∞ó‡∞£‡∞§‡∞Ç‡∞§‡±ç‡∞∞ ‡∞¨‡∞≤‡±ç‡∞ó‡±á‡∞∞‡∞ø‡∞Ø‡∞æ", "official_name:th": "‡∏™‡∏≤‡∏ò‡∏≤‡∏£‡∏ì‡∏£‡∏±‡∏ê‡∏ö‡∏±‡∏•‡πÅ‡∏Å‡πÄ‡∏£‡∏µ‡∏¢", "official_name:tk": "Bolgari√Ωa Respublikasy", "official_name:tl": "Republika ng Bulgarya", "official_name:tr": "Bulgaristan Cumhuriyeti", "official_name:tt": "–ë–æ–ª–≥–∞—Ä–∏—è “ñ”©–º“ª“Ø—Ä–∏—è—Ç–µ", "official_name:ug": "ÿ®ŸàŸÑÿ∫ÿßÿ±ŸâŸä€ï ÿ¨€áŸÖ⁄æ€áÿ±ŸâŸäŸâÿ™Ÿâ", "official_name:uk": "–†–µ—Å–ø—ÉÃÅ–±–ª—ñ–∫–∞ –ë–æ–ª–≥–∞ÃÅ—Ä—ñ—è", "official_name:ur": "ÿ¨ŸÖ€ÅŸàÿ±€å€Å ÿ®ŸÑÿ∫ÿßÿ±€å€Å", "official_name:uz": "Bolgariya Respublikasi", "official_name:vi": "C·ªông h√≤a Bulgaria", "official_name:wa": "Republike di Bulg√•reye", "official_name:wo": "Republik bu Bulgaari", "official_name:yi": "◊®◊¢◊§◊ï◊ë◊ú◊ô◊ß ◊§÷ø◊ï◊ü ◊ë◊ï◊ú◊í◊ê÷∑◊®◊ô◊¢", "official_name:yo": "Orile-ede Olominira ile Bulgaria", "official_name:zh": "‰øùÂä†Âà©‰∫öÂÖ±ÂíåÂõΩ", "official_name:zu": "IRiphabliki weBulgariya", "official_name:ady": "–†–µ—Å–ø—É–±–ª–∏–∫—ç—É –ë—É–ª–≥–∞—Ä–∏–µ", "official_name:als": "Republik Bulgarie", "official_name:arc": "‹©‹ò‹õ‹¢‹ù‹ò‹¨‹ê ‹ï‹í‹ò‹†‹ì‹ê‹™‹ù‹ê", "official_name:arz": "ÿ¨ŸÖŸáŸàÿ±Ÿäÿ© ÿ®ŸÑÿ¨ÿßÿ±Ÿäÿß", "official_name:ast": "Rep√∫blica de Bulgaria", "official_name:azb": "ÿ®ŸàŸÑÿ∫ÿßÿ±€åÿ≥ÿ™ÿßŸÜ ÿ¨ŸàŸÖŸáŸàÿ±€åÿ™€å", "official_name:bar": "Republik Buigarien", "official_name:bpy": "‡¶™‡ßç‡¶∞‡¶ú‡¶æ‡¶§‡¶®‡ßç‡¶§‡ßç‡¶∞‡¶ø ‡¶¨‡ßÅ‡¶≤‡¶ó‡ßá‡¶∞‡¶ø‡¶Ø‡¶º‡¶æ", "official_name:bxr": "–ë“Ø–≥—ç–¥—ç –ù–∞–π—Ä–∞–º–¥–∞—Ö–∞ –ë–æ–ª–≥–∞—Ä–∏ –£–ª–∞—Å", "official_name:chr": "·èç·é¶·èö·é© ·éæ·éø ·èä·éµ·é®·éµ·é†", "official_name:ckb": "⁄©€ÜŸÖÿßÿ±€å ÿ®ŸàŸÑ⁄Øÿßÿ±€åÿß", "official_name:crh": "Bulƒüaristan Cumhuriyeti", "official_name:diq": "Cumhuriyet Bulƒüarƒ±stan", "official_name:dsb": "Republika Bulgarska", "official_name:frr": "Republiik Bulgarien", "official_name:gag": "Bulgariya Respublikasƒ±", "official_name:hif": "Republic of Bulgaria", "official_name:hsb": "Republika Bo≈Çharska", "official_name:ilo": "Republika ti Bulgaria", "official_name:jam": "Ripoblik a Bulgieria", "official_name:koi": "–†–µ—Å–ø—É–±–ª–∏–∫–∞ –ë”ß–ª–≥–∞—Ä–∏—è", "official_name:krc": "–ë–æ–ª–≥–∞—Ä–∏—è –†–µ—Å–ø—É–±–ª–∏–∫–∞", "official_name:lad": "Republika Bulgaria", "official_name:lez": "–†–µ—Å–ø—É–±–ª–∏–∫–∞ –ë–æ–ª–≥–∞—Ä–∏—è", "official_name:lij": "Repubbrica Bulgara", "official_name:lmo": "Republega Bulgara", "official_name:lzh": "‰øùÂä†Âà©‰∫ûÂÖ±ÂíåÂúã", "official_name:mai": "‡§¨‡•Å‡§≤‡•ç‡§ó‡§æ‡§∞‡§ø‡§Ø‡§æ ‡§ó‡§£‡§§‡§Ç‡§§‡•ç‡§∞", "official_name:mrj": "–ë–æ–ª–≥–∞—Ä–∏ –†–µ—Å–ø—É–±–ª–∏–∫–∞", "official_name:myv": "–ë–æ–ª–≥–∞—Ä–∏—è –†–µ—Å–ø—ÉÃÅ–±–ª–∏–∫–∞—Å—å", "official_name:nah": "TlƒÅcatlahtohcƒÅy≈çtl Bulgaria", "official_name:nan": "Bulgaria Ki≈çng-h√¥-kok", "official_name:nds": "Republiek Bulgarien", "official_name:new": "‡§¨‡•Å‡§≤‡•ç‡§ó‡•á‡§∞‡§ø‡§Ø‡§æ ‡§ó‡§£‡§§‡§®‡•ç‡§§‡•ç‡§∞", "official_name:pam": "Republika ning Bulgaria", "official_name:pnt": "ŒîŒ∑ŒºŒøŒ∫œÅŒ±œÑŒØŒ±ŒΩ œÑŒ∑ ŒíŒøœÖŒªŒ≥Œ±œÅŒØŒ±œÇ", "official_name:rmy": "Republika Bulgariya", "official_name:sah": "–ë–æ–ª–≥–∞—Ä–∏—è –†–µ—Å–ø—É–±–ª–∏–∫–∞—Ç–∞", "official_name:sco": "Republic o Bulgarie", "official_name:srn": "Repoliku fu Bulgari", "official_name:stq": "Republik Bulgarien", "official_name:szl": "Republika Bu≈Çgaryje", "official_name:tet": "Rep√∫blika Bulg√°ria", "official_name:udm": "–†–µ—Å–ø—ÉÃÅ–±–ª–∏–∫–∞ –ë–æ–ª–≥–∞ÃÅ—Ä–∏—è", "official_name:vec": "Rep√πblica de Bulgar√¨a", "official_name:vep": "Bolgarijan Tazovaldkund", "official_name:vls": "Republiek Bulgareye", "official_name:wuu": "‰øùÂä†Âà©‰∫öÂÖ±ÂíåÂõΩ", "official_name:xal": "–ë–æ–ª–≥–∞—Ä–º—É–¥–∏–Ω –û—Ä–Ω", "official_name:xmf": "·Éë·É£·Éö·Éí·Éê·É†·Éî·Éó·Éò·É® ·É†·Éî·É°·Éû·É£·Éë·Éö·Éò·Éô·Éê", "official_name:yue": "‰øùÂä†Âà©‰∫ûÂÖ±ÂíåÂúã", "official_name:nds-nl": "Rippebliek Bulgarije", "official_name:bat-smg": "Bulgarƒójƒós Respoblƒóka", "official_name:fiu-vro": "Bulgaaria Vabariik", "official_name:roa-rup": "Republica Vurgaria", "official_name:roa-tara": "Repubblica di Bulgaria", "official_name:be-tarask": "–†—ç—Å–ø—ÉÃÅ–±–ª—ñ–∫–∞ –ë–∞—û–≥–∞ÃÅ—Ä—ã—è"}}, "center_lat": 42.76, "center_lon": 25.24, "timezone": "Europe/Sofia", "population": 7000039, "wikidata_id": "Q219", "wikipedia_id": "bg:–ë—ä–ª–≥–∞—Ä–∏—è"}, "geometry": {"type": "MultiPolygon", "coordinates": [[[[27.661, 43.184], [27.661, 43.184], [27.661, 43.184], [27.661, 43.184]]], [[[27.746, 43.192], [27.746, 43.192], [27.746, 43.192], [27.746, 43.192]]], [[[27.883, 43.193], [27.887, 43.201], [27.908, 43.185], [27.883, 43.193]]], [[[27.734, 42.342], [27.734, 42.342], [27.734, 42.342], [27.734, 42.342]]], [[[27.698, 42.438], [27.698, 42.438], [27.698, 42.438], [27.698, 42.438]]], [[[27.693, 42.437], [27.693, 42.437], [27.693, 42.437], [27.693, 42.437]]], [[[27.553, 42.469], [27.553, 42.469], [27.553, 42.469], [27.553, 42.469]]], [[[28.03, 41.983], [28.01, 41.979], [27.993, 41.981], [27.977, 41.99], [27.976, 41.984], [27.956, 41.976], [27.932, 41.984], [27.916, 41.973], [27.901, 41.981], [27.9, 41.991], [27.864, 42.007], [27.845, 41.991], [27.831, 41.999], [27.819, 41.987], [27.82, 41.966], [27.832, 41.962], [27.836, 41.948], [27.814, 41.954], [27.814, 41.943], [27.802, 41.953], [27.779, 41.954], [27.786, 41.961], [27.778, 41.966], [27.75, 41.97], [27.737, 41.98], [27.734, 41.974], [27.705, 41.978], [27.684, 41.972], [27.68, 41.963], [27.663, 41.958], [27.652, 41.962], [27.643, 41.954], [27.622, 41.959], [27.629, 41.951], [27.612, 41.938], [27.601, 41.947], [27.597, 41.938], [27.574, 41.937], [27.56, 41.905], [27.541, 41.916], [27.518, 41.951], [27.51, 41.958], [27.501, 41.954], [27.468, 41.958], [27.464, 41.969], [27.449, 41.966], [27.44, 41.974], [27.433, 41.991], [27.42, 41.988], [27.413, 42], [27.393, 42.007], [27.381, 42.035], [27.364, 42.058], [27.336, 42.06], [27.326, 42.08], [27.3, 42.087], [27.294, 42.097], [27.247, 42.1], [27.241, 42.105], [27.221, 42.098], [27.216, 42.085], [27.201, 42.082], [27.198, 42.074], [27.207, 42.061], [27.191, 42.06], [27.184, 42.07], [27.159, 42.065], [27.129, 42.069], [27.107, 42.086], [27.061, 42.09], [27.049, 42.084], [27.022, 42.079], [27.028, 42.063], [27.008, 42.038], [26.982, 42.038], [26.985, 42.02], [26.972, 42.009], [26.966, 41.996], [26.931, 42.003], [26.903, 41.988], [26.871, 41.991], [26.852, 41.984], [26.847, 41.97], [26.817, 41.973], [26.787, 41.99], [26.755, 41.96], [26.729, 41.961], [26.714, 41.968], [26.704, 41.965], [26.674, 41.969], [26.668, 41.965], [26.624, 41.98], [26.619, 41.966], [26.586, 41.947], [26.561, 41.926], [26.584, 41.902], [26.567, 41.886], [26.581, 41.872], [26.564, 41.865], [26.564, 41.854], [26.552, 41.848], [26.538, 41.823], [26.379, 41.823], [26.369, 41.821], [26.346, 41.787], [26.33, 41.752], [26.33, 41.735], [26.358, 41.711], [26.335, 41.716], [26.312, 41.709], [26.277, 41.713], [26.25, 41.723], [26.234, 41.739], [26.215, 41.732], [26.183, 41.739], [26.174, 41.749], [26.141, 41.735], [26.122, 41.731], [26.114, 41.714], [26.081, 41.715], [26.061, 41.699], [26.06, 41.689], [26.069, 41.672], [26.064, 41.662], [26.069, 41.652], [26.083, 41.642], [26.09, 41.643], [26.094, 41.627], [26.121, 41.624], [26.123, 41.631], [26.139, 41.632], [26.138, 41.614], [26.154, 41.606], [26.15, 41.596], [26.147, 41.554], [26.176, 41.555], [26.185, 41.52], [26.172, 41.503], [26.171, 41.492], [26.154, 41.487], [26.155, 41.474], [26.174, 41.464], [26.201, 41.438], [26.176, 41.434], [26.16, 41.42], [26.164, 41.408], [26.145, 41.376], [26.136, 41.375], [26.132, 41.355], [26.113, 41.353], [26.107, 41.357], [26.079, 41.346], [26.052, 41.347], [26.039, 41.351], [26.012, 41.344], [25.999, 41.327], [25.975, 41.318], [25.934, 41.321], [25.911, 41.309], [25.884, 41.304], [25.869, 41.313], [25.873, 41.328], [25.852, 41.329], [25.846, 41.337], [25.822, 41.348], [25.82, 41.34], [25.789, 41.333], [25.77, 41.319], [25.764, 41.325], [25.745, 41.315], [25.741, 41.319], [25.718, 41.316], [25.712, 41.302], [25.714, 41.293], [25.702, 41.292], [25.695, 41.301], [25.664, 41.309], [25.658, 41.315], [25.627, 41.305], [25.609, 41.304], [25.591, 41.308], [25.575, 41.319], [25.56, 41.319], [25.545, 41.311], [25.532, 41.281], [25.526, 41.277], [25.508, 41.286], [25.475, 41.288], [25.468, 41.283], [25.432, 41.275], [25.429, 41.265], [25.417, 41.266], [25.386, 41.256], [25.367, 41.26], [25.337, 41.241], [25.296, 41.245], [25.288, 41.236], [25.252, 41.247], [25.232, 41.247], [25.222, 41.279], [25.209, 41.291], [25.19, 41.294], [25.182, 41.308], [25.164, 41.311], [25.16, 41.318], [25.149, 41.315], [25.133, 41.323], [25.123, 41.335], [25.125, 41.342], [25.109, 41.341], [25.103, 41.335], [25.083, 41.338], [25.056, 41.366], [25.034, 41.365], [25.018, 41.371], [24.977, 41.376], [24.952, 41.388], [24.94, 41.387], [24.917, 41.408], [24.9, 41.408], [24.882, 41.392], [24.862, 41.393], [24.853, 41.399], [24.821, 41.401], [24.823, 41.386], [24.815, 41.371], [24.817, 41.355], [24.804, 41.346], [24.789, 41.36], [24.77, 41.365], [24.762, 41.376], [24.748, 41.38], [24.736, 41.397], [24.73, 41.416], [24.709, 41.421], [24.693, 41.418], [24.681, 41.425], [24.674, 41.418], [24.656, 41.419], [24.664, 41.432], [24.649, 41.435], [24.628, 41.432], [24.618, 41.424], [24.608, 41.428], [24.598, 41.441], [24.6, 41.456], [24.595, 41.467], [24.572, 41.475], [24.569, 41.491], [24.559, 41.501], [24.563, 41.512], [24.558, 41.527], [24.546, 41.539], [24.554, 41.549], [24.535, 41.565], [24.525, 41.569], [24.51, 41.559], [24.476, 41.553], [24.461, 41.539], [24.463, 41.528], [24.45, 41.522], [24.412, 41.531], [24.41, 41.538], [24.384, 41.536], [24.37, 41.518], [24.364, 41.516], [24.338, 41.527], [24.305, 41.51], [24.295, 41.524], [24.303, 41.538], [24.287, 41.552], [24.27, 41.559], [24.275, 41.568], [24.262, 41.574], [24.254, 41.57], [24.229, 41.547], [24.216, 41.55], [24.19, 41.532], [24.194, 41.521], [24.182, 41.515], [24.15, 41.539], [24.133, 41.533], [24.132, 41.541], [24.116, 41.54], [24.102, 41.55], [24.077, 41.542], [24.075, 41.531], [24.063, 41.527], [24.06, 41.511], [24.067, 41.501], [24.061, 41.485], [24.073, 41.47], [24.048, 41.452], [24.025, 41.455], [24.018, 41.468], [24.009, 41.457], [23.996, 41.454], [23.982, 41.441], [23.966, 41.439], [23.943, 41.45], [23.942, 41.462], [23.914, 41.482], [23.909, 41.479], [23.907, 41.459], [23.89, 41.45], [23.856, 41.45], [23.851, 41.44], [23.823, 41.436], [23.801, 41.437], [23.768, 41.396], [23.754, 41.404], [23.731, 41.408], [23.691, 41.404], [23.674, 41.411], [23.648, 41.394], [23.648, 41.382], [23.636, 41.376], [23.616, 41.375], [23.578, 41.391], [23.552, 41.386], [23.526, 41.405], [23.482, 41.399], [23.439, 41.407], [23.419, 41.398], [23.401, 41.4], [23.377, 41.382], [23.362, 41.379], [23.353, 41.368], [23.34, 41.364], [23.323, 41.399], [23.306, 41.402], [23.282, 41.4], [23.259, 41.383], [23.232, 41.376], [23.226, 41.365], [23.231, 41.351], [23.22, 41.333], [23.199, 41.323], [23.18, 41.319], [23.162, 41.322], [23.116, 41.32], [23.106, 41.317], [23.076, 41.32], [23.038, 41.332], [23.003, 41.331], [22.983, 41.336], [22.974, 41.332], [22.927, 41.339], [22.948, 41.351], [22.966, 41.353], [22.962, 41.379], [22.967, 41.393], [22.961, 41.409], [22.952, 41.417], [22.969, 41.431], [22.98, 41.447], [22.964, 41.465], [22.958, 41.494], [22.969, 41.503], [22.971, 41.516], [22.959, 41.534], [22.97, 41.543], [22.973, 41.56], [22.967, 41.577], [22.953, 41.586], [22.95, 41.599], [22.955, 41.619], [22.948, 41.632], [22.952, 41.642], [22.968, 41.648], [22.984, 41.647], [22.981, 41.656], [22.993, 41.672], [23.007, 41.682], [23.022, 41.703], [23.034, 41.709], [23.033, 41.722], [23.008, 41.769], [22.97, 41.77], [22.963, 41.776], [22.964, 41.789], [22.956, 41.794], [22.941, 41.816], [22.943, 41.828], [22.928, 41.862], [22.916, 41.876], [22.903, 41.876], [22.899, 41.904], [22.89, 41.92], [22.874, 41.936], [22.874, 41.955], [22.878, 41.976], [22.875, 41.997], [22.864, 42.001], [22.87, 42.01], [22.867, 42.022], [22.852, 42.025], [22.827, 42.022], [22.798, 42.045], [22.792, 42.038], [22.779, 42.037], [22.75, 42.047], [22.734, 42.047], [22.717, 42.068], [22.698, 42.063], [22.676, 42.065], [22.65, 42.077], [22.63, 42.094], [22.6, 42.098], [22.59, 42.11], [22.581, 42.11], [22.564, 42.12], [22.548, 42.135], [22.528, 42.14], [22.51, 42.156], [22.501, 42.196], [22.486, 42.201], [22.469, 42.201], [22.434, 42.258], [22.425, 42.255], [22.378, 42.309], [22.36, 42.311], [22.366, 42.321], [22.401, 42.326], [22.404, 42.333], [22.424, 42.334], [22.432, 42.323], [22.455, 42.334], [22.463, 42.345], [22.459, 42.361], [22.469, 42.376], [22.481, 42.38], [22.478, 42.394], [22.52, 42.398], [22.523, 42.413], [22.535, 42.421], [22.541, 42.454], [22.559, 42.48], [22.547, 42.507], [22.52, 42.528], [22.501, 42.534], [22.488, 42.55], [22.471, 42.562], [22.438, 42.572], [22.441, 42.589], [22.449, 42.595], [22.453, 42.616], [22.468, 42.641], [22.454, 42.646], [22.473, 42.667], [22.476, 42.676], [22.458, 42.689], [22.472, 42.695], [22.476, 42.71], [22.488, 42.722], [22.497, 42.723], [22.501, 42.739], [22.487, 42.749], [22.472, 42.769], [22.46, 42.777], [22.455, 42.794], [22.441, 42.806], [22.439, 42.822], [22.465, 42.833], [22.475, 42.832], [22.49, 42.844], [22.516, 42.857], [22.521, 42.876], [22.535, 42.882], [22.576, 42.863], [22.572, 42.872], [22.584, 42.892], [22.619, 42.896], [22.64, 42.878], [22.653, 42.883], [22.672, 42.876], [22.675, 42.866], [22.702, 42.884], [22.745, 42.886], [22.754, 42.895], [22.76, 42.911], [22.774, 42.919], [22.78, 42.932], [22.769, 42.949], [22.784, 42.957], [22.784, 42.981], [22.824, 42.994], [22.849, 43.005], [22.863, 43.021], [22.898, 43.036], [22.899, 43.048], [22.909, 43.056], [22.919, 43.08], [22.953, 43.092], [22.983, 43.111], [22.996, 43.139], [22.997, 43.158], [22.987, 43.167], [23.006, 43.186], [23.006, 43.193], [22.983, 43.203], [22.954, 43.207], [22.941, 43.203], [22.916, 43.22], [22.896, 43.227], [22.871, 43.254], [22.869, 43.267], [22.849, 43.275], [22.842, 43.286], [22.845, 43.297], [22.838, 43.302], [22.828, 43.329], [22.794, 43.343], [22.791, 43.35], [22.77, 43.363], [22.766, 43.377], [22.723, 43.396], [22.68, 43.394], [22.667, 43.403], [22.661, 43.426], [22.639, 43.433], [22.623, 43.428], [22.598, 43.436], [22.576, 43.464], [22.553, 43.462], [22.534, 43.471], [22.525, 43.494], [22.507, 43.516], [22.504, 43.539], [22.494, 43.548], [22.488, 43.569], [22.497, 43.584], [22.488, 43.593], [22.494, 43.6], [22.482, 43.626], [22.492, 43.639], [22.477, 43.658], [22.46, 43.659], [22.44, 43.674], [22.425, 43.679], [22.408, 43.696], [22.402, 43.724], [22.394, 43.73], [22.402, 43.759], [22.395, 43.759], [22.377, 43.775], [22.357, 43.81], [22.378, 43.845], [22.389, 43.879], [22.394, 43.908], [22.388, 43.924], [22.409, 43.94], [22.413, 43.972], [22.409, 43.987], [22.417, 43.992], [22.409, 44.004], [22.441, 44.01], [22.442, 44.017], [22.468, 44.015], [22.485, 44.02], [22.523, 44.019], [22.539, 44.026], [22.542, 44.042], [22.535, 44.052], [22.56, 44.058], [22.581, 44.054], [22.582, 44.062], [22.621, 44.063], [22.625, 44.073], [22.62, 44.098], [22.61, 44.107], [22.619, 44.147], [22.627, 44.159], [22.617, 44.161], [22.618, 44.172], [22.628, 44.172], [22.643, 44.186], [22.646, 44.209], [22.653, 44.204], [22.674, 44.216], [22.696, 44.204], [22.734, 44.202], [22.755, 44.194], [22.791, 44.164], [22.816, 44.153], [22.865, 44.136], [22.904, 44.109], [22.922, 44.1], [22.985, 44.097], [23.001, 44.095], [23.042, 44.078], [23.049, 44.062], [23.017, 44.018], [23.003, 44.01], [22.929, 44], [22.896, 43.993], [22.879, 43.981], [22.868, 43.941], [22.852, 43.913], [22.841, 43.882], [22.844, 43.862], [22.854, 43.847], [22.881, 43.832], [22.933, 43.823], [22.984, 43.809], [23.027, 43.804], [23.046, 43.797], [23.14, 43.806], [23.177, 43.821], [23.223, 43.836], [23.268, 43.846], [23.313, 43.848], [23.374, 43.848], [23.409, 43.851], [23.433, 43.85], [23.482, 43.839], [23.511, 43.838], [23.542, 43.818], [23.565, 43.809], [23.592, 43.803], [23.604, 43.796], [23.625, 43.792], [23.674, 43.802], [23.705, 43.806], [23.749, 43.803], [23.765, 43.786], [23.81, 43.774], [23.872, 43.753], [23.927, 43.745], [23.967, 43.745], [24.061, 43.719], [24.086, 43.702], [24.123, 43.698], [24.175, 43.682], [24.22, 43.685], [24.24, 43.691], [24.266, 43.693], [24.311, 43.7], [24.331, 43.696], [24.349, 43.698], [24.377, 43.711], [24.383, 43.72], [24.407, 43.736], [24.472, 43.749], [24.501, 43.763], [24.556, 43.758], [24.623, 43.742], [24.659, 43.723], [24.693, 43.699], [24.723, 43.686], [24.746, 43.685], [24.771, 43.694], [24.801, 43.709], [24.835, 43.712], [24.857, 43.707], [24.897, 43.71], [24.937, 43.728], [24.959, 43.731], [25.007, 43.725], [25.022, 43.711], [25.059, 43.694], [25.1, 43.685], [25.115, 43.685], [25.163, 43.697], [25.192, 43.697], [25.214, 43.69], [25.252, 43.683], [25.289, 43.657], [25.316, 43.647], [25.344, 43.63], [25.391, 43.619], [25.42, 43.622], [25.455, 43.631], [25.477, 43.641], [25.516, 43.648], [25.545, 43.643], [25.566, 43.646], [25.611, 43.668], [25.661, 43.686], [25.68, 43.691], [25.727, 43.691], [25.775, 43.707], [25.786, 43.714], [25.808, 43.743], [25.843, 43.754], [25.878, 43.778], [25.888, 43.794], [25.914, 43.818], [25.927, 43.837], [25.949, 43.856], [25.997, 43.882], [26.038, 43.898], [26.06, 43.91], [26.079, 43.936], [26.082, 43.946], [26.106, 43.968], [26.149, 43.986], [26.198, 43.986], [26.27, 44.009], [26.307, 44.027], [26.381, 44.042], [26.425, 44.036], [26.483, 44.043], [26.51, 44.051], [26.553, 44.058], [26.601, 44.052], [26.634, 44.06], [26.656, 44.062], [26.698, 44.076], [26.716, 44.078], [26.742, 44.076], [26.774, 44.081], [26.858, 44.117], [26.883, 44.124], [26.91, 44.137], [26.992, 44.134], [27.029, 44.144], [27.066, 44.149], [27.097, 44.138], [27.123, 44.14], [27.169, 44.131], [27.18, 44.122], [27.229, 44.115], [27.27, 44.127], [27.284, 44.11], [27.276, 44.104], [27.291, 44.083], [27.291, 44.075], [27.356, 44.059], [27.371, 44.039], [27.399, 44.012], [27.469, 44.023], [27.612, 44.012], [27.645, 44.047], [27.674, 44.03], [27.71, 43.959], [27.738, 43.954], [27.754, 43.958], [27.843, 43.966], [27.917, 44.008], [27.944, 43.985], [27.954, 43.94], [27.977, 43.901], [27.994, 43.843], [28.016, 43.837], [28.116, 43.797], [28.236, 43.758], [28.349, 43.752], [28.447, 43.734], [28.579, 43.739], [28.573, 43.722], [28.577, 43.701], [28.563, 43.69], [28.568, 43.654], [28.579, 43.636], [28.572, 43.629], [28.568, 43.6], [28.579, 43.578], [28.602, 43.554], [28.608, 43.542], [28.602, 43.519], [28.586, 43.491], [28.559, 43.457], [28.559, 43.453], [28.538, 43.43], [28.513, 43.414], [28.499, 43.411], [28.47, 43.382], [28.466, 43.361], [28.45, 43.381], [28.427, 43.384], [28.405, 43.392], [28.388, 43.404], [28.352, 43.413], [28.308, 43.418], [28.275, 43.413], [28.223, 43.399], [28.177, 43.398], [28.165, 43.405], [28.134, 43.397], [28.111, 43.382], [28.095, 43.378], [28.077, 43.355], [28.067, 43.334], [28.068, 43.326], [28.049, 43.298], [28.043, 43.277], [28.028, 43.247], [28.02, 43.244], [28.014, 43.226], [27.997, 43.217], [27.968, 43.218], [27.958, 43.211], [27.928, 43.206], [27.921, 43.195], [27.897, 43.195], [27.877, 43.21], [27.857, 43.21], [27.834, 43.195], [27.798, 43.2], [27.793, 43.205], [27.765, 43.191], [27.746, 43.196], [27.737, 43.193], [27.695, 43.199], [27.647, 43.189], [27.661, 43.183], [27.704, 43.195], [27.785, 43.184], [27.797, 43.186], [27.815, 43.181], [27.845, 43.189], [27.856, 43.188], [27.873, 43.197], [27.887, 43.187], [27.91, 43.182], [27.916, 43.173], [27.928, 43.175], [27.947, 43.165], [27.94, 43.135], [27.931, 43.128], [27.914, 43.075], [27.913, 43.062], [27.89, 43.041], [27.89, 43.005], [27.893, 42.983], [27.906, 42.929], [27.896, 42.915], [27.902, 42.887], [27.898, 42.875], [27.903, 42.854], [27.886, 42.85], [27.882, 42.836], [27.901, 42.767], [27.889, 42.754], [27.902, 42.712], [27.9, 42.701], [27.843, 42.701], [27.821, 42.705], [27.808, 42.701], [27.763, 42.709], [27.731, 42.709], [27.719, 42.699], [27.713, 42.671], [27.727, 42.659], [27.712, 42.646], [27.693, 42.652], [27.677, 42.636], [27.664, 42.64], [27.644, 42.637], [27.632, 42.618], [27.631, 42.599], [27.637, 42.57], [27.651, 42.555], [27.642, 42.553], [27.617, 42.565], [27.599, 42.558], [27.578, 42.562], [27.557, 42.551], [27.537, 42.559], [27.509, 42.551], [27.493, 42.532], [27.486, 42.516], [27.482, 42.487], [27.457, 42.489], [27.443, 42.462], [27.469, 42.446], [27.479, 42.459], [27.494, 42.445], [27.522, 42.43], [27.54, 42.457], [27.566, 42.446], [27.582, 42.448], [27.584, 42.463], [27.604, 42.446], [27.626, 42.447], [27.628, 42.456], [27.64, 42.448], [27.647, 42.451], [27.647, 42.438], [27.655, 42.432], [27.645, 42.425], [27.662, 42.411], [27.676, 42.409], [27.694, 42.426], [27.71, 42.408], [27.729, 42.41], [27.726, 42.402], [27.711, 42.401], [27.709, 42.384], [27.723, 42.379], [27.71, 42.368], [27.734, 42.332], [27.749, 42.326], [27.772, 42.337], [27.784, 42.336], [27.779, 42.313], [27.786, 42.308], [27.765, 42.29], [27.755, 42.287], [27.755, 42.277], [27.765, 42.265], [27.754, 42.265], [27.756, 42.246], [27.771, 42.245], [27.785, 42.235], [27.777, 42.228], [27.793, 42.215], [27.819, 42.206], [27.828, 42.193], [27.846, 42.186], [27.852, 42.166], [27.878, 42.156], [27.876, 42.15], [27.898, 42.141], [27.913, 42.112], [27.93, 42.102], [27.937, 42.105], [27.955, 42.093], [27.969, 42.071], [27.988, 42.065], [27.993, 42.046], [28.015, 42.026], [28.019, 42.006], [28.033, 41.994], [28.03, 41.983]]]]}}