{"type": "Feature", "properties": {"name": "West Flanders", "iso2": "BE-VWV", "admin_level": 6, "osm_id": 416271, "countrylevel_id": "iso2:BE-VWV", "osm_data": {"localname": "West-Vlaanderen", "official_name": "Provincie West-Vlaanderen", "alltags": {"name:ca": "Flandes Occidental", "name:en": "West Flanders", "name:es": "Flandes Occidental", "name:fr": "Flandre-Occidentale", "name:nl": "West-Vlaanderen", "name:pl": "Flandria Zachodnia", "name:ru": "Западная Фландрия", "name:sk": "Západné Flámsko", "ref:INS": "30000", "website": "https://www.west-vlaanderen.be/", "name:vls": "West-Vloandern", "border_type": "province", "official_name": "Provincie West-Vlaanderen", "official_name:nl": "Provincie West-Vlaanderen"}}, "center_lat": 51.01, "center_lon": 3.06, "timezone": "Europe/Brussels", "population": 1195796, "wikidata_id": "Q1113", "wikipedia_id": "nl:West-Vlaanderen"}, "geometry": {"type": "MultiPolygon", "coordinates": [[[[3.366, 51.369], [3.385, 51.334], [3.358, 51.315], [3.381, 51.274], [3.399, 51.237], [3.368, 51.228], [3.407, 51.16], [3.373, 51.116], [3.331, 51.099], [3.446, 51.047], [3.453, 51.005], [3.414, 50.958], [3.461, 50.943], [3.416, 50.905], [3.476, 50.896], [3.451, 50.868], [3.515, 50.832], [3.523, 50.805], [3.459, 50.765], [3.361, 50.71], [3.328, 50.729], [3.328, 50.73], [3.306, 50.755], [3.228, 50.765], [3.179, 50.756], [3.148, 50.79], [3.082, 50.773], [3.019, 50.774], [3, 50.811], [2.955, 50.797], [2.955, 50.797], [2.96, 50.774], [2.897, 50.753], [2.842, 50.752], [2.845, 50.732], [2.845, 50.732], [2.863, 50.708], [2.79, 50.726], [2.711, 50.814], [2.635, 50.813], [2.604, 50.917], [2.633, 50.946], [2.574, 51.003], [2.545, 51.089], [2.749, 51.162], [3.078, 51.303], [3.178, 51.334], [3.22, 51.361], [3.241, 51.343], [3.366, 51.369]]], [[[3.105, 51.312], [3.105, 51.312], [3.105, 51.312], [3.105, 51.312]]]]}}