{"type": "Feature", "geometry": {"type": "Polygon", "coordinates": [[[-4.217, 5.221], [-4.236, 5.239], [-4.243, 5.283], [-4.261, 5.3], [-4.294, 5.307], [-4.27, 5.427], [-4.269, 5.458], [-4.26, 5.482], [-4.244, 5.489], [-4.247, 5.529], [-4.258, 5.541], [-4.251, 5.568], [-4.251, 5.608], [-4.083, 5.597], [-3.985, 5.605], [-3.969, 5.619], [-3.935, 5.626], [-3.936, 5.596], [-3.921, 5.573], [-3.897, 5.555], [-3.864, 5.508], [-3.843, 5.507], [-3.825, 5.464], [-3.819, 5.43], [-3.832, 5.39], [-3.827, 5.375], [-3.785, 5.363], [-3.754, 5.333], [-3.744, 5.31], [-3.718, 5.295], [-3.731, 5.274], [-3.788, 5.273], [-3.809, 5.289], [-3.821, 5.272], [-3.82, 5.251], [-3.844, 5.254], [-3.855, 5.227], [-3.89, 5.237], [-3.979, 5.255], [-4.002, 5.248], [-4.002, 5.246], [-4.007, 5.243], [-4.008, 5.243], [-4.021, 5.243], [-4.024, 5.243], [-4.102, 5.236], [-4.217, 5.221]]]}, "properties": {"name": "Abidjan", "iso2": "CI-AB", "admin_level": 4, "osm_id": 3377982, "countrylevel_id": "iso2:CI-AB", "osm_data": {"localname": "Abidjan", "official_name": "District Autonome d’Abidjan", "alltags": {"name:af": "Abidjan", "name:ar": "أبيدجان", "name:be": "Абіджан", "name:bg": "Абиджан", "name:bn": "আবিজান", "name:br": "Abidjan", "name:bs": "Abidjan", "name:ca": "Abidjan", "name:cs": "Abidžan", "name:cy": "Abidjan", "name:da": "Abidjan", "name:el": "Αμπιτζάν", "name:en": "Abidjan", "name:eo": "Abiĝano", "name:es": "Abiyán", "name:et": "Abidjan", "name:eu": "Abidjan", "name:fa": "آبیجان", "name:fi": "Abidjan", "name:fr": "Abidjan", "name:gd": "Abidjan", "name:gl": "Abidjan", "name:gv": "Abidjan", "name:he": "אבידג'אן", "name:hr": "Abidjan", "name:hu": "Abidjan", "name:id": "Abidjan", "name:io": "Abidjan", "name:is": "Abidjan", "name:it": "Abidjan", "name:ja": "アビジャン", "name:jv": "Abidjan", "name:ko": "아비장", "name:la": "Abidjan", "name:ln": "Abidjan", "name:lt": "Abidžanas", "name:lv": "Abidžāna", "name:mg": "Abidjan", "name:mk": "Абиџан", "name:ml": "അബിജാൻ", "name:mr": "आबिजान", "name:ms": "Abidjan", "name:nl": "Abidjan", "name:nn": "Abidjan", "name:no": "Abidjan", "name:oc": "Abidjan", "name:pl": "Abidżan", "name:pt": "Abidjan", "name:ro": "Abidjan", "name:ru": "Абиджан", "name:sc": "Abidjan", "name:sk": "Abidjan", "name:sl": "Abidžan", "name:sq": "Abidjan", "name:sr": "Абиџан", "name:sv": "Abidjan", "name:sw": "Abidjan", "name:th": "อาบีจาน", "name:tk": "Abijan", "name:tr": "Abican", "name:uk": "Абіджан", "name:vi": "Abidjan", "name:vo": "Abidjan", "name:yo": "Abidjan", "name:zh": "阿比让", "name:als": "Abidjan", "name:kab": "Abidjan", "name:lmo": "Abidjan", "name:nan": "Abidjan", "name:nov": "Abidjan", "name:pms": "Abidjan", "name:war": "Abidjan", "population": "5000000", "border_type": "district", "name:bat-smg": "Abidžans", "name:roa-rup": "Abidjan", "official_name": "District Autonome d’Abidjan", "name:be-tarask": "Абіджан"}}, "center_lat": 5.41, "center_lon": -4.04, "area_m2": 1966131500, "timezone": "Africa/Abidjan", "wikidata_id": "Q4667612", "wikipedia_id": "fr:Abidjan"}}