{"type": "Feature", "geometry": {"type": "Polygon", "coordinates": [[[34.902, 29.491], [34.876, 29.559], [34.848, 29.763], [34.267, 31.22], [34.326, 31.258], [34.372, 31.314], [34.37, 31.326], [34.368, 31.336], [34.365, 31.36], [34.373, 31.374], [34.373, 31.376], [34.38, 31.388], [34.38, 31.39], [34.4, 31.407], [34.403, 31.41], [34.41, 31.414], [34.412, 31.416], [34.426, 31.427], [34.428, 31.429], [34.449, 31.447], [34.451, 31.449], [34.46, 31.457], [34.465, 31.461], [34.466, 31.463], [34.469, 31.467], [34.518, 31.502], [34.535, 31.509], [34.539, 31.51], [34.553, 31.552], [34.548, 31.554], [34.538, 31.562], [34.535, 31.564], [34.524, 31.572], [34.522, 31.574], [34.491, 31.595], [34.662, 31.857], [34.665, 31.862], [34.82, 31.789], [34.961, 31.603], [34.901, 31.438], [34.9, 31.438], [34.927, 31.342], [34.933, 31.343], [34.955, 31.35], [34.955, 31.349], [34.982, 31.352], [35.023, 31.358], [35.024, 31.358], [35.147, 31.36], [35.15, 31.361], [35.356, 31.463], [35.399, 31.493], [35.428, 31.316], [35.371, 30.927], [35.29, 30.71], [35.162, 30.441], [35.146, 30.063], [34.977, 29.543], [34.902, 29.491]]]}, "properties": {"name": "South District", "iso2": "IL-D", "admin_level": 4, "osm_id": 1473952, "countrylevel_id": "iso2:IL-D", "osm_data": {"localname": "מחוז הדרום", "official_name": "", "alltags": {"name:ar": "منطقة الجنوب", "name:cs": "Jižní distrikt", "name:el": "Νότια Περιοχή", "name:en": "South District", "name:es": "Distrito Meridional", "name:fi": "Eteläinen hallintoalue", "name:fr": "District sud", "name:he": "מחוז הדרום", "name:hu": "Déli körzet", "name:it": "Distretto Sud", "name:pl": "Dystrykt Południowy", "name:pt": "Distrito Sul", "name:ro": "Districtul de Sud", "name:ru": "Южный округ", "name:uk": "Південний округ", "name:ar1": "المنطقة الجنوبية", "complete:relation": "yes"}}, "center_lat": 30.83, "center_lon": 34.87, "area_m2": 14377398294, "timezone": "Asia/Jerusalem", "population": 1272100, "wikidata_id": "Q188781", "wikipedia_id": "en:Southern District (Israel)"}}