{"type": "Feature", "properties": {"name": "Aragon", "iso2": "ES-AR", "admin_level": 4, "osm_id": 349045, "countrylevel_id": "iso2:ES-AR", "osm_data": {"localname": "Aragón", "official_name": "Aragón", "alltags": {"name:ar": "أرغون", "name:be": "Арагон", "name:br": "Aragon", "name:ca": "Aragó", "name:cs": "Aragonie", "name:el": "Αραγωνία", "name:en": "Aragon", "name:es": "Aragón", "name:eu": "Aragoi", "name:fr": "Aragon", "name:hu": "Aragónia", "name:ja": "アラゴン州", "name:lt": "Aragonas", "name:pl": "Aragonia", "name:pt": "Aragão", "name:ru": "Арагон", "name:sk": "Aragónsko", "website": "http://www.aragon.es/", "ine:ccaa": "02", "name:tzl": "Arac'hon", "alt_name:ar": "راغون;راقون", "border_type": "region", "official_name": "Aragón"}}, "center_lat": 41.51, "center_lon": -0.65, "timezone": "Europe/Madrid", "population": 1324397, "wikidata_id": "Q4040", "wikipedia_id": "es:Aragón"}, "geometry": {"type": "MultiPolygon", "coordinates": [[[[-2.052, 41.147], [-1.617, 40.944], [-1.536, 40.687], [-1.806, 40.398], [-1.449, 40.145], [-1.165, 40.01], [-1.142, 39.972], [-0.798, 39.881], [-0.285, 40.386], [-0.145, 40.786], [0.17, 40.733], [0.221, 41.071], [0.386, 41.279], [0.336, 41.407], [0.765, 42.356], [0.66, 42.691], [0.474, 42.7], [-0.313, 42.849], [-0.723, 42.918], [-0.901, 42.743], [-1.265, 42.557], [-1.422, 41.913], [-1.847, 42.008], [-1.856, 41.966], [-1.775, 41.725], [-2.052, 41.147]], [[-1.188, 42.405], [-1.188, 42.405], [-1.188, 42.405], [-1.188, 42.405]], [[-1.129, 42.447], [-1.129, 42.447], [-1.129, 42.447], [-1.129, 42.447]]]]}}