{"type": "Feature", "geometry": {"type": "Polygon", "coordinates": [[[6.532, 36.171], [7, 36.142], [7.315, 36.142], [7.438, 35.912], [7.719, 35.896], [7.834, 35.632], [7.547, 35.428], [7.224, 35.63], [6.773, 35.673], [6.478, 35.842], [6.161, 35.885], [6.532, 36.171]]]}, "properties": {"name": "Oum El Bouaghi", "iso2": "DZ-04", "admin_level": 4, "osm_id": 1278749, "countrylevel_id": "iso2:DZ-04", "osm_data": {"localname": "Oum El Bouaghi - أم الـبـواقي", "official_name": "", "alltags": {"name:ar": "أم الـبـواقي", "name:el": "Ουμ Ελ Μπουαγκί", "name:en": "Oum El Bouaghi", "name:fr": "Oum El Bouaghi", "name:la": "Makumidas", "name:ber": "ⵓⵎⵍⴻⴱⵡⴰⵖⵉ", "name:kab": "Umlebwaɣi", "old_name:fr": "Canrobert", "long_name:ar": "ولاية أم البواقي", "long_name:en": "Oum El Bouaghi Province", "long_name:fr": "Wilaya d'Oum El Bouaghi", "is_in:country": "Algeria", "is_in:continent": "Africa", "is_in:country_code": "DZ"}}, "center_lat": 35.84, "center_lon": 7.06, "area_m2": 6276332033, "timezone": "Africa/Algiers", "population": 621612, "wikidata_id": "Q235705", "wikipedia_id": "fr:Wilaya d'Oum El Bouaghi"}}