{"type": "Feature", "geometry": {"type": "Polygon", "coordinates": [[[3.307, 36.553], [3.725, 36.582], [3.936, 36.453], [4.364, 36.467], [4.374, 36.284], [4.069, 36.035], [3.805, 35.86], [3.617, 35.913], [3.457, 36.042], [3.564, 36.416], [3.296, 36.505], [3.307, 36.553]]]}, "properties": {"name": "Bouira", "iso2": "DZ-10", "admin_level": 4, "osm_id": 1283093, "countrylevel_id": "iso2:DZ-10", "osm_data": {"localname": "Bouira - البويرة", "official_name": "", "alltags": {"name:ar": "البويرة", "name:el": "Μπουΐρα", "name:en": "Bouira", "name:fr": "Bouira", "name:tr": "Buira", "name:ber": "ⵜⵓⴱⵉⵔⴻⵜ", "name:kab": "Tubiret", "old_name:fr": "Coligny", "old_name:tr": "Bordj Hamza", "alt_name:kab": "Tubiret", "long_name:ar": "ولاية البويرة", "long_name:en": "Bouira Province", "long_name:fr": "Wilaya de Bouira", "is_in:country": "Algeria", "is_in:continent": "Africa", "is_in:country_code": "DZ"}}, "center_lat": 36.25, "center_lon": 3.84, "area_m2": 4481430251, "timezone": "Africa/Algiers", "population": 695583, "wikidata_id": "Q233655", "wikipedia_id": "fr:Wilaya de Bouira"}}