{"type": "Feature", "geometry": {"type": "Polygon", "coordinates": [[[48.592, 41.842], [48.512, 41.741], [48.377, 41.591], [48.065, 41.492], [47.845, 41.216], [47.726, 41.194], [47.408, 41.262], [47.203, 41.464], [47.02, 41.556], [46.758, 41.863], [46.422, 41.908], [45.648, 42.186], [45.776, 42.488], [46.496, 42.945], [46.328, 43.45], [46.558, 43.76], [46.441, 44.003], [46.072, 43.93], [45.489, 44.01], [45.503, 44.176], [45.225, 44.465], [45.656, 44.804], [45.705, 44.977], [46.512, 44.93], [46.895, 44.812], [46.705, 44.656], [46.775, 44.37], [47.005, 44.366], [47.239, 44.202], [47.582, 43.701], [47.486, 43.401], [47.469, 43.005], [47.711, 42.832], [48.285, 42.106], [48.592, 41.842]]]}, "properties": {"name": "Republic of Dagestan", "iso2": "RU-DA", "admin_level": 4, "osm_id": 109876, "countrylevel_id": "iso2:RU-DA", "osm_data": {"localname": "Ğ ĞµÑĞ¿ÑƒĞ±Ğ»Ğ¸ĞºĞ° Ğ”Ğ°Ğ³ĞµÑÑ‚Ğ°Ğ½", "official_name": "", "alltags": {"int_ref": "RU-DA", "name:av": "Ğ”Ğ°Ğ³ÑŠĞ¸ÑÑ‚Ğ°Ğ½", "name:az": "DaÄŸÄ±stan", "name:bg": "Ğ”Ğ°Ğ³ĞµÑÑ‚Ğ°Ğ½", "name:br": "Dagestan", "name:ca": "Daguestan", "name:el": "ÎÏ„Î±Î³ÎºÎµÏƒÏ„Î¬Î½", "name:en": "Republic of Dagestan", "name:es": "DaguestÃ¡n", "name:fa": "Ø¯Ø§ØºØ³ØªØ§Ù†", "name:fr": "Daghestan", "name:he": "×“××’×¡×˜×Ÿ", "name:hu": "DagesztÃ¡n", "name:hy": "Ô´Õ¡Õ²Õ½Õ¿Õ¡Õ¶", "name:id": "Dagestan", "name:it": "Daghestan", "name:ka": "áƒ“áƒáƒ¦áƒ”áƒ¡áƒ¢áƒœáƒ˜áƒ¡ áƒ áƒ”áƒ¡áƒáƒ£áƒ‘áƒšáƒ˜áƒ™áƒ", "name:ku": "Daxistan", "name:lb": "Dagestan", "name:lt": "Dagestanas", "name:nl": "Dagestan", "name:pl": "Republika Dagestanu", "name:pt": "DaguestÃ£o", "name:ru": "Ğ ĞµÑĞ¿ÑƒĞ±Ğ»Ğ¸ĞºĞ° Ğ”Ğ°Ğ³ĞµÑÑ‚Ğ°Ğ½", "name:sk": "Dagestan", "name:sv": "Dagestan", "name:tg": "Ğ”Ğ¾Ò“Ğ¸ÑÑ‚Ğ¾Ğ½", "name:tk": "Dagystan", "name:tr": "DaÄŸÄ±stan", "name:zh": "è¾¾å‰æ–¯å¦å…±å’Œå›½", "alt_name": "Ğ”Ğ°Ğ³ĞµÑÑ‚Ğ°Ğ½", "name:diq": "DaÄŸÄ±stan", "name:gag": "Dagestan", "name:got": "ğŒ³ğŒ°ğŒ²ğŒ°ğŒ¹ğƒğ„ğŒ°ğŒ½", "name:kbd": "Ğ”Ğ°Ğ³ÑŠÑ‹ÑÑ‚ÑĞ½", "name:lbe": "Ğ”Ğ°Ğ³ÑŠÑƒÑÑ‚Ñ‚Ğ°Ğ½", "name:lez": "Ğ”Ğ°Ğ³ÑŠÑƒÑÑ‚Ğ°Ğ½", "name:myv": "Ğ”Ğ°Ğ³ĞµÑÑ‚Ğ°Ğ½ Ğ ĞµÑĞ¿ÑƒĞ±Ğ»Ğ¸ĞºĞ°ÑÑŒ", "name:xal": "Ğ”Ğ°Ğ³ÑŠÑĞ¸Ğ½ Ñ‚Ğ°Ò£Ò»Ñ‡", "oktmo:user": "82000000", "border_type": "region", "name:az-cyr": "Ğ”Ğ°Ò“Ñ‹ÑÑ‚Ğ°Ğ½", "addr:country": "RU", "gost_7.67-2003": "Ğ ĞĞ¤-Ğ”ĞĞ“", "official_name:av": "Ğ”Ğ°Ğ³ÑŠĞ¸ÑÑ‚Ğ°Ğ½Ğ°Ğ»ÑŠÑƒĞ» Ğ ĞµÑĞ¿ÑƒĞ±Ğ»Ğ¸ĞºĞ°", "official_name:az": "DaÄŸÄ±stan RespublikasÄ±", "official_name:ca": "RepÃºblica del Daguestan", "official_name:ce": "Ğ”ĞµĞ³IeÑÑ‚Ğ°Ğ½ Ğ ĞµÑĞ¿ÑƒĞ±Ğ»Ğ¸ĞºĞ°", "official_name:de": "Republik Dagestan", "official_name:en": "Republic of Dagestan", "official_name:es": "RepÃºblica de DaguestÃ¡n", "official_name:fr": "RÃ©publique du Daguestan", "official_name:it": "Repubblica del Daghestan", "official_name:sk": "DagestanskÃ¡ republika", "official_name:lez": "Ğ ĞµÑĞ¿ÑƒĞ±Ğ»Ğ¸ĞºĞ° Ğ”Ğ°Ğ³ÑŠÑƒÑÑ‚Ğ°Ğ½"}}, "center_lat": 43.02, "center_lon": 46.87, "area_m2": 50001612899, "timezone": "Europe/Moscow", "population": 3111353, "wikidata_id": "Q5118", "wikipedia_id": "ru:Ğ”Ğ°Ğ³ĞµÑÑ‚Ğ°Ğ½"}}