{"type": "Feature", "geometry": {"type": "Polygon", "coordinates": [[[42.678, 43.81], [43.148, 43.896], [43.745, 43.819], [43.922, 44.02], [44.293, 43.81], [44.475, 43.583], [44.002, 43.212], [43.83, 43.323], [43.572, 42.943], [43.398, 42.897], [43.146, 42.969], [42.853, 43.179], [42.414, 43.257], [42.456, 43.621], [42.678, 43.81]]]}, "properties": {"name": "Kabardino-Balkaria", "iso2": "RU-KB", "admin_level": 4, "osm_id": 109879, "countrylevel_id": "iso2:RU-KB", "osm_data": {"localname": "Кабардино-Балкария", "official_name": "Кабардино-Балкарская Республика", "alltags": {"int_ref": "RU-KB", "name:ab": "Ҟабарда-Балкариа", "name:az": "Kabarda-Balkariya", "name:be": "Кабардзіна-Балкарыя", "name:br": "Kabardino-Balkaria", "name:ca": "Kabardino-Balkària", "name:ce": "ГӀебартойн-Балкхаройчоь", "name:cs": "Kabardsko-Balkarsko", "name:en": "Kabardino-Balkaria", "name:es": "Kabardia-Balkaria", "name:fr": "Kabardino-Balkarie", "name:hu": "Kabard- és Balkárföld", "name:hy": "Կաբարդա-Բալկարիա", "name:ka": "ყაბარდო-ბალყარეთის რესპუბლიკა", "name:ko": "카바르디노발카르 공화국", "name:nl": "Kabardië-Balkarië", "name:pl": "Kabardo-Bałkaria", "name:pt": "Cabárdia-Balcária", "name:ru": "Кабардино-Балкария", "name:sk": "Kabardsko-Balkarsko", "name:sl": "Republika Kabardino-Balkarija", "name:uk": "Кабардино-Балкарія", "name:zh": "卡巴尔达-巴尔卡尔共和国", "name:kbd": "Къэбэрдей-Балъкъэр", "name:krc": "Къабарты-Малкъар", "oktmo:user": "83000000", "official_name": "Кабардино-Балкарская Республика", "gost_7.67-2003": "РОФ-КАБ", "name:be-tarask": "Кабардзіна-Балкарыя", "official_name:en": "Kabardino-Balkar Republic", "official_name:ru": "Кабардино-Балкарская Республика", "official_name:sk": "Kabardsko-balkarská republika", "official_name:kbd": "Къэбэрдей-Балъкъэр Республикэ", "official_name:krc": "Къабарты-Малкъар Республика"}}, "center_lat": 43.49, "center_lon": 43.41, "area_m2": 12461697376, "timezone": "Europe/Moscow", "population": 868174, "wikidata_id": "Q5267", "wikipedia_id": "ru:Кабардино-Балкария"}}