{"type": "Feature", "geometry": {"type": "Polygon", "coordinates": [[[43.398, 42.897], [43.572, 42.943], [43.83, 43.323], [44.002, 43.212], [44.475, 43.583], [44.293, 43.81], [44.803, 43.807], [44.832, 43.682], [44.847, 43.565], [44.503, 43.588], [44.669, 43.234], [44.957, 43.049], [44.68, 42.756], [44.232, 42.627], [43.963, 42.548], [43.794, 42.746], [43.398, 42.897]]]}, "properties": {"name": "Republic of North Ossetia-Alania", "iso2": "RU-SE", "admin_level": 4, "osm_id": 110032, "countrylevel_id": "iso2:RU-SE", "osm_data": {"localname": "Северная Осетия — Алания", "official_name": "", "alltags": {"int_ref": "RU-SE", "name:af": "Noord-Ossetië-Alanië", "name:ar": "أوسيتيا الشمالية-ألانيا", "name:av": "Шималияб Гьиристан", "name:az": "Şimali Osetiya", "name:ba": "Төньяҡ Осетия — Алания", "name:be": "Паўночная Асеція", "name:br": "Norzhosetia-Alania", "name:bs": "Sjeverna Osetija-Alanija", "name:ca": "Ossètia del Nord - Alània", "name:ce": "Къилбаседа ХӀирийчоь", "name:cs": "Severní Osetie-Alanie", "name:cv": "Çурçĕр Осети", "name:cy": "Gogledd Ossetia", "name:da": "Republikken Nordossetien–Alania", "name:el": "Δημοκρατία της Βόρειας Οσετίας - Αλανίας", "name:en": "Republic of North Ossetia-Alania", "name:es": "Osetia del Norte-Alania", "name:et": "Põhja-Osseetia", "name:eu": "Ipar Osetia-Alania", "name:fa": "اوستیای شمالی-آلانیا", "name:fi": "Pohjois-Ossetia-Alania", "name:fr": "Ossétie-du-Nord-Alanie", "name:gl": "Osetia do Norte-Alania", "name:he": "צפון אוסטיה - אלניה", "name:hr": "Sjeverna Osetija-Alanija", "name:hu": "Észak-Oszétia", "name:hy": "Հյուսիսային Օսիա", "name:id": "Ossetia Utara–Alania", "name:it": "Ossezia Settentrionale-Alania", "name:ja": "北オセチア共和国", "name:ka": "ოსეთის რესპუბლიკა", "name:lt": "Šiaurės Osetija", "name:lv": "Ziemeļosetija-Alānija", "name:md": "Осетия де Норд", "name:mk": "Северна Осетија-Аланија", "name:mn": "Ар Осет-Алан", "name:ms": "Ossetia Utara-Alania", "name:nl": "Noord-Ossetië", "name:nn": "Nord-Ossetia", "name:no": "Nord-Ossetia", "name:os": "Цæгат Ирыстон - Алани", "name:pl": "Republika Osetii Północnej – Alania", "name:ro": "Osetia de Nord", "name:ru": "Республика Северная Осетия — Алания", "name:sh": "Sjeverna Osetija-Alanija", "name:sk": "Severné Osetsko", "name:sq": "Osetia e Veriut-Alania", "name:sr": "Северна Осетија — Аланија", "name:sv": "Nordossetien", "name:sw": "Kaskazi Ossetia-Alania", "name:tl": "Hilagang Osetya-Alania", "name:tr": "Kuzey Osetya-Alanya", "name:tt": "Төньяк Осетия", "name:uk": "Північна Осетія", "name:uz": "Shimoliy Osetiya Alaniya", "name:vi": "Bắc Ossetia-Alania", "name:zh": "北奥塞梯-阿兰共和国", "alt_name": "Республика Северная Осетия - Алания", "name:bxr": "Хойто Осети", "name:diq": "Osetya Zımey-Alanya", "name:gag": "Poyraz Osetiya-Alaniya", "name:hsb": "Sewjerna Osetska-Alanska", "name:kbd": "Ишхъэрэ Iэсетиэ", "name:koi": "Аланму", "name:krc": "Шимал Тегей", "name:lbe": "Ухссавнил Осетия", "name:mhr": "Йӱдвел Осетий", "name:sah": "Хотугу Осетия", "name:sco": "North Ossetie-Alanie", "name:udm": "Уйпал Осетия", "name:xal": "Оседин таңһч", "name:xmf": "ოორუე ოსეთი", "name:yue": "北奧塞梯-阿蘭", "oktmo:user": "90000000", "name:uz-cyr": "Шимолий Осетия Алания", "addr:country": "RU", "gost_7.67-2003": "РОФ-СЕВ", "name:be-tarask": "Паўночная Асэтыя", "official_name:sk": "Republika Severné Osetsko – Alánsko"}}, "center_lat": 43.09, "center_lon": 44.26, "area_m2": 8000812878, "timezone": "Europe/Moscow", "population": 697064, "wikidata_id": "Q5237", "wikipedia_id": "ru:Северная Осетия"}}