{"type": "Feature", "properties": {"name": "Tovuz District", "iso2": "AZ-TOV", "admin_level": 4, "osm_id": 3764580, "countrylevel_id": "iso2:AZ-TOV", "osm_data": {"localname": "Tovuz rayonu", "official_name": "", "alltags": {"name:ar": "مقاطعة تووز", "name:en": "Tovuz District", "name:fa": "شهرستان تووز", "name:ja": "トヴズ県", "name:ru": "Товузский район", "name:ur": "تووز ضلع", "name:azb": "تووز رایونو", "name:pnb": "ضلع تووز"}}, "center_lat": 40.98, "center_lon": 45.77, "timezone": "Asia/Baku", "population": 160000, "wikidata_id": "Q388980"}, "geometry": {"type": "MultiPolygon", "coordinates": [[[[45.426, 40.742], [45.483, 40.721], [45.496, 40.663], [45.575, 40.667], [45.616, 40.625], [45.662, 40.637], [45.713, 40.614], [45.71, 40.673], [45.691, 40.688], [45.736, 40.717], [45.735, 40.789], [45.751, 40.822], [45.728, 40.859], [45.834, 40.927], [45.924, 40.968], [45.915, 40.984], [45.975, 41.009], [46.006, 40.986], [46.032, 41.007], [46.082, 41], [46.123, 41.019], [46.127, 41.051], [46.161, 41.051], [46.232, 41.125], [46.16, 41.142], [46.106, 41.176], [46.065, 41.19], [45.953, 41.178], [45.887, 41.211], [45.806, 41.222], [45.757, 41.253], [45.748, 41.221], [45.639, 41.162], [45.646, 41.137], [45.567, 41.141], [45.596, 41.061], [45.579, 41.025], [45.454, 40.969], [45.477, 40.93], [45.502, 40.927], [45.556, 40.881], [45.602, 40.882], [45.608, 40.851], [45.546, 40.775], [45.426, 40.742]]]]}}