{"type": "Feature", "geometry": {"type": "Polygon", "coordinates": [[[71.224, 51.1], [71.273, 51.247], [71.622, 51.189], [71.454, 51.001], [71.224, 51.1]]]}, "properties": {"name": "Nur-Sultan", "iso2": "KZ-AST", "admin_level": 4, "osm_id": 3087155, "countrylevel_id": "iso2:KZ-AST", "osm_data": {"localname": "Нур-Султан", "official_name": "", "alltags": {"name:ar": "نور سلطان", "name:be": "Нур-Cултан", "name:ca": "Astanà", "name:cs": "Nur-Sultan", "name:en": "Nur-Sultan", "name:eo": "Nur-Sultano", "name:es": "Nur-Sultán", "name:fa": "نورسلطان", "name:fr": "Nour-Soultan", "name:kk": "Нұр-Сұлтан", "name:lt": "Nur-Sultanas", "name:mk": "Нур-Султан", "name:pl": "Nur-Sułtan", "name:pt": "Nur-Sultan", "name:ru": "Нур-Султан", "name:ug": "نۇرسۇلتان", "name:uk": "Нур-Султан", "name:ur": "نورسلطان", "name:zh": "努尔-苏丹", "name:azb": "نورسلطان", "name:pnb": "نور سلطان", "old_name": "Астана;Целиноград;Акмола", "old_name:ar": "آستانا;أستانا;استانا;أستانة;أسطانا;الأستانا", "old_name:es": "Astaná;Akmola;Tselinograd;Akmolinsk", "old_name:fa": "آستانه", "old_name:mk": "Астана", "old_name:ps": "استانه", "old_name:pt": "Astana", "old_name:ru": "Астана;Целиноград;Акмола", "old_name:ug": "ئاستانا", "old_name:uk": "Астана;Цілиноград;Ак-Мола;Акмолінськ", "old_name:ur": "آستانہ", "addr:country": "KZ", "alt_name:azb": "نورسولتان", "name:ku-Arab": "نور-سولتان", "old_name:azb": "آستانا", "old_name:ckb": "ئاستانا", "old_name:lrc": "آستانٱ;آستانه", "old_name:mzn": "آستانه", "old_name:pnb": "آستانہ", "description:ru": "уровень области по административному делению (КАТО)", "name:be-tarask": "Нур-Cултан", "old_name:ku-Arab": "ئاستانا", "old_name:zh-Hans": "阿斯塔纳", "old_name:zh-Hant": "阿斯塔納"}}, "center_lat": 51.15, "center_lon": 71.44, "area_m2": 716692083, "timezone": "Asia/Almaty", "population": 1078362, "wikidata_id": "Q1520", "wikipedia_id": "ru:Астана"}}