{"type": "Feature", "geometry": {"type": "Polygon", "coordinates": [[[-11.782, 28.209], [-11.741, 28.228], [-11.741, 28.227], [-11.607, 28.27], [-11.606, 28.27], [-11.463, 28.338], [-11.045, 28.76], [-10.507, 29.032], [-10.215, 29.313], [-10.01, 29.631], [-9.846, 29.421], [-9.278, 29.498], [-9.086, 29.162], [-9.249, 28.986], [-9.206, 28.795], [-8.971, 28.645], [-8.669, 28.311], [-8.668, 27.667], [-8.668, 27.315], [-8.668, 27.136], [-8.739, 27.145], [-9.289, 27.472], [-9.544, 27.402], [-10.276, 27.814], [-11.19, 27.738], [-11.585, 27.866], [-11.782, 28.209]]]}, "properties": {"name": "Guelmim-Oued Noun", "iso2": "MA-10", "admin_level": 4, "osm_id": 2424040, "countrylevel_id": "iso2:MA-10", "osm_data": {"localname": "Guelmim-Oued Noun ⴳⵍⵎⵉⵎ-ⵡⴰⴷ ⵏⵓⵏ كلميم وادي نون", "official_name": "", "alltags": {"name:ar": "كلميم وادي نون", "name:en": "Guelmim-Oued Noun", "name:fr": "Guelmim-Oued Noun", "name:lt": "Gelimimo-", "name:pl": "Kulmim-", "name:ru": "Гулимим-", "name:uk": "Гельмім-", "network": "Régions du Maroc الجهات في المغرب", "alt_name": "گلميم - واد نون", "name:ber": "ⴳⵍⵎⵉⵎ-ⵡⴰⴷ ⵏⵓⵏ", "population": "433757", "ref:MA:HCP": "10.", "alt_name:ar": "كلميم واد نون", "population:date": "2014"}}, "center_lat": 28.34, "center_lon": -9.95, "area_m2": 44810460685, "timezone": "Africa/Casablanca", "wikidata_id": "Q19951051", "wikipedia_id": "ar:جهة كلميم واد نون"}}