{"type": "Feature", "geometry": {"type": "Polygon", "coordinates": [[[-9.677, 30.493], [-9.603, 30.364], [-9.651, 30.439], [-9.651, 30.44], [-9.677, 30.493]]]}, "properties": {"name": "Agadir", "iso2": "MA-AGD", "admin_level": 8, "osm_id": 2529624, "countrylevel_id": "iso2:MA-AGD", "osm_data": {"localname": "Agadir ⴰⴳⴰⴷⵉⵔ أگادير‎", "official_name": "Agadir ⴰⴳⴰⴷⵉⵔ أگادير‎", "alltags": {"name:ar": "أگادير‎", "name:en": "Agadir", "name:es": "Agadir", "name:fa": "اگادیر", "name:fr": "Agadir", "name:hu": "Agadir", "name:ja": "アガディール", "name:lt": "Agadiras", "name:pl": "Agadir", "name:pt": "Agadir", "name:ru": "Агадир", "name:ur": "اگادیر", "name:zh": "阿加迪尔", "network": "Communes du Maroc", "loc_name": "Agadir ⴰⴳⴰⴷⵉⵔ أگادير‎", "name:ber": "ⴰⴳⴰⴷⵉⵔ", "name:zgh": "ⴰⴳⴰⴷⵉⵔ", "population": "421844", "ref:MA:HCP": "09.001.01.01.", "alt_name:ar": "أكادير;أغادير", "official_name": "Agadir ⴰⴳⴰⴷⵉⵔ أگادير‎", "population:date": "2014"}}, "center_lat": 30.42, "center_lon": -9.58, "area_m2": 115209148, "timezone": "Africa/Casablanca", "population": 421844, "wikidata_id": "Q170525", "wikipedia_id": "ar:أكادير"}}