{"type": "Feature", "geometry": {"type": "Polygon", "coordinates": [[[101.66, 2.899], [101.671, 2.97], [101.707, 2.929], [101.66, 2.899]]]}, "properties": {"name": "Putrajaya", "iso2": "MY-16", "admin_level": 4, "osm_id": 4443881, "countrylevel_id": "iso2:MY-16", "osm_data": {"localname": "Putrajaya", "official_name": "", "alltags": {"name:ar": "بوتراجاي", "name:az": "Putracaya", "name:bg": "Путраджая", "name:bh": "पुत्रजय", "name:bn": "পুত্রজায়া", "name:el": "Πουτρατζάγια", "name:en": "Putrajaya", "name:eo": "Putraĝajo", "name:fa": "پوتراجایا", "name:he": "פוטרג'איה", "name:hi": "पुत्रजय", "name:hy": "Պուտրաջայա", "name:ja": "プトラジャヤ", "name:ka": "პუტრაჯაია", "name:ko": "푸트라자야", "name:ky": "Путражайя", "name:lv": "Putradžaja", "name:mk": "Путраџаја", "name:ml": "പുത്രജയ", "name:mr": "पुत्रजय", "name:ms": "Putrajaya", "name:os": "Путраджайя", "name:pa": "ਪੁੱਤਰਜੈ", "name:ru": "Путраджая", "name:ta": "புத்ராஜாயா", "name:th": "ปูตราจายา", "name:uk": "Путраджая", "name:ur": "پتراجایا", "name:zh": "布城", "alt_name": "Wilayah Persekutuan Putrajaya"}}, "center_lat": 2.93, "center_lon": 101.69, "area_m2": 48742124, "timezone": "Asia/Kuala_Lumpur", "population": 67964, "wikidata_id": "Q182378", "wikipedia_id": "en:Putrajaya"}}