{"type": "Feature", "geometry": {"type": "MultiPolygon", "coordinates": [[[[17.581, 42.938], [17.631, 43.093], [17.449, 43.177], [17.224, 43.498], [17.084, 43.538], [16.549, 43.968], [16.172, 44.21], [16.207, 44.251], [16.133, 44.461], [15.729, 44.825], [15.736, 44.936], [15.837, 45.223], [16.289, 44.996], [16.416, 44.865], [16.764, 44.806], [16.893, 44.529], [16.45, 44.463], [17.086, 44.084], [17.264, 44.074], [17.179, 44.358], [17.396, 44.439], [17.737, 44.388], [18.291, 44.574], [18.318, 44.787], [18.578, 44.837], [18.81, 44.755], [18.748, 44.615], [19.019, 44.468], [18.812, 44.221], [18.611, 44.041], [18.333, 43.8], [18.629, 43.681], [18.921, 43.767], [19.017, 43.663], [18.795, 43.568], [18.525, 43.646], [18.381, 43.588], [18.004, 43.459], [17.929, 43.164], [17.985, 42.872], [18.337, 42.619], [17.649, 42.889], [17.581, 42.938]]], [[[18.479, 45.062], [18.532, 45.091], [18.786, 44.966], [18.726, 44.956], [18.479, 45.062]]]]}, "properties": {"name": "Federation of Bosnia and Herzegovina", "iso2": "BA-BIH", "admin_level": 4, "osm_id": 2528144, "countrylevel_id": "iso2:BA-BIH", "osm_data": {"localname": "Federacija Bosne i Hercegovine", "official_name": "", "alltags": {"name:ar": "اتحاد البوسنة والهرسك", "name:bs": "Federacija Bosne i Hercegovine", "name:ca": "Federació de Bòsnia i Hercegovina", "name:en": "Federation of Bosnia and Herzegovina", "name:eo": "Federacio Bosnio kaj Hercegovino", "name:es": "Federación de Bosnia y Herzegovina", "name:fa": "فدراسیون بوسنی و هرزگوین", "name:fr": "Fédération de Bosnie-et-Herzégovine", "name:hr": "Federacija Bosne i Hercegovine", "name:lt": "Bosnijos ir Hercegovinos Federacija", "name:nl": "Federatie van Bosnië en Herzegovina", "name:ro": "Federația Bosniei și Herțegovinei", "name:ru": "Федерация Боснии и Герцеговины", "name:sr": "Федерација Босне и Херцеговине", "name:ur": "وفاق بوسنیا و ہرزیگووینا", "name:hsb": "Federacija Bosniska a Hercegowina", "short_name": "FBiH", "short_name:sr": "ФБиХ"}}, "center_lat": 44.1, "center_lon": 17.52, "area_m2": 26055837400, "timezone": "Europe/Sarajevo", "population": 2219220, "wikidata_id": "Q11198", "wikipedia_id": "bs:Federacija Bosne i Hercegovine"}}