{"type": "Feature", "geometry": {"type": "MultiPolygon", "coordinates": [[[[8.718, 47.691], [8.669, 47.685], [8.663, 47.686], [8.718, 47.691]]], [[[8.875, 47.656], [8.796, 47.675], [8.728, 47.693], [8.441, 47.721], [8.44, 47.72], [8.606, 47.669], [8.596, 47.606], [8.563, 47.599], [8.426, 47.568], [7.713, 47.54], [7.634, 47.561], [7.589, 47.59], [7.577, 48.12], [7.803, 48.59], [8.233, 48.966], [8.481, 49.286], [8.423, 49.584], [9.043, 49.501], [9.103, 49.578], [9.313, 49.765], [9.796, 49.721], [9.914, 49.494], [10.161, 49.39], [10.125, 49.199], [10.457, 48.917], [10.282, 48.701], [10.312, 48.523], [9.967, 48.374], [10.136, 48.112], [10.13, 47.676], [9.602, 47.584], [9.602, 47.585], [8.994, 47.743], [8.875, 47.656]]]]}, "properties": {"name": "Baden-Württemberg", "iso2": "DE-BW", "admin_level": 4, "osm_id": 62611, "countrylevel_id": "iso2:DE-BW", "osm_data": {"localname": "Baden-Württemberg", "official_name": "", "alltags": {"name:am": "ባደን-ቩርተምቡርግ", "name:an": "Baden-Wurtemberg", "name:ar": "بادن فورتمبرغ", "name:ay": "Baden-Württemberg suyu", "name:az": "Baden-Vürtemberq", "name:ba": "Баден-Вюртемберг", "name:be": "Бадэн-Вюртэмберг", "name:bg": "Баден-Вюртемберг", "name:bn": "বাডেন-ভুর্টেমবের্গ", "name:ca": "Baden-Württemberg", "name:ce": "Баден-Вюртемберг", "name:cs": "Bádensko-Württembersko", "name:cv": "Баден-Вюртемберг", "name:el": "Βάδη-Βυρτεμβέργη", "name:en": "Baden-Württemberg", "name:eo": "Baden-Virtembergo", "name:es": "Baden-Wurtemberg", "name:fa": "بادن-وورتمبرگ", "name:fr": "Bade-Wurtemberg", "name:fy": "Baden-Wuertemberch", "name:gn": "Baden-Wurtemberg", "name:he": "באדן-וירטמברג", "name:hy": "Բադեն-Վյուրթեմբերգ", "name:ia": "Baden-Wuertemberg", "name:io": "Badenia-Wurtemberg", "name:ja": "バーデン＝ヴュルテンベルク州", "name:ka": "ბადენ-ვიურტემბერგი", "name:kk": "Баден-Вюртемберг", "name:ko": "바덴뷔르템베르크 주", "name:la": "Badenia-Virtembergia", "name:lt": "Badenas-Viurtembergas", "name:lv": "Bādene-Virtemberga", "name:mk": "Баден-Виртемберг", "name:mn": "Баден-Вюртемберг", "name:mr": "बाडेन-व्युर्टेंबर्ग", "name:os": "Баден-Вюртемберг", "name:pa": "ਬਾਡਨ-ਵਰਟਮਬਰਕ", "name:pl": "Badenia-Wirtembergia", "name:ps": "باډن ورټمبرگ", "name:ru": "Баден-Вюртемберг", "name:sk": "Bádensko-Wurttembersko", "name:sq": "Baden-Vyrtemberg", "name:sr": "Баден-Виртемберг", "name:ta": "பாடன்-வுயர்ட்டம்பெர்கு", "name:th": "รัฐบาเดิน-เวือร์ทเทิมแบร์ค", "name:uk": "Баден-Вюртемберг", "name:ur": "بادن-وورتمبرگ", "name:uz": "Baden-Vyurtemberg", "name:vo": "Badän-Vürtän", "name:yi": "באדן-ווירטמבורג", "name:zh": "巴登-符腾堡", "name:gsw": "Bade-Wirddeberg", "name:hsb": "Badensko-Württembergska", "name:pfl": "Bade-Wirddeberg", "alt_name:cs": "Země Bádensko-Württembersko", "border_type": "state", "name:prefix": "Bundesland", "TMC:cid_58:tabcd_1:Class": "Area", "TMC:cid_58:tabcd_1:LCLversion": "12.0", "TMC:cid_58:tabcd_1:LocationCode": "263"}}, "center_lat": 48.55, "center_lon": 9.05, "area_m2": 35718833506, "timezone": "Europe/Berlin", "population": 10879618, "wikidata_id": "Q985", "wikipedia_id": "de:Baden-Württemberg"}}