{"type": "Feature", "geometry": {"type": "Polygon", "coordinates": [[[44.764, 39.714], [44.975, 39.741], [45.061, 39.794], [45.342, 39.542], [45.377, 39.539], [45.47, 39.493], [45.694, 39.604], [45.803, 39.365], [45.94, 39.31], [46.141, 38.845], [45.784, 38.925], [45.57, 38.976], [45.453, 38.993], [45.277, 39.185], [45.042, 39.385], [44.809, 39.627], [44.764, 39.714]]]}, "properties": {"name": "Nakhichevan", "iso2": "AZ-NX", "admin_level": 3, "osm_id": 186430, "countrylevel_id": "iso2:AZ-NX", "osm_data": {"localname": "Naxçıvan Muxtar Respublikası", "official_name": "", "alltags": {"name:ar": "جمهورية نخجوان الذاتية", "name:az": "Naxçıvan Muxtar Respublikası", "name:ca": "Nakhtxivan", "name:en": "Nakhichevan", "name:es": "Najicheván", "name:fr": "Nakhitchevan", "name:ja": "ナヒチェヴァン自治共和国", "name:ku": "Naxçivan", "name:ru": "Нахичеванская Автономная Республика", "name:tr": "Nahçıvan Özerk Cumhuriyeti", "alt_name": "Naxcivan;Naxçivan;Nachidsheuan;Nakhijevan;Nakhchawan;Nakhitchevan;Nakhjavan;Nakhdjevan", "official_name:ca": "República Autònoma de Nakhtxivan"}}, "center_lat": 39.31, "center_lon": 45.51, "area_m2": 5323619821, "timezone": "Asia/Baku", "population": 439800, "wikidata_id": "Q131083", "wikipedia_id": "az:Naxçıvan Muxtar Respublikası"}}