{"type": "Feature", "geometry": {"type": "Polygon", "coordinates": [[[47.165, 39.849], [47.266, 39.895], [47.325, 39.731], [47.254, 39.717], [47.165, 39.849]]]}, "properties": {"name": "Khojavend District", "iso2": "AZ-XVD", "admin_level": 4, "osm_id": 3795451, "countrylevel_id": "iso2:AZ-XVD", "osm_data": {"localname": "Xocavənd rayonu", "official_name": "", "alltags": {"name:br": "Xocavənd", "name:ce": "Ходжавендан кӀошт", "name:en": "Khojavend District", "name:eo": "Ĥoĝavend", "name:es": "Xocavənd", "name:fa": "شهرستان خواجه‌وند", "name:fi": "Xocavəndin piirikunta", "name:fr": "Khojavend", "name:he": "חוג'אבנד", "name:hr": "Hodžavendski rajon", "name:hu": "Xocavəndi járás", "name:id": "Khojavend", "name:it": "Distretto di Xocavənd", "name:ka": "ხოჯავენდის რაიონი", "name:ko": "호자벤트구", "name:mk": "Хоџавенд", "name:ms": "Daerah Khojavend", "name:nl": "Xocavənd", "name:no": "Xocavənd", "name:pl": "Rejon Xocavənd", "name:pt": "Khojavend", "name:ru": "Ходжавендский район", "name:sq": "Khojavend", "name:sr": "Хоџавендски рејон", "name:su": "Rayon Khojavend", "name:sv": "Xocavənd Rayonu", "name:tl": "Distrito ng Khojavend", "name:tr": "Hocavend Rayonu", "name:vi": "Khojavend", "name:zh": "霍賈文德區", "is_in:country": "Azerbaijan", "is_in:continent": "Asia", "is_in:country_code": "AZ"}}, "center_lat": 39.81, "center_lon": 47.26, "area_m2": 155870810, "timezone": "Asia/Baku", "population": 42871, "wikidata_id": "Q330813", "wikipedia_id": "de:Xocavənd (Rayon)"}}