{"type": "Feature", "geometry": {"type": "Polygon", "coordinates": [[[-70, 12.483], [-70.064, 12.542], [-70.023, 12.602], [-69.888, 12.483], [-70, 12.483]]]}, "properties": {"name": "Aruba", "iso2": "NL-AW", "admin_level": 3, "osm_id": 1231749, "countrylevel_id": "iso2:NL-AW", "osm_data": {"localname": "Aruba", "official_name": "", "alltags": {"name:ar": "أروبا", "name:br": "Aruba", "name:en": "Aruba", "name:eo": "Arubo", "name:fr": "Aruba", "name:hr": "Aruba", "name:ko": "아루바", "name:ku": "Arûba", "name:lt": "Aruba", "name:mk": "Аруба", "name:ru": "Аруба", "name:sk": "Aruba", "name:sr": "Аруба", "name:sv": "Aruba", "name:uk": "Аруба", "name:uz": "Aruba", "name:ckb": "ئارووبا", "description": "A constituent country within the Kingdom of the Netherlands", "note:ISO3166-2": "Aruba is a subset (type Country) of the Kingdom of the Netherlands (ISO3166-1 country code NL)", "is_in:continent": "North America", "default_language": "nl;pap"}, "iso1": "AW"}, "center_lat": 12.51, "center_lon": -69.97, "area_m2": 181002090, "timezone": "America/Aruba", "population": 112309, "wikidata_id": "Q21203", "wikipedia_id": "en:Aruba"}}