{"type": "Feature", "geometry": {"type": "Polygon", "coordinates": [[[5.566, 51.221], [5.875, 51.353], [5.864, 51.758], [5.953, 51.748], [6.226, 51.36], [5.938, 51.035], [6.021, 50.755], [6.021, 50.754], [5.892, 50.755], [5.682, 50.758], [5.688, 50.812], [5.847, 51.141], [5.566, 51.221]]]}, "properties": {"name": "Limburg", "iso2": "NL-LI", "admin_level": 4, "osm_id": 47793, "countrylevel_id": "iso2:NL-LI", "osm_data": {"localname": "Limburg", "official_name": "Provincie Limburg", "alltags": {"name:ar": "ليمبورخ", "name:ca": "Limburg", "name:en": "Limburg", "name:eo": "Limburgo", "name:es": "Limburgo", "name:fr": "Limbourg", "name:fy": "Limburch", "name:nl": "Limburg", "name:pl": "Limburgia", "name:ru": "Лимбург", "alt_name": "Nederlands Limburg", "loc_name": "Limburg", "population": "1117314", "alt_name:de": "Nederlander Limburg", "alt_name:en": "Dutch Limburg", "alt_name:fr": "Limbourg néerlandais", "alt_name:nl": "Nederlands Limburg", "loc_name:de": "Limburg", "loc_name:fr": "Limbourg", "loc_name:nl": "Limburg", "is_in:country": "The Netherlands", "official_name": "Provincie Limburg", "note:ISO3166-2": "Limburg is a subset (type Province) of the Kingdom of the Netherlands (ISO3166-1 country code NL)", "is_in:continent": "Europe", "population:date": "2018-01-01", "official_name:en": "Province of Limburg", "official_name:fr": "Province du Limbourg", "official_name:nl": "Provincie Limburg", "ref:provinciecode": "31", "is_in:country_code": "NL"}}, "center_lat": 51.21, "center_lon": 5.93, "area_m2": 2206951155, "timezone": "Europe/Amsterdam", "population": 1120006, "wikidata_id": "Q1093", "wikipedia_id": "nl:Limburg (Nederland)"}}