{"type": "Feature", "geometry": {"type": "Polygon", "coordinates": [[[103.986, 21.967], [104.354, 21.876], [104.38, 22.071], [104.587, 22.249], [104.849, 22.185], [104.997, 22.044], [105.086, 21.718], [104.905, 21.628], [104.814, 21.333], [104.471, 21.351], [104.29, 21.602], [103.922, 21.701], [103.986, 21.967]]]}, "properties": {"name": "Yen Bai Province", "iso2": "VN-06", "admin_level": 4, "osm_id": 1903199, "countrylevel_id": "iso2:VN-06", "osm_data": {"localname": "Tỉnh Yên Bái", "official_name": "", "alltags": {"name:ar": "محافظة ين باي", "name:bg": "Йен Бай", "name:en": "Yen Bai Province", "name:es": "Yên Bái", "name:fa": "استان ین بای", "name:fi": "Yên Bái", "name:fr": "Province de Yên Bái", "name:id": "Provinsi Yên Bái", "name:it": "Provincia di Yen Bai", "name:ja": "イエンバイ", "name:ko": "옌바이성", "name:mn": "Иэньбай", "name:nl": "Yên Bái", "name:pl": "Prowincja Yên Bái", "name:pt": "Yen Bai", "name:ro": "Yên Bái", "name:ru": "Йенбай", "name:sr": "Јен Бај", "name:sv": "Yen Bai", "name:sw": "Mkoa wa Yên Bái", "name:th": "จังหวัดเอียนบ๊าย", "name:uk": "Єнбай", "name:ur": "ین بائی صوبہ", "name:vi": "Tỉnh Yên Bái", "name:zh": "安沛省", "alt_name": "Yên Bái", "population": "758600", "is_in:country_code": "VN"}}, "center_lat": 21.78, "center_lon": 104.57, "area_m2": 6923388966, "timezone": "Asia/Bangkok", "wikidata_id": "Q36349", "wikipedia_id": "vi:Yên Bái"}}