{"type": "Feature", "geometry": {"type": "Polygon", "coordinates": [[[106.29, 10.05], [106.576, 9.806], [106.5, 9.556], [106.3, 9.586], [105.982, 9.883], [106.29, 10.05]]]}, "properties": {"name": "Tra Vinh province", "iso2": "VN-51", "admin_level": 4, "osm_id": 1873642, "countrylevel_id": "iso2:VN-51", "osm_data": {"localname": "Tỉnh Trà Vinh", "official_name": "", "alltags": {"name:ar": "محافظة تشا فينه", "name:bg": "Ча Вин", "name:en": "Tra Vinh province", "name:es": "Trà Vinh", "name:fa": "استان ترا وین", "name:fi": "Trà Vinh", "name:fr": "Province de Trà Vinh", "name:id": "Provinsi Tra Vinh", "name:it": "Provincia di Tra Vinh", "name:ja": "チャーヴィン", "name:km": "ខេត្តព្រះត្រពាំង", "name:ko": "짜빈성", "name:nl": "Trà Vinh", "name:pl": "Prowincja Trà Vinh", "name:pt": "Tra Vinh", "name:ro": "Trà Vinh", "name:ru": "Чавинь", "name:sr": "Ча Вињ", "name:sv": "Tra Vinh", "name:sw": "Mkoa wa Trà Vinh", "name:tg": "Вилояти Тра Вин", "name:th": "จังหวัดจ่าวิญ", "name:uk": "Чавінь", "name:ur": "ترا وینہ صوبہ", "name:zh": "茶榮省", "population": "1012600", "is_in:country_code": "VN"}}, "center_lat": 9.8, "center_lon": 106.31, "area_m2": 2288094950, "timezone": "Asia/Ho_Chi_Minh", "wikidata_id": "Q36615", "wikipedia_id": "vi:Trà Vinh"}}