{"type": "Feature", "properties": {"name": "Flanders", "iso2": "BE-VLG", "admin_level": 4, "osm_id": 53134, "countrylevel_id": "iso2:BE-VLG", "osm_data": {"localname": "Vlaanderen", "official_name": "", "alltags": {"name:br": "Flandrez", "name:ca": "Flandes", "name:el": "Φλάνδρα", "name:en": "Flanders", "name:eo": "Flandrio", "name:es": "Flandes", "name:et": "Flandria", "name:fi": "Flanderi", "name:fr": "Flandre", "name:fy": "Flaanderen", "name:ja": "フランデレン地域", "name:ka": "ფლანდრია", "name:ko": "플라망 지역", "name:lb": "Flandern", "name:li": "Vlaandere", "name:lt": "Flandrija", "name:nl": "Vlaanderen", "name:pt": "Flandres", "name:ru": "Фландрия", "name:sk": "Flámsko", "name:th": "เขตฟลามส์", "name:wa": "Flande", "name:zh": "弗拉芒大區", "ref:INS": "02000", "website": "https://www.vlaanderen.be/", "name:tzl": "Flemphäts", "nat_name": "Vlaams Gewest", "border_type": "state", "nat_name:ar": "الإقليم الفلامندي", "nat_name:be": "Фламандскі рэгіён", "nat_name:bg": "Фламандски регион", "nat_name:ca": "Regió flamenca", "nat_name:de": "Flämische Region", "nat_name:el": "Φλαμανδική Περιοχή", "nat_name:en": "Flemish Region", "nat_name:eo": "Flandra Regiono", "nat_name:fr": "Région flamande", "nat_name:lb": "Flämesch Regioun", "nat_name:li": "Vlaandere Gewes", "nat_name:mk": "Фламански регион", "nat_name:nl": "Vlaams Gewest", "nat_name:os": "Фламандийы регион", "nat_name:pl": "Region Flamandzki", "nat_name:ru": "Фламандский регион", "nat_name:sk": "Flámsky región", "nat_name:tr": "Flaman Bölgesi", "nat_name:wa": "Redjon flaminde", "nat_name:vls": "Vlams Gewest", "default_language": "nl"}}, "center_lat": 51.04, "center_lon": 4.2, "timezone": "Europe/Brussels", "population": 6381859, "wikidata_id": "Q9337", "wikipedia_id": "nl:Vlaams Gewest"}, "geometry": {"type": "MultiPolygon", "coordinates": [[[[5.682, 50.758], [5.892, 50.755], [5.682, 50.758], [5.682, 50.758]]], [[[3.105, 51.312], [3.105, 51.312], [3.105, 51.312], [3.105, 51.312]]], [[[4.927, 51.408], [4.927, 51.408], [4.927, 51.408], [4.927, 51.408]]], [[[4.866, 51.414], [4.866, 51.414], [4.866, 51.414], [4.866, 51.414]]], [[[4.873, 51.416], [4.873, 51.416], [4.873, 51.416], [4.873, 51.416]]], [[[4.839, 51.418], [4.839, 51.418], [4.839, 51.418], [4.839, 51.418]]], [[[4.889, 51.425], [4.889, 51.425], [4.889, 51.425], [4.889, 51.425]]], [[[4.941, 51.439], [4.941, 51.439], [4.941, 51.439], [4.941, 51.439]]], [[[4.94, 51.44], [4.94, 51.44], [4.94, 51.44], [4.94, 51.44]]], [[[4.94, 51.436], [4.94, 51.436], [4.94, 51.436], [4.94, 51.436]]], [[[3.366, 51.369], [3.381, 51.274], [4.242, 51.354], [4.277, 51.376], [5.022, 51.482], [5.238, 51.261], [5.566, 51.221], [5.688, 50.812], [5.103, 50.709], [5.019, 50.751], [4.1, 50.706], [3.896, 50.733], [3.459, 50.765], [3.328, 50.729], [3.328, 50.73], [3.179, 50.756], [3.019, 50.774], [2.955, 50.797], [2.955, 50.797], [2.845, 50.732], [2.845, 50.732], [2.863, 50.708], [2.545, 51.089], [3.366, 51.369]], [[4.244, 50.82], [4.244, 50.82], [4.244, 50.82], [4.244, 50.82]], [[4.869, 51.412], [4.869, 51.412], [4.869, 51.412], [4.869, 51.412]]], [[[4.939, 51.444], [4.939, 51.444], [4.939, 51.444], [4.939, 51.444]]], [[[4.94, 51.436], [4.94, 51.436], [4.94, 51.436], [4.94, 51.436]], [[4.934, 51.433], [4.934, 51.433], [4.934, 51.433], [4.934, 51.433]], [[4.931, 51.437], [4.931, 51.437], [4.931, 51.437], [4.931, 51.437]], [[4.922, 51.439], [4.922, 51.439], [4.922, 51.439], [4.922, 51.439]], [[4.931, 51.44], [4.931, 51.44], [4.931, 51.44], [4.931, 51.44]], [[4.931, 51.435], [4.931, 51.435], [4.931, 51.435], [4.931, 51.435]], [[4.935, 51.438], [4.935, 51.438], [4.935, 51.438], [4.935, 51.438]]], [[[4.918, 51.444], [4.918, 51.444], [4.918, 51.444], [4.918, 51.444]]], [[[4.836, 51.448], [4.836, 51.448], [4.836, 51.448], [4.836, 51.448]]], [[[4.929, 51.45], [4.929, 51.45], [4.929, 51.45], [4.929, 51.45]]], [[[4.949, 51.455], [4.949, 51.455], [4.949, 51.455], [4.949, 51.455]]], [[[4.941, 51.455], [4.941, 51.455], [4.941, 51.455], [4.941, 51.455]]], [[[4.943, 51.453], [4.943, 51.453], [4.943, 51.453], [4.943, 51.453]]], [[[4.944, 51.444], [4.944, 51.444], [4.944, 51.444], [4.944, 51.444]]], [[[4.941, 51.445], [4.941, 51.445], [4.941, 51.445], [4.941, 51.445]]], [[[4.924, 51.446], [4.924, 51.446], [4.924, 51.446], [4.924, 51.446]]], [[[4.932, 51.448], [4.932, 51.448], [4.932, 51.448], [4.932, 51.448]]], [[[4.927, 51.449], [4.927, 51.449], [4.927, 51.449], [4.927, 51.449]]], [[[4.933, 51.45], [4.933, 51.45], [4.933, 51.45], [4.933, 51.45]], [[4.942, 51.448], [4.942, 51.448], [4.942, 51.448], [4.942, 51.448]]]]}}