{"type": "Feature", "properties": {"name": "Andhra Pradesh", "iso2": "IN-AP", "admin_level": 4, "osm_id": 2022095, "countrylevel_id": "iso2:IN-AP", "osm_data": {"localname": "Andhra Pradesh", "official_name": "", "alltags": {"name:ar": "آندرا برديش", "name:cs": "Ándhrapradéš", "name:en": "Andhra Pradesh", "name:eo": "Andra-Pradeŝo", "name:fa": "آندرا پرادش", "name:hi": "आन्ध्र प्रदेश", "name:ja": "アーンドラ・プラデーシュ", "name:kn": "ಆಂಧ್ರ ಪ್ರದೇಶ", "name:ku": "Andhra Pradeş", "name:mr": "आंध्र प्रदेश", "name:or": "ଆନ୍ଧ୍ର ପ୍ରଦେଶ", "name:pa": "ਆਂਧਰਾ ਪ੍ਰਦੇਸ਼", "name:ru": "Андхра-Прадеш", "name:ta": "ஆந்திரப் பிரதேசம்", "name:te": "ఆంధ్ర ప్రదేశ్", "name:uk": "Андхра-Прадеш", "name:ur": "آندھرا پردیش", "name:zh": "安得拉邦", "alt_name": "Seemandhra", "alt_name:hi": "आंध्र प्रदेसग", "is_in:country_code": "IN"}}, "center_lat": 15.74, "center_lon": 79.95, "timezone": "Asia/Kolkata", "population": 49386799, "wikidata_id": "Q1159", "wikipedia_id": "en:Andhra Pradesh"}, "geometry": {"type": "MultiPolygon", "coordinates": [[[[80.269, 13.563], [79.186, 13.03], [78.622, 12.989], [78.471, 12.628], [78.231, 12.761], [78.579, 13.166], [78.406, 13.576], [78.09, 13.659], [78.051, 13.894], [77.455, 13.683], [77.173, 13.763], [76.894, 14.166], [77.333, 14.03], [77.445, 14.318], [76.942, 14.244], [76.764, 14.603], [76.878, 15.031], [77.113, 15.034], [77.077, 15.91], [77.513, 15.928], [78.175, 15.857], [78.407, 16.076], [78.783, 16.021], [79.222, 16.236], [79.257, 16.566], [79.786, 16.73], [80.058, 16.971], [80.58, 17.153], [80.837, 17.049], [81.307, 17.411], [81.017, 17.52], [81.082, 17.794], [81.394, 17.795], [82.076, 18.075], [82.269, 17.997], [82.472, 18.541], [82.588, 18.277], [83.414, 18.873], [83.637, 19.153], [83.895, 18.814], [84.32, 18.788], [84.765, 19.077], [84.127, 18.314], [83.691, 18.096], [83.213, 17.591], [82.466, 17.194], [82.252, 16.937], [82.281, 16.56], [81.722, 16.31], [81.237, 16.237], [81.018, 15.769], [80.696, 15.881], [80.305, 15.712], [80.048, 15.089], [80.193, 14.592], [80.129, 14.209], [80.269, 13.563]], [[82.186, 16.733], [82.186, 16.733], [82.186, 16.733], [82.186, 16.733]]], [[[83.24, 17.62], [83.24, 17.62], [83.24, 17.62], [83.24, 17.62]]]]}}