{"type": "Feature", "properties": {"name": "Uttar Pradesh", "iso2": "IN-UP", "admin_level": 4, "osm_id": 1942587, "countrylevel_id": "iso2:IN-UP", "osm_data": {"localname": "Uttar Pradesh", "official_name": "", "alltags": {"name:ar": "أتر برديش", "name:cs": "Uttarpradéš", "name:en": "Uttar Pradesh", "name:eo": "Utar-Pradeŝo", "name:es": "Uttar Pradesh", "name:fr": "Uttar Pradesh", "name:hi": "उत्तर प्रदेश", "name:ja": "ウッタル・プラデーシュ", "name:kn": "ಉತ್ತರ ಪ್ರದೇಶ", "name:ku": "Uttar Pradeş", "name:pa": "ਉੱਤਰ ਪ੍ਰਦੇਸ਼", "name:ru": "Уттар-Прадеш", "name:ta": "உத்தரப் பிரதேசம்", "name:uk": "Уттар-Прадеш", "name:zh": "北方邦", "is_in:country": "India", "is_in:continent": "Asia", "is_in:country_code": "IN"}}, "center_lat": 26.92, "center_lon": 80.55, "timezone": "Asia/Kolkata", "population": 199812341, "wikidata_id": "Q1498", "wikipedia_id": "en:Uttar Pradesh"}, "geometry": {"type": "MultiPolygon", "coordinates": [[[[77.209, 28.857], [77.347, 28.519], [77.527, 27.922], [77.283, 27.802], [77.342, 27.525], [77.68, 27.195], [77.519, 27.067], [78.221, 26.832], [78.725, 26.797], [79.135, 26.44], [78.753, 25.743], [78.301, 25.36], [78.458, 25.165], [78.175, 24.88], [78.388, 24.263], [78.791, 24.177], [78.993, 24.423], [78.504, 25.29], [78.938, 25.557], [79.124, 25.111], [79.852, 25.226], [80.264, 25.424], [80.478, 24.975], [81.14, 24.893], [81.275, 25.171], [81.902, 24.991], [82.409, 24.598], [82.67, 24.698], [82.81, 23.963], [83.199, 23.914], [83.328, 24.102], [83.502, 24.526], [83.321, 25.018], [84.151, 25.73], [84.624, 25.792], [84.055, 26.102], [84.087, 26.639], [84.42, 26.626], [84.079, 26.878], [83.856, 27.352], [82.736, 27.502], [82.07, 27.924], [81.9, 27.854], [81.211, 28.361], [80.522, 28.577], [80.064, 28.84], [79.425, 28.866], [78.732, 29.304], [78.93, 29.428], [78.332, 29.796], [77.972, 29.58], [77.717, 29.863], [77.946, 30.233], [77.575, 30.398], [77.585, 30.379], [77.276, 30.042], [77.085, 29.584], [77.209, 28.857]], [[80.391, 25.098], [80.391, 25.098], [80.391, 25.098], [80.391, 25.098]], [[80.468, 25.082], [80.468, 25.082], [80.468, 25.082], [80.468, 25.082]]]]}}