{"type": "Feature", "geometry": {"type": "Polygon", "coordinates": [[[124.206, 7.252], [124.339, 7.174], [124.481, 7.459], [124.417, 7.627], [124.805, 7.614], [125.068, 7.428], [125.261, 7.595], [125.209, 7.177], [125.271, 6.987], [125.094, 6.769], [125.167, 6.538], [125.163, 6.48], [125.378, 6.524], [125.526, 6.064], [125.327, 5.569], [125.174, 5.798], [125.238, 6.096], [125.104, 5.956], [124.823, 5.889], [124.36, 6.117], [124.047, 6.401], [124.041, 6.75], [124.529, 6.753], [124.802, 6.658], [124.98, 6.73], [124.826, 6.802], [124.817, 7.044], [124.586, 6.97], [124.34, 7.171], [124.17, 7.199], [124.206, 7.252]]]}, "properties": {"name": "Soccsksargen", "iso2": "PH-12", "admin_level": 3, "osm_id": 3851570, "countrylevel_id": "iso2:PH-12", "osm_data": {"localname": "Soccsksargen", "official_name": "", "alltags": {"name:en": "Soccsksargen", "name:ja": "ソクサージェン", "name:tl": "Soccsksargen", "name:ceb": "Soccsksargen", "name:hil": "Soccsksargen", "name:krj": "Soccsksargen"}}, "center_lat": 6.63, "center_lon": 124.82, "area_m2": 19153611368, "timezone": "Asia/Manila", "population": 4545276, "wikidata_id": "Q13701"}}