{"type": "Feature", "geometry": {"type": "Polygon", "coordinates": [[[3.381, 51.274], [3.886, 51.2], [4.242, 51.354], [4.241, 51.037], [3.896, 50.733], [3.459, 50.765], [3.381, 51.274]]]}, "properties": {"name": "East Flanders", "iso2": "BE-VOV", "admin_level": 6, "osm_id": 53135, "countrylevel_id": "iso2:BE-VOV", "osm_data": {"localname": "Oost-Vlaanderen", "official_name": "Provincie Oost-Vlaanderen", "alltags": {"name:af": "Oos-Vlaandere", "name:an": "Flandres Oriental", "name:ar": "فلاندر الشرقية", "name:be": "Усходняя Фландрыя", "name:bg": "Източна Фландрия", "name:br": "Reter-Flandrez", "name:ca": "Flandes Oriental", "name:cs": "Východní Flandry", "name:cy": "Dwyrain Fflandrys", "name:da": "Østflandern", "name:el": "Ανατολική Φλάνδρα", "name:en": "East Flanders", "name:eo": "Orienta Flandrio", "name:es": "Provincia de Flandes Oriental", "name:et": "Ida-Flandria", "name:eu": "Ekialdeko Flandria", "name:fa": "استان فلاندری شرقی", "name:fi": "Itä-Flanderi", "name:fr": "Flandre orientale", "name:fy": "East-Flaanderen", "name:gl": "Provincia de Flandres oriental", "name:hr": "Istočna Flandrija", "name:hu": "Kelet-Flandria", "name:id": "Flandria Timur", "name:is": "Austur-Flæmingjaland", "name:it": "Provincia delle Fiandre Orientali", "name:ja": "オースト＝フランデレン州", "name:ko": "오스트플란데런 주", "name:la": "Flandria Orientalis", "name:lb": "Provënz Ostflandern", "name:li": "Oos-Vlaondere", "name:lt": "Rytų Flandrijos provincija", "name:lv": "Austrumflandrija", "name:mr": "पूर्व फ्लांडर्स", "name:ms": "Flanders Timur", "name:nl": "Oost-Vlaanderen", "name:nn": "Aust-Flandern", "name:no": "Øst-Flandern", "name:oc": "Flandra Orientala", "name:os": "Скæсæн Фландри", "name:pl": "Flandria Wschodnia", "name:pt": "Flandres Oriental", "name:ro": "Flandra de Est", "name:ru": "Восточная Фландрия", "name:sk": "Východné Flámsko", "name:sv": "Östflandern", "name:th": "จังหวัดฟลานเดอร์ตะวันออก", "name:tr": "Doğu Flandre", "name:uk": "Східна Фландрія", "name:zh": "东弗兰德省", "ref:INS": "40000", "website": "https://www.oost-vlaanderen.be/", "border_type": "province", "official_name": "Provincie Oost-Vlaanderen", "official_name:nl": "Provincie Oost-Vlaanderen"}}, "center_lat": 51.04, "center_lon": 3.82, "area_m2": 3003255367, "timezone": "Europe/Brussels", "population": 1505053, "wikidata_id": "Q1114", "wikipedia_id": "nl:Oost-Vlaanderen"}}