{"type": "Feature", "geometry": {"type": "Polygon", "coordinates": [[[7.635, 49.054], [8.233, 48.966], [7.803, 48.59], [7.577, 48.12], [7.198, 48.31], [7.123, 48.514], [7.08, 48.536], [7.287, 48.798], [7.635, 49.054]]]}, "properties": {"name": "Bas-Rhin", "iso2": "FR-67", "admin_level": 6, "osm_id": 7415, "countrylevel_id": "iso2:FR-67", "osm_data": {"localname": "Bas-Rhin", "official_name": "", "alltags": {"name:an": "Baixo-Rin", "name:ar": "الراين-الأسفل", "name:be": "Рэйн-Ніжні", "name:bg": "Ба-Рен", "name:br": "Roen-Izel", "name:ca": "Baix-Rin", "name:cv": "Анатри-Рейн", "name:es": "Bajo-Rin", "name:fa": "با-رن", "name:fr": "Bas-Rhin", "name:gl": "Baixo-Rin", "name:he": "ריין-תחתון", "name:hy": "Ներքին-Ռեն", "name:it": "Basso-Reno", "name:ja": "バ＝ラン県", "name:ka": "ქვემო-რეინი", "name:kk": "Төменгі-Рейн", "name:ko": "바랭", "name:la": "Rhenus-Inferior", "name:lt": "Žemutinis-Reinas", "name:lv": "Lejasreina", "name:mk": "Долна-Рајна", "name:mr": "बास-ऱ्हिन", "name:pl": "Dolny-Ren", "name:pt": "Baixo-Reno", "name:ru": "Нижний-Рейн", "name:sr": "Доња-Рајна", "name:tg": "Ба-Рейн", "name:th": "บา-แร็ง", "name:uk": "Нижній-Рейн", "name:zh": "下莱茵省", "website": "http://www.bas-rhin.fr/", "name:ast": "Baxo-Rin", "name:frp": "Bâs-Rin", "name:gsw": "Unt'relsass", "name:hak": "Hâ-Rhin", "name:lad": "Bajo-Rin", "name:pms": "Bass-Ren", "name:pnb": "بیس-رہائن", "ref:NUTS": "FR421", "ref:INSEE": "67"}}, "center_lat": 48.67, "center_lon": 7.55, "area_m2": 4793709255, "timezone": "Europe/Paris", "population": 1125559, "wikidata_id": "Q12717", "wikipedia_id": "fr:Bas-Rhin"}}