{"type": "Feature", "geometry": {"type": "Polygon", "coordinates": [[[0.23, 47.608], [0.615, 47.694], [0.848, 47.942], [0.841, 48.103], [0.798, 48.195], [0.968, 48.524], [0.816, 48.671], [1.328, 48.76], [1.501, 48.941], [1.579, 48.702], [1.922, 48.458], [1.994, 48.287], [2.403, 48.321], [2.703, 48.124], [2.937, 48.163], [3.128, 47.971], [2.976, 47.569], [2.874, 47.519], [2.872, 47.347], [3.078, 47.03], [3.032, 46.795], [2.729, 46.749], [2.614, 46.556], [2.281, 46.42], [2.168, 46.424], [1.544, 46.419], [1.416, 46.347], [1.177, 46.384], [0.867, 46.749], [0.692, 46.974], [0.054, 47.163], [0.23, 47.608]]]}, "properties": {"name": "Centre-Loire Valley", "iso2": "FR-CVL", "admin_level": 4, "osm_id": 8640, "countrylevel_id": "iso2:FR-CVL", "osm_data": {"localname": "Centre-Val de Loire", "official_name": "", "alltags": {"name:ar": "مركز-وادي اللوار", "name:br": "Kreiz-Traoñ-al-Liger", "name:ca": "Centre – Vall del Loira", "name:en": "Centre-Loire Valley", "name:fr": "Centre-Val de Loire", "name:is": "Centre-Loiredalur", "name:oc": "Centre - Vau de Léger", "name:ro": "Centru - Valea Loarei", "website": "http://www.regioncentre.fr/", "old_name": "Centre", "ref:NUTS": "FR24", "ref:INSEE": "24", "population": "2556835", "old_name:ar": "مركز", "old_name:be": "Цэнтр", "old_name:br": "Centre", "old_name:ca": "Centre", "old_name:de": "Zentrum", "old_name:eo": "Centro", "old_name:es": "Centro", "old_name:eu": "Centre", "old_name:fr": "Centre", "old_name:it": "Centro", "old_name:la": "Centrum", "old_name:pt": "Centro", "old_name:ru": "Центр", "old_name:uk": "Центр"}}, "center_lat": 47.48, "center_lon": 1.68, "area_m2": 39507375760, "timezone": "Europe/Paris", "population": 2576252, "wikidata_id": "Q13947", "wikipedia_id": "fr:Centre-Val de Loire"}}