{"type": "Feature", "geometry": {"type": "Polygon", "coordinates": [[[-51.652, 4.066], [-51.971, 3.707], [-52.326, 3.079], [-52.661, 2.374], [-52.957, 2.173], [-53.344, 2.351], [-53.461, 2.253], [-53.768, 2.375], [-54.139, 2.118], [-54.478, 2.216], [-54.601, 2.338], [-54.349, 2.521], [-54.206, 2.777], [-54.214, 3.151], [-54.012, 3.427], [-54.004, 3.563], [-54.358, 4.052], [-54.441, 4.42], [-54.486, 4.899], [-54.301, 5.234], [-54.008, 5.551], [-53.975, 5.748], [-53.049, 5.457], [-52.841, 5.34], [-52.39, 4.944], [-51.788, 4.578], [-51.652, 4.066]]]}, "properties": {"name": "French Guiana", "iso2": "FR-GF", "admin_level": 3, "osm_id": 1260551, "countrylevel_id": "iso2:FR-GF", "osm_data": {"localname": "Guyane", "official_name": "Région de la Guyane", "alltags": {"flag": "http://upload.wikimedia.org/wikipedia/commons/c/c3/Flag_of_France.svg", "name:af": "Frans-Guyana", "name:ak": "Frɛnkye Gayana", "name:am": "የፈረንሳይ ጉዊአና", "name:ar": "غيانا", "name:az": "Fransız Quyanası", "name:be": "Французская Гвіяна", "name:bg": "Френска Гвиана", "name:bm": "Faransi ka gwiyani", "name:bn": "ফরাসী গায়ানা", "name:br": "Gwiana c’hall", "name:bs": "Francuska Gvajana", "name:ca": "Guaiana Francesa", "name:cs": "Francouzská Guyana", "name:cy": "Guyane", "name:da": "Fransk Guyana", "name:dz": "གུའི་ཡ་ན་ ཕྲནས྄་མངའ་ཁོངས", "name:ee": "Frentsi Gayana nutome", "name:el": "Γαλλική Γουιάνα", "name:en": "French Guiana", "name:eo": "Franca Gviano", "name:es": "Guayana Francesa", "name:et": "Prantsuse Guajaana", "name:eu": "Guyana Frantsesa", "name:fa": "گویان فرانسه", "name:ff": "Giyaan Farayse", "name:fi": "Ranskan Guayana", "name:fo": "Fransk Gujana", "name:fr": "Guyane", "name:fy": "Frânsk Guyana", "name:ga": "Guáin na Fraince", "name:gd": "Guiana Fhrangach", "name:gl": "Güiana Francesa", "name:gu": "ફ્રેંચ ગયાના", "name:ha": "Gini Ta Faransa", "name:he": "גיאנה הצרפתית", "name:hi": "फ़्रांसीसी गिआना", "name:hr": "Francuska Gvajana", "name:hu": "Francia Guyana", "name:ia": "Guyana francese", "name:id": "Guyana Perancis", "name:is": "Franska Gvæjana", "name:it": "Guyana francese", "name:ja": "仏領ギアナ", "name:ki": "Gwiyana ya Ufaransa", "name:km": "ហ្វ្វេន​ហ្គៀណា", "name:kn": "ಫ್ರೆಂಚ್ ಗಯಾನಾ", "name:ko": "프랑스령 기아나", "name:ks": "فرٛانسِسی گِانا", "name:la": "Guiana Francica", "name:lg": "Guyana enfalansa", "name:li": "Frans Guyana", "name:ln": "Giyanɛ ya Falánsɛ", "name:lo": "ເຟັນສກິວນາ", "name:lt": "Prancūzijos Gviana", "name:lv": "Franču Gviāna", "name:mg": "Guyana frantsay", "name:mi": "Kaiana Wīwī", "name:mk": "Француска Гвајана", "name:ml": "ഫ്രഞ്ച് ഗയാന", "name:mn": "Франц Гвиана", "name:mr": "फ्रेंच गयाना", "name:ms": "French Guiana", "name:mt": "Gujana Franċiża", "name:my": "ပြင်သစ် ဂီယာနာ", "name:ne": "फ्रान्सेली गायना", "name:nl": "Frans-Guyana", "name:nn": "Fransk Guyana", "name:no": "Fransk Guyana", "name:or": "ଫ୍ରେଞ୍ଚ ଗୁଇନା", "name:pl": "Gujana Francuska", "name:pt": "Guiana Francesa", "name:rm": "Guyana Franzosa", "name:rn": "Gwayana y'Abafaransa", "name:ro": "Guyana Franceză", "name:ru": "Французская Гвиана", "name:se": "Frankriikka Guayana", "name:sg": "Güyâni tî farânzi", "name:si": "ප්රංශ ගයනාව", "name:sk": "Francúzska Guyana", "name:sl": "Francoska Gvajana", "name:sn": "French Guiana", "name:so": "French Guiana", "name:sr": "Француска Гвајана", "name:sv": "Franska Guyana", "name:sw": "Gwiyana ya Ufaransa", "name:te": "ఫ్రెంచ్ గియానా", "name:th": "เฟรนช์เกียนา", "name:ti": "የፈረንሳይ ጉዊአና", "name:to": "Falanise Kuiana", "name:tr": "Fransız Guyanası", "name:tt": "Француз Гвианасы", "name:uk": "Французька Гвіана", "name:ur": "فرینچ گیانا", "name:vi": "Guyane thuộc Pháp", "name:yo": "Orílẹ́ède Firenṣi Guana", "name:zh": "法属圭亚那", "name:zu": "isi-French Guiana", "currency": "EUR", "int_name": "French Guiana", "name:ast": "Guyana Francesa", "name:chr": "ᎠᏂᎦᎸᏥ ᎩᎠ", "name:fur": "Guiana francês", "name:kab": "Ɣana tafransist", "name:ksh": "Franzüüsesch Jujaana", "name:yue": "法屬圭亞那", "population": "237549", "border_type": "territorial", "description": "France, départements et régions d'outre-mer, territoires régis par l’article 73 de la Constitution", "old_name:fr": "Guyane française", "is_in:country": "France", "official_name": "Région de la Guyane", "description:en": "French overseas region and departement", "is_in:continent": "South America", "official_name:cs": "Region Francouzská Guyana", "country_code_fips": "FG", "is_in:country_code": "FR"}, "iso1": "GF"}, "center_lat": 3.92, "center_lon": -53.24, "area_m2": 84069186771, "timezone": "America/Cayenne", "population": 268700, "wikidata_id": "Q3769", "wikipedia_id": "fr:Guyane"}}