{"type": "Feature", "properties": {"name": "Homel Region", "iso2": "BY-HO", "admin_level": 4, "osm_id": 59161, "countrylevel_id": "iso2:BY-HO", "osm_data": {"localname": "Гомельская область", "official_name": "", "alltags": {"name:be": "Гомельская вобласць", "name:en": "Homel Region", "name:eo": "Homela regiono", "name:es": "Provincia de Gómel", "name:fr": "Voblast de Homiel", "name:ja": "ホメリ州", "name:lt": "Gomelio sritis", "name:pl": "obwód homelski", "name:ru": "Гомельская область", "name:sk": "Homeľská oblasť", "name:uk": "Гомєльська область", "website": "http://gomel-region.gov.by/", "int_name": "Homieĺskaja voblasć", "population": "1415749", "old_name:uk": "Гомельська область", "addr:country": "BY", "name:be-tarask": "Гомельская вобласьць", "population:date": "2018-01-01"}}, "center_lat": 52.31, "center_lon": 29.68, "timezone": "Europe/Minsk", "population": 1386600, "wikidata_id": "Q188732", "wikipedia_id": "ru:Гомельская область"}, "geometry": {"type": "MultiPolygon", "coordinates": [[[[27.517, 51.638], [27.669, 51.518], [28.807, 51.548], [29.167, 51.653], [29.359, 51.385], [30.18, 51.513], [30.539, 51.263], [30.509, 51.595], [31.14, 52.103], [31.782, 52.112], [31.361, 53.093], [31.003, 53.311], [29.756, 53.311], [29.726, 52.956], [29.169, 52.971], [28.468, 52.68], [28.345, 52.487], [27.275, 52.391], [27.536, 52.257], [27.517, 51.638]], [[31.533, 52.486], [31.533, 52.486], [31.533, 52.486], [31.533, 52.486]]]]}}