{"type": "Feature", "properties": {"name": "Mahilyow Region", "iso2": "BY-MA", "admin_level": 4, "osm_id": 59162, "countrylevel_id": "iso2:BY-MA", "osm_data": {"localname": "Могилёвская область", "official_name": "", "alltags": {"name:az": "Mogilyov vilayəti", "name:be": "Магілёўская вобласць", "name:en": "Mahilyow Region", "name:eo": "Mahilova regiono", "name:es": "Provincia de Maguilov", "name:fr": "Voblast de Mahiliow", "name:hu": "Mahiljovi terület", "name:ja": "マヒリョウ州", "name:ka": "მოგილევის ოლქი", "name:kk": "Могилев облысы", "name:ky": "Могилёв областы", "name:lt": "Mogiliovo sritis", "name:nl": "Oblast Mahiljow", "name:pl": "obwód mohylewski", "name:pt": "Voblast de Mahilou", "name:ro": "Regiunea Moghilău", "name:ru": "Могилёвская область", "name:sk": "Mahiľovská oblasť", "name:tr": "Mahilyov Voblastı", "name:uk": "Могильовська область", "name:uz": "Mogilyov viloyati", "website": "http://region.mogilev.by/", "int_name": "Mahilioŭskaja voblasć", "population": "1058746", "old_name:en": "Mogilev Region", "old_name:fr": "Voblast de Moguilev", "addr:country": "BY", "is_in:country": "Belarus", "name:be-tarask": "Магілёўская вобласьць", "is_in:continent": "Europe", "population:date": "2018-01-01", "is_in:country_code": "BY"}}, "center_lat": 53.63, "center_lon": 30.51, "timezone": "Europe/Minsk", "population": 1023000, "wikidata_id": "Q189822", "wikipedia_id": "be:Магілёўская вобласць"}, "geometry": {"type": "MultiPolygon", "coordinates": [[[[28.468, 52.68], [29.169, 52.971], [29.726, 52.956], [29.756, 53.311], [31.003, 53.311], [31.361, 53.093], [32.095, 53.076], [32.763, 53.424], [31.205, 54.47], [29.399, 54.245], [29.493, 53.806], [28.917, 53.53], [28.619, 53.613], [28.427, 53.278], [28.468, 52.68]]]]}}