{"type": "Feature", "geometry": {"type": "Polygon", "coordinates": [[[-120.001, 60], [-117.724, 60], [-114.832, 59.998], [-112.866, 59.999], [-110.006, 59.999], [-110.006, 58.995], [-110.006, 57.293], [-110.006, 55.722], [-110.006, 54.748], [-110.006, 53.074], [-110.005, 51.707], [-110.005, 50.368], [-110.005, 49], [-110.08, 49], [-110.192, 48.999], [-110.227, 48.999], [-110.353, 48.999], [-110.514, 48.999], [-110.589, 48.999], [-110.619, 48.999], [-110.717, 48.999], [-110.743, 48.999], [-110.826, 48.998], [-110.88, 48.998], [-110.925, 48.998], [-110.976, 48.998], [-111.09, 48.998], [-111.202, 48.997], [-111.259, 48.997], [-111.269, 48.997], [-111.319, 48.997], [-111.341, 48.997], [-111.445, 48.997], [-111.521, 48.997], [-111.576, 48.997], [-111.769, 48.998], [-111.954, 48.998], [-111.969, 48.998], [-111.973, 48.998], [-112.024, 48.999], [-112.101, 48.999], [-112.16, 48.999], [-112.194, 48.999], [-112.334, 48.999], [-112.393, 48.999], [-112.398, 48.999], [-112.439, 48.999], [-112.494, 48.999], [-112.531, 48.999], [-112.658, 48.999], [-112.788, 48.999], [-112.823, 48.999], [-112.924, 48.998], [-112.99, 48.999], [-113.141, 48.998], [-113.224, 48.998], [-113.26, 48.998], [-113.379, 48.998], [-113.461, 48.998], [-113.527, 48.998], [-113.582, 48.998], [-113.61, 48.998], [-113.651, 48.998], [-113.695, 48.998], [-113.77, 48.998], [-113.848, 48.998], [-113.906, 48.999], [-113.939, 48.999], [-114.059, 48.999], [-114.068, 48.999], [-114.175, 49.164], [-114.591, 49.397], [-114.732, 49.575], [-114.652, 49.993], [-114.792, 50.337], [-115.647, 50.875], [-115.651, 50.999], [-116.27, 51.313], [-116.683, 51.812], [-116.903, 51.704], [-117.336, 52.142], [-117.558, 52.127], [-118.216, 52.372], [-118.415, 52.768], [-118.729, 53.112], [-119.253, 53.19], [-119.671, 53.367], [-120.001, 53.799], [-120.001, 54.736], [-120.001, 56.135], [-120.001, 58.058], [-120.001, 60]]]}, "properties": {"name": "Alberta", "iso2": "CA-AB", "admin_level": 4, "osm_id": 391186, "countrylevel_id": "iso2:CA-AB", "osm_data": {"localname": "Alberta", "official_name": "", "alltags": {"ref": "AB", "name": "Alberta", "name:am": "አልቤርታ", "name:ar": "ألبرتا", "name:be": "Правінцыя Альберта", "name:bg": "Албърта", "name:br": "Alberta", "name:cs": "Alberta", "name:el": "Αλμπέρτα", "name:en": "Alberta", "name:eo": "Alberto", "name:fa": "آلبرتا", "name:fr": "Alberta", "name:he": "אלברטה", "name:hi": "अल्बर्टा", "name:hu": "Alberta", "name:hy": "Ալբերտա", "name:is": "Alberta", "name:ja": "アルバータ州", "name:ka": "ალბერტა", "name:kk": "Альберта", "name:kn": "ಆಲ್ಬರ್ಟಾ", "name:ko": "앨버타 주", "name:lt": "Alberta", "name:mk": "Алберта", "name:mn": "Альберта", "name:mr": "आल्बर्टा", "name:oc": "Albèrta", "name:os": "Альбертæ", "name:pa": "ਅਲਬਰਟਾ", "name:qu": "Alberta pruwinsya", "name:ru": "Альберта", "name:sl": "Alberta", "name:sr": "Алберта", "name:ta": "ஆல்பர்ட்டா", "name:th": "รัฐแอลเบอร์ตา", "name:ug": "Albérta", "name:uk": "Альберта", "name:ur": "البرٹا", "name:yi": "אלבערטא", "name:zh": "艾伯塔省", "boundary": "administrative", "name:ckb": "ئەلبێرتا", "state_code": "AB", "admin_level": "4", "border_type": "provincial", "is_in:country": "Canada", "is_in:continent": "North America", "is_in:country_code": "CA"}}, "center_lat": 55.17, "center_lon": -114.51, "area_m2": 661583300042, "timezone": "America/Edmonton", "population": 4306039, "wikidata_id": "Q1951", "wikipedia_id": "en:Alberta"}}