{"type": "Feature", "geometry": {"type": "Polygon", "coordinates": [[[-110.006, 59.999], [-108.554, 59.999], [-106.066, 59.998], [-103.423, 60], [-102.008, 59.999], [-102.007, 58.186], [-102.007, 56.594], [-101.964, 55.809], [-101.771, 54.064], [-101.638, 52.667], [-101.539, 51.302], [-101.477, 50.241], [-101.362, 48.999], [-101.457, 48.999], [-101.482, 48.999], [-101.497, 48.999], [-101.529, 48.999], [-101.558, 48.999], [-101.588, 48.999], [-101.617, 48.999], [-101.631, 48.999], [-101.647, 48.999], [-101.698, 48.999], [-101.754, 48.999], [-101.811, 48.999], [-101.857, 48.999], [-101.899, 48.999], [-101.931, 48.999], [-101.957, 48.999], [-101.981, 48.999], [-102.006, 48.999], [-102.012, 48.999], [-102.024, 48.999], [-102.047, 48.999], [-102.076, 48.999], [-102.113, 48.999], [-102.147, 48.999], [-102.181, 48.999], [-102.219, 48.999], [-102.275, 48.999], [-102.315, 48.999], [-102.378, 48.999], [-102.415, 48.999], [-102.457, 48.999], [-102.544, 48.999], [-102.55, 48.999], [-102.552, 48.999], [-102.566, 48.999], [-102.595, 48.999], [-102.687, 48.999], [-102.748, 48.999], [-102.78, 48.999], [-102.799, 48.999], [-102.813, 48.999], [-102.828, 48.999], [-102.851, 48.999], [-102.883, 48.999], [-102.91, 48.999], [-102.939, 48.999], [-102.981, 48.999], [-103.005, 48.999], [-103.049, 48.999], [-103.092, 48.999], [-103.114, 48.999], [-103.125, 48.999], [-103.18, 48.999], [-103.25, 48.999], [-103.29, 48.999], [-103.564, 48.999], [-103.575, 48.999], [-103.596, 48.999], [-103.609, 48.999], [-103.625, 48.999], [-103.643, 48.999], [-103.702, 48.999], [-103.75, 49], [-103.807, 48.999], [-103.809, 48.999], [-103.856, 49], [-104.02, 49], [-104.049, 49], [-104.099, 49], [-104.112, 49], [-104.195, 49], [-104.246, 49], [-104.292, 49], [-104.395, 49], [-104.411, 48.999], [-104.454, 48.999], [-104.544, 48.999], [-104.653, 48.999], [-104.685, 48.999], [-104.722, 48.999], [-104.811, 48.999], [-104.875, 48.999], [-104.958, 48.999], [-105.019, 48.999], [-105.055, 48.999], [-105.119, 48.999], [-105.211, 48.999], [-105.231, 48.999], [-105.368, 48.999], [-105.463, 49], [-105.561, 49], [-105.609, 49], [-105.612, 49], [-105.713, 49], [-105.815, 49], [-105.945, 49], [-106.005, 49], [-106.073, 49], [-106.141, 48.999], [-106.229, 48.999], [-106.362, 49], [-106.518, 49], [-106.541, 49], [-106.609, 49], [-106.704, 49], [-106.808, 49], [-106.916, 49], [-107.066, 49], [-107.145, 49], [-107.18, 49], [-107.209, 49], [-107.285, 49], [-107.322, 49], [-107.361, 49], [-107.416, 48.999], [-107.495, 48.999], [-107.596, 49], [-107.689, 49], [-107.781, 49], [-107.82, 49], [-107.913, 49], [-107.979, 49], [-108.01, 49], [-108.045, 49], [-108.11, 49], [-108.204, 49], [-108.237, 49], [-108.41, 48.999], [-108.424, 48.999], [-108.474, 49], [-108.524, 48.999], [-108.691, 48.999], [-108.757, 48.999], [-108.835, 48.999], [-108.87, 48.999], [-108.962, 48.999], [-109.056, 49], [-109.168, 49], [-109.212, 49], [-109.278, 49], [-109.365, 49], [-109.421, 49], [-109.461, 49], [-109.491, 49], [-109.516, 49], [-109.581, 49], [-109.674, 49], [-109.714, 49], [-109.808, 49], [-109.943, 49], [-110.001, 49], [-110.005, 49], [-110.005, 50.368], [-110.005, 51.707], [-110.006, 53.074], [-110.006, 54.748], [-110.006, 55.722], [-110.006, 57.293], [-110.006, 58.995], [-110.006, 59.999]]]}, "properties": {"name": "Saskatchewan", "iso2": "CA-SK", "admin_level": 4, "osm_id": 391178, "countrylevel_id": "iso2:CA-SK", "osm_data": {"localname": "Saskatchewan", "official_name": "", "alltags": {"ref": "SK", "name": "Saskatchewan", "name:am": "ሰስካቸወን", "name:ar": "ساسكاتشوان", "name:az": "Saskaçevan", "name:be": "Саскачэван", "name:bg": "Саскачеван", "name:br": "Saskatchewan", "name:cs": "Saskatchewan", "name:el": "Σασκάτσουαν", "name:en": "Saskatchewan", "name:eo": "Saskaĉevano", "name:et": "Saskatchewani provints", "name:fa": "ساسکاچوان", "name:fr": "Saskatchewan", "name:he": "ססקצ'ואן", "name:hi": "सैस्कैचेवेन", "name:hu": "Saskatchewan", "name:hy": "Սասկաչևան", "name:ja": "サスカチュワン州", "name:ka": "სასკაჩევანი", "name:ko": "서스캐처원 주", "name:ku": "Saskaçwan", "name:lt": "Saskačevanas", "name:lv": "Saskačevana", "name:mk": "Саскачеван", "name:mn": "Саскачеван", "name:mr": "सास्काचेवान", "name:os": "Саскачеван", "name:pa": "ਸਸਕਾਚਵਾਨ", "name:qu": "Saskatchewan pruwinsya", "name:ru": "Саскачеван", "name:sr": "Саскачеван", "name:ta": "சஸ்காச்சுவான்", "name:th": "รัฐซัสแคตเชวัน", "name:ug": "Saskachéwan", "name:uk": "Саскачеван", "name:ur": "ساسکچیوان", "name:uz": "Saskachevan", "name:wa": "Sascatchewane", "name:yi": "סאסקאטשעווען", "name:zh": "薩斯喀徹溫省", "boundary": "administrative", "name:ckb": "ساسکاچوان", "state_code": "SK", "admin_level": "4", "border_type": "provincial", "is_in:country": "Canada", "is_in:continent": "North America", "is_in:country_code": "CA"}}, "center_lat": 54.42, "center_lon": -105.89, "area_m2": 651002658248, "timezone": "America/Regina", "population": 1168057, "wikidata_id": "Q1989", "wikipedia_id": "en:Saskatchewan"}}