{"type": "Feature", "geometry": {"type": "Polygon", "coordinates": [[[24.001, 40.315], [24.011, 40.389], [24.182, 40.419], [24.448, 40.164], [24.23, 40.028], [24.001, 40.315]]]}, "properties": {"name": "Autonomous Monastic State of the Holy Mountain", "iso2": "GR-69", "admin_level": 3, "osm_id": 2135921, "countrylevel_id": "iso2:GR-69", "osm_data": {"localname": "Αυτόνομη Μοναστική Πολιτεία Αγίου Όρους", "official_name": "", "alltags": {"name:el": "Αυτόνομη Μοναστική Πολιτεία Αγίου Όρους", "name:en": "Autonomous Monastic State of the Holy Mountain", "name:es": "Estado Monástico Autónomo del Monte Athos", "name:fr": "République monastique du mont Athos", "name:mk": "Автономна Монашка Држава Света Гора", "name:nl": "Autonome Monastieke Staat van de Heilige Berg", "name:ru": "Автономное монашеское государство Святой Горы", "name:sr": "Аутономна монашка република Света Гора", "name:zh": "阿索斯山神权共和国", "ref:whc": "454", "heritage": "1", "alt_name:mk": "Автономна Монашка Република Света Гора", "alt_name:zh": "阿索斯山自治修道院州", "name:sr-Latn": "Autonomna monaška republika Sveta Gora", "wikipedia:en": "Mount Athos", "alt_name_1:zh": "阿索斯山", "heritage:operator": "whc", "whc:inscription_date": "1988"}}, "center_lat": 40.25, "center_lon": 24.19, "area_m2": 1134424948, "timezone": "Europe/Athens", "population": 2262, "wikidata_id": "Q130321", "wikipedia_id": "el:Άγιο Όρος"}}