{"type": "Feature", "geometry": {"type": "Polygon", "coordinates": [[[-5.513, 10.431], [-5.403, 10.854], [-5.475, 11.021], [-5.256, 11.244], [-5.2, 11.528], [-5.294, 11.617], [-5.127, 11.957], [-4.734, 12.004], [-4.649, 12.061], [-4.396, 12.311], [-4.365, 12.533], [-4.479, 12.722], [-4.234, 12.727], [-4.225, 12.974], [-4.346, 13.114], [-3.965, 13.506], [-3.443, 13.158], [-3.234, 13.289], [-3.247, 13.682], [-2.952, 13.625], [-2.839, 14.054], [-2.638, 14.17], [-2.474, 14.299], [-2.103, 14.147], [-1.98, 14.476], [-1.678, 14.502], [-1.318, 14.73], [-1.029, 14.819], [-0.745, 15.066], [-0.456, 15.084], [0.062, 14.975], [0.232, 15], [0.184, 14.486], [0.501, 13.881], [1.019, 13.523], [0.988, 13.084], [1.33, 12.831], [1.566, 12.612], [1.869, 12.605], [2.096, 12.726], [2.261, 12.415], [2.066, 12.347], [2.409, 11.903], [2.315, 11.68], [2.018, 11.427], [1.601, 11.398], [1.408, 11.457], [0.912, 10.996], [0.424, 11.024], [-0.108, 11.134], [-0.136, 11.14], [-0.428, 11.114], [-0.684, 10.997], [-0.893, 10.962], [-0.889, 10.98], [-1.426, 11.021], [-1.616, 10.985], [-2.715, 11.002], [-2.938, 10.708], [-2.766, 10.265], [-2.79, 10.159], [-2.75, 9.648], [-2.687, 9.492], [-2.926, 9.568], [-3.189, 9.936], [-3.896, 9.906], [-4.248, 9.765], [-4.313, 9.597], [-4.651, 9.71], [-4.97, 9.899], [-5.118, 10.288], [-5.369, 10.284], [-5.513, 10.431]]]}, "properties": {"name": "Burkina Faso", "iso1": "BF", "admin_level": 2, "osm_id": 192783, "countrylevel_id": "iso1:BF", "osm_data": {"localname": "Burkina Faso", "official_name": "République Démocratique du Burkina Faso", "alltags": {"flag": "http://upload.wikimedia.org/wikipedia/commons/3/31/Flag_of_Burkina_Faso.svg", "name:af": "Burkina Faso", "name:ak": "Burkina Faso", "name:am": "ቡርኪና ፋሶ", "name:an": "Burkina Faso", "name:ar": "بوركينا فاسو", "name:az": "Burkina-Faso", "name:ba": "Буркина́-Фасо́", "name:be": "Буркіна́-Фасо́", "name:bg": "Буркина Фасо", "name:bh": "बुर्किना फासो", "name:bm": "Burukina Faso", "name:bn": "বুর্কিনা ফাসো", "name:bo": "བུར་ཀི་ན་ཕ་སོ།", "name:br": "Burkina Faso", "name:bs": "Burkina Faso", "name:ca": "Burkina Faso", "name:ce": "Буркина-Фасо", "name:cs": "Burkina Faso", "name:cv": "Буркина Фасо", "name:cy": "Bwrcina Ffaso", "name:da": "Burkina Faso", "name:dv": "ބުރުކީނާ ފާސޯ", "name:dz": "བྷར་ཀི་ན་ ཕེ་སོ", "name:ee": "Burkina Faso", "name:el": "Μπουρκίνα Φάσο", "name:en": "Burkina Faso", "name:eo": "Burkina Faso", "name:es": "Burkina Faso", "name:et": "Burkina Faso", "name:eu": "Burkina Faso", "name:fa": "بورکینافاسو", "name:ff": "Burkina Faso", "name:fi": "Burkina Faso", "name:fo": "Burkina Faso", "name:fr": "Burkina Faso", "name:fy": "Boerkina Faso", "name:ga": "Buircíne Fasó", "name:gd": "Buirciona Faso", "name:gl": "Burquina Faso", "name:gu": "બુર્કિના ફાસો", "name:gv": "Burkina Faso", "name:ha": "Burkina faso", "name:he": "בורקינה פאסו", "name:hi": "बुर्किना फासो", "name:hr": "Burkina Faso", "name:ht": "Boukinafaso", "name:hu": "Burkina Faso", "name:hy": "Բուրկինա Ֆասո", "name:ia": "Burkina Faso", "name:id": "Burkina Faso", "name:ie": "Burkina Faso", "name:ig": "Burkina Faso", "name:io": "Burkina Faso", "name:is": "Búrkína Fasó", "name:it": "Burkina Faso", "name:ja": "ブルキナファソ", "name:jv": "Burkina Faso", "name:ka": "ბურკინა-ფასო", "name:kg": "Burkina Faso", "name:ki": "Burkina Faso", "name:kk": "Буркина Фасо", "name:km": "ប៊ូរគីណាហ្វាសូ", "name:kn": "ಬುರ್ಕೀನ ಫಾಸೊ", "name:ko": "부르키나파소", "name:ks": "بُرکِنا فیسو", "name:ku": "Burkîna Faso", "name:kw": "Burkina Faso", "name:ky": "Буркина-Фасо", "name:la": "Burkina Faso", "name:lb": "Burkina Faso", "name:lg": "Burkina Faso", "name:li": "Burkina Faso", "name:ln": "Burkina Faso", "name:lo": "ເບີກິນາຟາໂຊ", "name:lt": "Burkina Fasas", "name:lv": "Burkinafaso", "name:mg": "Borkina Faso", "name:mk": "Буркина Фасо", "name:ml": "ബർക്കിനാ ഫാസോ", "name:mn": "Буркина Фасо", "name:mr": "बर्किना फासो", "name:ms": "Burkina Faso", "name:mt": "Burkina Faso", "name:my": "ဘာကီးနားဖားဆိုနိုင်ငံ", "name:na": "Burkinabato", "name:ne": "बुर्किना फासो", "name:nl": "Burkina Faso", "name:nn": "Burkina Faso", "name:no": "Burkina Faso", "name:oc": "Burkina Faso", "name:om": "Burkinaa Faasoo", "name:or": "ବୁରକିନା ଫାସୋ", "name:os": "Буркина́-Фасо́", "name:pa": "ਬੁਰਕੀਨਾ ਫ਼ਾਸੋ", "name:pi": "बुर्कीना-फासो", "name:pl": "Burkina Faso", "name:ps": "بورکینا فاسو", "name:pt": "Burquina Faso", "name:qu": "Burkina Phasu", "name:rm": "Burkina Faso", "name:rn": "Burukina Faso", "name:ro": "Burkina Faso", "name:ru": "Буркина-Фасо", "name:rw": "Burukina Faso", "name:sa": "बुर्कीना-फासो", "name:sc": "Burkina Faso", "name:se": "Burkina Faso", "name:sg": "Burkina Faso", "name:sh": "Burkina Faso", "name:si": "බර්කිනා ෆාසෝ", "name:sk": "Burkina Faso", "name:sl": "Burkina Faso", "name:sm": "Burkina Faso", "name:sn": "Burkina Faso", "name:so": "Burkina Faso", "name:sq": "Burkina Faso", "name:sr": "Буркина Фасо", "name:ss": "iBhukhina-Faso", "name:st": "Burkina Faso", "name:su": "Burkina Faso", "name:sv": "Burkina Faso", "name:sw": "Burkina Faso", "name:ta": "புர்க்கினா பாசோ", "name:te": "బర్కీనా ఫాసో", "name:tg": "Буркина Фасо", "name:th": "บูร์กินาฟาโซ", "name:ti": "ቡርኪና ፋሶ", "name:tk": "Burkina-Faso", "name:tl": "Burkina Faso", "name:to": "Pekano Faso", "name:tr": "Burkina Faso", "name:ts": "Burkina Faso", "name:tt": "Буркина́ Фасо́", "name:ug": "بۇركىنا فاسو", "name:uk": "Буркіна́-Фасо́", "name:ur": "برکینا فاسو", "name:uz": "Burkina Faso", "name:vi": "Buốc-ki-na Pha-xô", "name:vo": "Burkinän", "name:wo": "Burkinaa Faaso", "name:yi": "בורקינע פֿאַסא", "name:yo": "Bùrkínà Fasò", "name:zh": "布基纳法索", "name:zu": "iBukhina Faso", "currency": "XOF", "int_name": "Burkina Faso", "name:ace": "Burkina Faso", "name:ady": "Буркина-Фасо", "name:als": "Burkina Faso", "name:ang": "Burkina Faso", "name:arz": "بوركينا فاسو", "name:ast": "Burkina Fasu", "name:azb": "بورکینافاسو", "name:bcl": "Burkina Faso", "name:bjn": "Burkina Paso", "name:bpy": "বুর্কিনা ফাসো", "name:bxr": "Буркино-Фасо", "name:cdo": "Burkina Faso", "name:ceb": "Burkina Faso", "name:chr": "ᏋᎩᎾ ᏩᏐ", "name:ckb": "بورکینافاسۆ", "name:crh": "Burkina Faso", "name:diq": "Burkina Faso", "name:dsb": "Burkina Faso", "name:dty": "बुर्किना फासो", "name:ext": "Burquina Fasu", "name:frp": "Burkina Fasô", "name:frr": "Burkiina Faaso", "name:gag": "Burkina Faso", "name:hak": "Burkina Faso", "name:haw": "Burakina Faso", "name:hif": "Burkina Faso", "name:hsb": "Burkina Faso", "name:ilo": "Burkina Faso", "name:jam": "Boerkiina Faso", "name:jbo": "burkinas fasos", "name:kaa": "Burkina Faso", "name:kab": "Burkina fasu", "name:kbp": "Purkina Fasoo", "name:ksh": "Bukkinna-Faase", "name:lad": "Burkina Faso", "name:lij": "Bòrkinn-a Fäso", "name:lmo": "Burkina Faso", "name:lrc": "بوٙرکینافاسو", "name:lzh": "布基納法索", "name:mai": "बुर्किना फासो", "name:min": "Burkina Faso", "name:mrj": "Буркина Фасо", "name:mzn": "بورکینافاسو", "name:nah": "Burquina Faso", "name:nan": "Burkina Faso", "name:nds": "Burkina Faso", "name:new": "बुर्किना फासो", "name:nov": "Burkina Faso", "name:nso": "Burkina Faso", "name:olo": "Burkina Faso", "name:pam": "Burkina Faso", "name:pap": "Burkina Faso", "name:pih": "Burkina Faso", "name:pms": "Burkina Faso", "name:pnb": "برکینا فاسو", "name:rue": "Буркіна Фасо", "name:sah": "Буркина Фасо", "name:scn": "Burchina Fasu", "name:sco": "Burkina Faso", "name:stq": "Burkina Faso", "name:szl": "Burkina Faso", "name:tok": "ma Pukinapaso", "name:tzl": "Burkina-Faso", "name:udm": "Буркина-Фасо", "name:vec": "Burkina Faso", "name:vep": "Burkina Faso", "name:vls": "Burkina Faso", "name:war": "Burkina Faso", "name:wuu": "布基納法索", "name:xal": "Буркинапасин Орн", "name:xmf": "ბურკინა-ფასო", "name:yue": "布基納法索", "name:zea": "Burkina Faso", "old_name": "République de Haute-Volta", "short_name": "Burkina", "alt_name:ba": "Буркина́ Фасо́", "alt_name:ce": "Буркина Фасо", "alt_name:fy": "Bûrkina Faso", "alt_name:gl": "Burkina Faso", "alt_name:ja": "ブルキナ共和国", "alt_name:kk": "Буркина-Фасо", "alt_name:ky": "Буркина Фасо", "alt_name:os": "Буркина Фасо", "alt_name:pt": "Burquina Fasso", "alt_name:ru": "Буркина Фасо", "alt_name:zh": "布吉納法索", "alt_name:zu": "iBhukina Faso", "name:nds-nl": "Burkina Faso", "old_name:af": "Republiek van Bo-Volta", "old_name:ar": "جمهورية فولتا العليا", "old_name:az": "Yuxarı Volta", "old_name:ba": "Ве́рхняя Во́льта", "old_name:br": "Volta Uhel", "old_name:bs": "Republika Gornja Volta", "old_name:ca": "Alt Volta", "old_name:cs": "Horní Volta", "old_name:cy": "Volta Uchaf", "old_name:da": "Republikken Øvre Volta", "old_name:de": "Republik Obervolta", "old_name:el": "Άνω Βόλτα", "old_name:en": "Republic of Upper Volta", "old_name:eo": "Respubliko de Supra Voltao", "old_name:es": "Alto Volta", "old_name:et": "Ülem-Volta", "old_name:eu": "Volta Garaia", "old_name:fi": "Ylä-Volta", "old_name:fo": "Ovara Volta", "old_name:fr": "République de Haute-Volta", "old_name:ga": "Volta Uachtarach", "old_name:gl": "Alto Volta", "old_name:ha": "kogin volta", "old_name:he": "רפובליקת וולטה העילית", "old_name:hr": "Gornja Volta", "old_name:hu": "Felső-Volta", "old_name:ia": "Alte Volta", "old_name:id": "Volta Hulu", "old_name:ie": "Alt Volta", "old_name:io": "Supra-Volta", "old_name:is": "Efri-Volta", "old_name:it": "Repubblica dell'Alto Volta", "old_name:ja": "オートボルタ", "old_name:ka": "ზემო ვოლტა", "old_name:ko": "오트볼타 공화국", "old_name:ky": "Жогорку Вольта Республикасы", "old_name:la": "Volta Superior", "old_name:li": "Opper-Volta", "old_name:lt": "Aukštutinės Voltos", "old_name:lv": "Augšvolta", "old_name:mk": "Горна Волта", "old_name:mn": "Дээд Вольта", "old_name:mr": "अप्पर व्होल्टाचे प्रजासत्ताक", "old_name:mt": "Repubblika tal-Volta ta' Fuq", "old_name:my": "အထက်ဗိုလ်တာသမ္မတနိုင်ငံ", "old_name:nl": "Opper-Volta;Boven-Volta", "old_name:nn": "Øvre Volta", "old_name:no": "Øvre Volta", "old_name:oc": "Auta Vòlta", "old_name:pl": "Górna Wolta", "old_name:pt": "República do Alto Volta", "old_name:ro": "Volta Superioară", "old_name:ru": "Верхняя Вольта", "old_name:sh": "Gornja Volta", "old_name:sk": "Republika Horná Volta", "old_name:sl": "Zgornja Volta", "old_name:sq": "Republika e Voltës së Sipërme", "old_name:sr": "Горња Волта", "old_name:sv": "Övre Volta", "old_name:sw": "Volta ya Juu", "old_name:ta": "அப்பர் வோல்ட்டா", "old_name:tl": "Republika ng Upper Volta", "old_name:tr": "Yukarı Volta", "old_name:tt": "Югары Вольта", "old_name:uk": "Республіки Верхня Вольта", "old_name:uz": "Yuqori Volta Respublikasi", "old_name:vi": "Cộng hòa Thượng Volta", "old_name:yi": "רעפובליק פון אויבער וואלטע", "old_name:yo": "Órile-ede Olominira Upper Volta", "old_name:zh": "上沃尔特", "alt_name:azb": "بورکینا-فاسو", "alt_name:bjn": "Burkina Faso", "alt_name:udm": "Буркина Фасо", "alt_name:xal": "Буркина Фасин Орн", "name:bat-smg": "Borkėna Fasos", "name:cbk-zam": "Burkina Faso", "name:fiu-vro": "Burkina Faso", "old_name:als": "Obervolta", "old_name:ast": "Altu Volta", "old_name:bjn": "Volta Hulu", "old_name:dsb": "Górna Wolta", "old_name:ext": "Altu Volta", "old_name:frp": "Hôta-Volta", "old_name:frr": "Boowervolta", "old_name:hak": "sông vok ngì thi̍t", "old_name:hif": "Upper Volta", "old_name:hsb": "Republika Hornja Wolta", "old_name:ilo": "Republika ti Akin-ngato a Volta", "old_name:lij": "Erto Volta", "old_name:lmo": "Volt Vòlta", "old_name:lzh": "上沃爾特", "old_name:min": "Volta Hulu", "old_name:nah": "Pani Volta", "old_name:nan": "Volta-hô Siōng-iû", "old_name:nds": "Obervolta", "old_name:new": "अपर भोल्टा गणतन्त्र", "old_name:olo": "Ylä-Vol'ta", "old_name:pms": "Àut Vòlta", "old_name:sah": "Үөһээ Вольта Республиката", "old_name:sco": "Republic o Upper Volta", "old_name:szl": "Gůrna Wolta", "old_name:vec": "Alto Volta", "old_name:vep": "Ülävol'tan Tazovaldkundaks", "old_name:vls": "Ipper Volta", "old_name:wuu": "上伏塔", "old_name:xmf": "ჟიშენი ვოლტა", "old_name:yue": "上伏塔", "old_name:zea": "Opper Volta", "official_name": "République Démocratique du Burkina Faso", "short_name:eo": "Burkino", "short_name:fi": "Burkina", "short_name:fr": "Burkina", "short_name:gd": "Buirciona", "short_name:hu": "Burkina", "short_name:ia": "Burkina", "short_name:kn": "ಬುರ್ಕೀನ", "short_name:la": "Burkina", "short_name:ml": "ബർക്കിനാ", "short_name:pa": "ਬੁਰਕੀਨਾ", "short_name:pt": "Burquina", "short_name:si": "බර්කිනා", "short_name:sk": "Burkina", "short_name:sq": "Burkina", "short_name:su": "Burkina", "short_name:ug": "بۇركىنا", "short_name:yo": "Burkina", "name:be-tarask": "Буркіна́-Фасо́", "name:zh_pinyin": "Bùjīnàfǎsuǒ", "short_name:ckb": "بورکینا", "short_name:frp": "Burkina", "short_name:ilo": "Burkina", "short_name:new": "बुर्किना", "short_name:sco": "Burkina", "is_in:continent": "Africa", "old_name:nds-nl": "Opper-Volta", "alt_name:bat-smg": "Burkina Fasos", "default_language": "fr", "official_name:an": "Republica de Burkina Faso", "official_name:ar": "جمهورية بوركينا فاسو", "official_name:fr": "République Démocratique du Burkina Faso", "official_name:sg": "Burkina Faso Ködörösêse", "official_name:wo": "Réewum Burkina Faaso", "official_name:scn": "Ripùbbrica dû Burchina Fasu"}}, "center_lat": 12.27, "center_lon": -1.75, "area_m2": 274226240561, "timezone": "Africa/Ouagadougou", "population": 19193382, "wikidata_id": "Q965", "wikipedia_id": "fr:Burkina Faso"}}