{"type": "Feature", "geometry": {"type": "MultiPolygon", "coordinates": [[[[50.48, 26.067], [50.48, 26.068], [50.447, 26.163], [50.505, 26.236], [50.503, 26.241], [50.502, 26.242], [50.503, 26.245], [50.502, 26.248], [50.506, 26.249], [50.506, 26.248], [50.517, 26.241], [50.503, 26.241], [50.506, 26.236], [50.515, 26.236], [50.516, 26.236], [50.603, 26.248], [50.604, 26.248], [50.603, 26.247], [50.578, 26.167], [50.618, 26.131], [50.619, 26.131], [50.605, 25.855], [50.459, 25.952], [50.48, 26.067]]], [[[50.616, 26.142], [50.625, 26.155], [50.625, 26.154], [50.616, 26.142]]], [[[50.624, 26.256], [50.59, 26.276], [50.634, 26.337], [50.681, 26.272], [50.624, 26.256]]]]}, "properties": {"name": "Bahrain", "iso1": "BH", "admin_level": 2, "osm_id": 378734, "countrylevel_id": "iso1:BH", "osm_data": {"localname": "‏البحرين‎", "official_name": "مملكة البحرين", "alltags": {"flag": "http://upload.wikimedia.org/wikipedia/commons/2/2c/Flag_of_Bahrain.svg", "name:af": "Bahrein", "name:ak": "Baren", "name:am": "ባሕሬን", "name:an": "Bahrein", "name:ar": "‏البحرين‎", "name:as": "বাহৰেইন", "name:az": "Bəhreyn", "name:ba": "Бахре́йн", "name:be": "Бахрэ́йн", "name:bg": "Бахрейн", "name:bh": "बहरीन", "name:bm": "Bareyini", "name:bn": "বাহরাইন", "name:bo": "བྷཧ་རཡིན།", "name:br": "Bahrein", "name:bs": "Bahrein", "name:ca": "Bahrain", "name:ce": "Бахьрайн", "name:cs": "Bahrajn", "name:cv": "Бахрейн", "name:cy": "Bahrein", "name:da": "Bahrain", "name:dv": "ބަޙްރައިން", "name:dz": "བཧ་རེན་", "name:ee": "Bahrain nutome", "name:el": "Μπαχρέιν", "name:en": "Bahrain", "name:eo": "Barejno", "name:es": "Baréin", "name:et": "Bahrein", "name:eu": "Bahrain", "name:fa": "بحرین", "name:ff": "Bahreyn", "name:fi": "Bahrain", "name:fo": "Barein", "name:fr": "Bahreïn", "name:fy": "Bachrein", "name:ga": "Bairéin", "name:gd": "Bachrain", "name:gl": "Bahrein", "name:gn": "Varéĩ", "name:gu": "બહેરીન", "name:gv": "Bahrain", "name:ha": "Baharain", "name:he": "בחריין", "name:hi": "बहरीन", "name:hr": "Bahrein", "name:ht": "Barayn", "name:hu": "Bahrein", "name:hy": "Բահրեյն", "name:ia": "Bahrain", "name:id": "Bahrain", "name:ie": "Bahrain", "name:io": "Bahrain", "name:is": "Barein", "name:it": "Bahrein", "name:ja": "バーレーン", "name:jv": "Bahrain", "name:ka": "ბაჰრეინი", "name:kg": "Bahrain", "name:ki": "Bahrain", "name:kk": "Бахрейн", "name:kl": "Bahrain", "name:km": "បារ៉ែន", "name:kn": "ಬಹರೇನ್", "name:ko": "바레인", "name:ks": "بحریٖن", "name:ku": "Behreyn", "name:kv": "Бахрейн", "name:kw": "Bahreyn", "name:ky": "Бахре́йн", "name:la": "Baharina", "name:lb": "Bahrain", "name:lg": "Baareeni", "name:li": "Bahrein", "name:ln": "Bahrein", "name:lo": "ບາເລນ", "name:lt": "Bahreinas", "name:lv": "Bahreina", "name:mg": "Baharainy", "name:mk": "Бахреин", "name:ml": "ബഹ്‌റൈൻ", "name:mn": "Бахрейн", "name:mr": "बहरैन", "name:ms": "Bahrain", "name:mt": "Baħrejn", "name:my": "ဘာရိန်းနိုင်ငံ", "name:na": "Bahrain", "name:ne": "बहराइन", "name:nl": "Bahrein", "name:nn": "Bahrain", "name:no": "Bahrain", "name:oc": "Bahrayn", "name:om": "Baahireen", "name:or": "ବାହାରିନ୍", "name:os": "Бахрейн", "name:pa": "ਬਹਿਰੀਨ", "name:pi": "बहरैन", "name:pl": "Bahrajn", "name:ps": "بحرین", "name:pt": "Bahrein", "name:qu": "Bahrayn", "name:rm": "Bahrain", "name:rn": "Bahareyini", "name:ro": "Bahrain", "name:ru": "Бахрейн", "name:rw": "Bahirayini", "name:sa": "बहरैन", "name:sd": "بحرين", "name:se": "Bahrain", "name:sg": "Bahrâina", "name:sh": "Bahrein", "name:si": "බහරේන්", "name:sk": "Bahrajn", "name:sl": "Bahrájn", "name:sm": "Bahrain", "name:sn": "Bahrain", "name:so": "Baxrayn", "name:sq": "Bahraini", "name:sr": "Бахреин", "name:ss": "iBhaharayi", "name:su": "Bahrain", "name:sv": "Bahrain", "name:sw": "Bahrain", "name:ta": "பகுரைன்", "name:te": "బహ్రయిన్", "name:tg": "Баҳрайн", "name:th": "บาห์เรน", "name:ti": "ባህሬን", "name:tk": "Bahreýn", "name:tl": "Bahrain", "name:to": "Paleini", "name:tr": "Bahreyn", "name:tt": "Бәхрәйн", "name:ug": "بەھرېيىن", "name:uk": "Бахре́йн", "name:ur": "بحرین", "name:uz": "Baxreyn", "name:vi": "Bahrain", "name:vo": "Bahruäns", "name:wo": "Bahrayni", "name:yi": "באכריין", "name:yo": "Báháráìnì", "name:zh": "巴林", "name:zu": "i-Bahrain", "int_name": "al-Baḥrayn", "name:ace": "Bahrain", "name:ady": "Бахрейн", "name:als": "Bahrain", "name:ang": "Bahrain", "name:arc": "ܒܚܪܝܢ", "name:arz": "البحرين", "name:ast": "Bahrain", "name:azb": "بحرئين", "name:bar": "Bahrain", "name:bcl": "Bahrein", "name:bpy": "বাহরাইন", "name:bug": "Bahrain", "name:bxr": "Баhрэйн", "name:cdo": "Bahrain", "name:ceb": "Bahrayn", "name:chr": "ᏆᎭᎴᎢᏂ", "name:ckb": "بەحرەین", "name:crh": "Bahreyn", "name:csb": "Bahrajn", "name:diq": "Behreyn", "name:dsb": "Bahrajn", "name:dty": "बहराइन", "name:ext": "Bahrein", "name:frp": "Bahreyin", "name:frr": "Bachrain", "name:fur": "Bahrain", "name:gag": "Bahreyn", "name:gom": "बहरैन", "name:hak": "Bahrain", "name:haw": "Baharaina", "name:hif": "Bahrain", "name:hsb": "Bahrain", "name:ilo": "Bahrain", "name:jam": "Baarien", "name:jbo": "barain", "name:kaa": "Baxreyn", "name:kab": "Baḥrayn", "name:kbd": "Бахрейн", "name:krc": "Бахре́йн", "name:ksh": "Bachrain", "name:lez": "Багьре́йн", "name:lij": "Bahrain", "name:lmo": "Bahrain", "name:lrc": "بأحرئین", "name:lzh": "巴林", "name:mai": "बहाराइन", "name:min": "Bahrain", "name:mzn": "بحرین", "name:nah": "Bahrein", "name:nan": "Bahrain", "name:nds": "Bahrain", "name:new": "बहरिन", "name:nov": "Barayn", "name:olo": "Bahrein", "name:pam": "Bahrain", "name:pap": "Bahrein", "name:pih": "Barain", "name:pms": "Bahrain", "name:pnb": "بحرین", "name:rue": "Бахрейн", "name:sah": "Баhрейн", "name:scn": "Bahrain", "name:sco": "Bahrain", "name:stq": "Bahrain", "name:szl": "Bahrajn", "name:tet": "Barein", "name:tok": "ma Palani", "name:tpi": "Bahrain", "name:tum": "Bahrain", "name:tzl": "Bac'hrein", "name:udm": "Бахрейн", "name:vec": "Bahrein", "name:vep": "Bahrein", "name:vls": "Bahreyn", "name:war": "Barein", "name:wuu": "巴林", "name:xal": "Бахрейнин", "name:xmf": "ბაჰრეინი", "name:yue": "巴林", "name:zea": "Bahrein", "alt_name:as": "কিংডম অৱ বাহৰেইন", "alt_name:de": "Bahrein", "alt_name:es": "Bahréin", "alt_name:gd": "Bairean;Bairèin;Bahrain", "alt_name:gl": "Bahrain", "alt_name:gn": "Tetã Varáĩ", "alt_name:it": "Bahrain", "alt_name:pt": "Barém;Barein;Bareine", "alt_name:rw": "Bahrayeni", "alt_name:sv": "Bahrein", "alt_name:ta": "பஹரைன்", "alt_name:tl": "Bahrein", "alt_name:yo": "Bahrain", "name:nds-nl": "Bagraain", "old_name:el": "Τύλος", "alt_name:ast": "Baḥréin", "alt_name:bar": "Bahrein", "alt_name:ckb": "بەحرێن", "alt_name:new": "बहराइन", "alt_name:vec": "Bahrain", "alt_name:war": "Bahrain", "name:bat-smg": "Bahreins", "name:cbk-zam": "Bahréin", "name:fiu-vro": "Bahrein", "name:ku-Arab": "بەهرەین", "official_name": "مملكة البحرين", "name:be-tarask": "Бахрэйн", "name:zh_pinyin": "Bālín", "default_language": "ar", "official_name:af": "Koninkryk van Bahrein", "official_name:am": "ባህሬን መንግሥት", "official_name:ar": "مملكة البحرين", "official_name:as": "বাহৰেইন সাম্ৰাজ্য", "official_name:az": "Bəhreyn Krallığı", "official_name:ba": "Бахре́йн короллеге", "official_name:be": "Карале́ўства Бахрэ́йн", "official_name:bg": "Кралство Бахрейн", "official_name:bn": "বাহরাইনের রাজ্য", "official_name:br": "Rouantelezh Bahrein", "official_name:bs": "Kraljevina Bahrein", "official_name:ca": "Regne de Bahrain", "official_name:ce": "Бахьрайнан Паччахьалла", "official_name:cs": "Království Bahrajn", "official_name:cv": "Бахрейн патшалахĕ", "official_name:cy": "Teyrnas Bahrein", "official_name:da": "Kongedømmet Bahrain", "official_name:de": "Königreich Bahrain", "official_name:el": "Βασίλειο του Μπαχρέιν", "official_name:en": "Kingdom of Bahrain", "official_name:eo": "Reĝlando de Barejno", "official_name:es": "Reino de Baréin", "official_name:et": "Bahreini Kuningriik", "official_name:eu": "Bahraingo Erresuma", "official_name:fa": "پادشاهی بحرین", "official_name:fi": "Bahrainin kuningaskunta", "official_name:fo": "Kongsríkið Barein", "official_name:fr": "Royaume de Bahreïn", "official_name:ga": "Ríocht Bhairéin", "official_name:gd": "Rioghach Bhachrain", "official_name:gl": "Reino de Bahrain", "official_name:gn": "Tetã Varéĩ", "official_name:gu": "બહેરીન રાજશાહી", "official_name:gv": "Reeriaght Vahrain", "official_name:he": "ממלכת בחריין", "official_name:hi": "बहरीन राजशाही", "official_name:hr": "Kraljevina Bahrein", "official_name:hu": "Bahreini Királyság", "official_name:ia": "Regno de Bahrain", "official_name:id": "Kerajaan Bahrain", "official_name:it": "Regno del Bahrein", "official_name:ja": "バーレーン王国", "official_name:jv": "Karajan Bahrain", "official_name:ka": "ბაჰრეინის სამეფო", "official_name:kk": "Бахрейн әмірлігі", "official_name:kl": "Kongedømmet Bahrain", "official_name:km": "ព្រះរាជាណាចក្របារ៉ែន", "official_name:kn": "ಬಹ್ರೇನ್ ರಾಜ್ಯ", "official_name:ko": "바레인 왕국", "official_name:kv": "Бахрейн корольув", "official_name:kw": "Rywvaneth Bahreyn", "official_name:ky": "Бахрейн Королдугу", "official_name:la": "status Bahreinensis", "official_name:lb": "Kinnekräich Bahrain", "official_name:li": "keuninkriek Bahrein", "official_name:lt": "Bahreino Karalystė", "official_name:lv": "Bahreinas Karaliste", "official_name:mk": "Кралството Бахреин", "official_name:ml": "കിംഗ്ഡം ഓഫ് ബഹ്‌റൈൻ", "official_name:mn": "Бахрейны Вант Улс", "official_name:ms": "Kerajaan Bahrain", "official_name:mt": "Renju tal-Baħrejn", "official_name:my": "ကင်းဒမ်းအော့ဖ် ဘာရိန်း", "official_name:ne": "बहराइन अधिराज्य", "official_name:nl": "Koninkrijk Bahrein", "official_name:nn": "kongedømet Bahrain", "official_name:no": "Kongedømmet Bahrain", "official_name:pl": "Królestwo Bahrajnu", "official_name:ps": "د بحرین پادشاهي", "official_name:pt": "Reino do Bahrein", "official_name:ro": "Regatul Bahrain", "official_name:ru": "Королевство Бахрейн", "official_name:sd": "مملڪتِ بحرين", "official_name:se": "Bahraina gonagasriika", "official_name:sh": "Kraljevina Bahrein", "official_name:si": "බහරේන් රාජධානිය ලෙසයි", "official_name:sk": "Bahrajnské kráľovstvo", "official_name:sl": "Kraljevína Bahrájn", "official_name:so": "Boqortooyada Baxrayn", "official_name:sq": "Mbretëria e Bahreinit", "official_name:sr": "Краљевина Бахреин", "official_name:su": "Karajaan Bahrain", "official_name:sv": "Staten Bahrain", "official_name:sw": "Ufalme wa Bahrain", "official_name:ta": "பகுரைன் அரசு", "official_name:te": "కింగ్‌డమ్ ఆఫ్ బహ్రయిన్", "official_name:th": "ราชอาณาจักรบาห์เรน", "official_name:tl": "Kaharian ng Bahrain", "official_name:tr": "Bahreyn Krallığı", "official_name:tt": "Бәхрәйн Мәмләкәте", "official_name:uk": "Королі́вство Бахре́йн", "official_name:ur": "مملکتِ بحرین", "official_name:uz": "Bahrayn qirolligi", "official_name:vi": "Vương quốc Bahrain", "official_name:wo": "nguur gu Bahrayni", "official_name:yi": "קעניגרייך פון באכריין", "official_name:yo": "Ile-Oba Bahrain", "official_name:zh": "巴林王国", "official_name:ady": "Пачъыхьыгъоу Бахрейн", "official_name:als": "Königriich Bahrain", "official_name:arc": "ܡܠܟܘܬܐ ܕܒܚܪܝܢ", "official_name:arz": "مملكة البحرين", "official_name:ast": "Reinu de Bahrain", "official_name:azb": "مملكة البحرين", "official_name:bar": "Kinereich Bahrain", "official_name:bpy": "রাজতান্ত্রিক বাহরাইন", "official_name:ceb": "Gingharian sa Bahrayn", "official_name:chr": "ᎤᎬᏫᏳᎯ ᎨᏒ ᎾᎿ ᏆᎭᎴᎢᏂ", "official_name:ckb": "شانشینی بەحرەین", "official_name:crh": "Bahreyn Malikligi", "official_name:dsb": "Kralojstwo Bahrajna", "official_name:ext": "Réinu de Bahrein", "official_name:frr": "Köningrik faan Bachrein", "official_name:haw": "Ke Aupuni Mōʻī o Baharaina", "official_name:hif": "Kingdom of Bahrain", "official_name:hsb": "Kralestwo Bahrajn", "official_name:ilo": "Pagarian ti Bahrain", "official_name:jam": "Kingdom a Baarien", "official_name:kbd": "Бахрейн Пэштыхьейм", "official_name:krc": "Бахрейн Королевство", "official_name:lez": "Паччахвал Багьре́йн", "official_name:lrc": "پاتئشایی بأحرئین", "official_name:lzh": "巴林王國", "official_name:mai": "बहरीन राजशाही", "official_name:min": "Karajoan Bahrain", "official_name:mzn": "مملکة البحرینة", "official_name:nah": "Huēyitlācatlahtohcāyōtl Bahrein", "official_name:nan": "Bahrain Ông-kok", "official_name:nds": "Königriek Bahrain", "official_name:new": "बहरिनया राजतन्त्र", "official_name:olo": "Bahreinan kuningaskundu", "official_name:pam": "Kaarian ning Bahrain", "official_name:sah": "Баhрейн Хоруоллуга", "official_name:scn": "Regnu di Bahrain", "official_name:sco": "Kinrick o Bahrain", "official_name:szl": "Krůlestwo Bahrajnu", "official_name:vec": "Regno del Bahrain", "official_name:vep": "Bahreinan Kunigahuz", "official_name:vls": "Keunienkryk Bahreyn", "official_name:xal": "Бахрейнин Нутуг", "official_name:xmf": "ბაჰრეინიშ ომაფე", "official_name:yue": "巴林王國", "official_name:nds-nl": "Keunenkriek Bagraain", "official_name:fiu-vro": "Bahreini Kuningriik", "official_name:be-tarask": "Каралеўства Бахрэйн"}}, "center_lat": 26.05, "center_lon": 50.56, "area_m2": 776935473, "timezone": "Asia/Bahrain", "population": 1492584, "wikidata_id": "Q398", "wikipedia_id": "ar:البحرين"}}