{"type": "Feature", "geometry": {"type": "Polygon", "coordinates": [[[105.623, -10.462], [105.675, -10.414], [105.706, -10.461], [105.675, -10.504], [105.623, -10.462]]]}, "properties": {"name": "Christmas Island", "iso1": "CX", "admin_level": 4, "osm_id": 2177207, "countrylevel_id": "iso1:CX", "osm_data": {"localname": "Christmas Island", "official_name": "Territory of Christmas Island", "alltags": {"is_in": "Australia", "name:af": "Christmas-eiland", "name:am": "የገና ደሴት", "name:ar": "جزيرة الميلاد", "name:az": "Çristmas Adası", "name:be": "Востраў Ражства", "name:bg": "Рождество", "name:bn": "ক্রিসমাস দ্বীপ", "name:br": "Enez Christmas", "name:bs": "Božićno ostrvo", "name:ca": "Illa Christmas", "name:cs": "Vánoční ostrov", "name:cy": "Ynys y Nadolig", "name:da": "Juleøen", "name:dz": "ཁི་རིསྟ་མེས་མཚོ་གླིང", "name:ee": "Kristmas ƒudomekpo nutome", "name:el": "Νήσος των Χριστουγέννων", "name:en": "Christmas Island", "name:eo": "Kristnaskinsulo", "name:es": "Isla de Navidad", "name:et": "Jõulusaar", "name:eu": "Christmas uhartea", "name:fa": "جزیره کریسمس", "name:fi": "Joulusaari", "name:fo": "Jólaoyggjin", "name:fr": "Île Christmas", "name:fy": "Krysteilân", "name:ga": "Oileán na Nollag", "name:gd": "Eilean na Nollaig", "name:gl": "Illa de Nadal", "name:gu": "ક્રિસમસ આઇલેંડ", "name:he": "איי כריסטמס", "name:hi": "क्रिसमस आईलैंड", "name:hr": "Božićni otok", "name:hu": "Karácsony-sziget", "name:ia": "Insula de Natal", "name:id": "Pulau Natal", "name:is": "Jólaeyja", "name:it": "Isola del Natale", "name:ja": "クリスマス島", "name:ka": "შობის კუნძული", "name:kk": "Кристмас аралы", "name:kl": "Jul-qeqertaq", "name:km": "កោះ​គ្រីស្មាស", "name:kn": "ಕ್ರಿಸ್ಮಸ್ ದ್ವೀಪ", "name:ko": "크리스마스 섬", "name:ks": "کرِسمَس جٔزیٖرٕ", "name:ku": "Girava Christmas", "name:kw": "Ynys Nadelik", "name:lb": "Chrëschtdagsinsel", "name:ln": "Esenga ya Mbótama", "name:lo": "ເກາະຄຣິສມາດ", "name:lt": "Kalėdų sala", "name:lv": "Ziemsvētku sala", "name:mk": "Божиќни Острови", "name:ml": "ക്രിസ്മസ് ദ്വീപ്", "name:mn": "Зул Сарын Арал", "name:mr": "क्रिसमस द्वीप", "name:ms": "Pulau Krismas", "name:my": "ခရစ်စမတ် ကျွန်း", "name:ne": "क्रिष्टमस टापु", "name:nl": "Christmaseiland", "name:nn": "Christmasøya", "name:no": "Christmasøya", "name:or": "ଖ୍ରୀଷ୍ଟମାସ ଆଇଲ୍ୟାଣ୍ଡ", "name:pl": "Wyspa Bożego Narodzenia", "name:pt": "Ilha Christmas", "name:rm": "Insla da Christmas", "name:ro": "Insula Crăciunului", "name:ru": "Остров Рождества", "name:se": "Juovllat-sullot", "name:sh": "Božićni otok", "name:si": "ක්‍රිස්ට්මස් දූපත්", "name:sk": "Vianočný ostrov", "name:sl": "Božični otoki", "name:sr": "Божићно Острво", "name:sv": "Julön", "name:sw": "Kisiwa cha Krismasi", "name:ta": "கிறிஸ்துமசு தீவு", "name:te": "క్రిస్మస్ దీవి", "name:th": "เกาะคริสต์มาส", "name:ti": "የገና ደሴቶች", "name:to": "Motu Kilisimasi", "name:tr": "Christmas Adası", "name:uk": "Острів Різдва", "name:ur": "کرسمس آئلینڈ", "name:uz": "Rojdestvo oroli", "name:vi": "Đảo Giáng Sinh", "name:wo": "Dunu Christmas", "name:zh": "圣诞岛", "name:zu": "I-Ostreliya", "int_name": "Christmas Island", "maritime": "yes", "name:ast": "Islla Christmas", "name:bpy": "ক্রিসমাস দ্বীপমালা", "name:chr": "ᏓᏂᏍᏓᏲᎯᎲ ᎤᎦᏚᏛ", "name:fur": "Isule Christmas", "name:ksh": "de Weihnaachs-Ensel", "name:lfn": "Isola Natal", "name:lij": "Isoa Christmas", "name:lzh": "聖誕島", "name:nan": "Christmas-tó", "name:tzl": "Ínsula Natal", "alt_name:vi": "Đảo Christmas", "geonames:id": "2078138", "name:zh-Hans": "圣诞岛", "name:zh-Hant": "聖誕島", "official_name": "Territory of Christmas Island", "Schalansky_ref": "64", "is_in:continent": "Oceania", "official_name:cs": "Území Vánoční ostrov", "official_name:es": "Territorio de la Isla de Navidad", "official_name:lv": "Ziemsvētku salas teritorija", "official_name:pl": "Terytorium Wyspy Bożego Narodzenia", "country_code_fips": "KT"}}, "center_lat": -10.49, "center_lon": 105.64, "area_m2": 136863161, "timezone": "Indian/Christmas", "population": 1843, "wikidata_id": "Q31063", "wikipedia_id": "en:Christmas Island"}}