{"type": "Feature", "geometry": {"type": "Polygon", "coordinates": [[[114.034, 22.506], [114.226, 22.544], [114.278, 22.394], [114.17, 22.293], [114.034, 22.506]]]}, "properties": {"name": "Hong Kong", "iso1": "HK", "admin_level": 3, "osm_id": 913110, "countrylevel_id": "iso1:HK", "osm_data": {"localname": "香港 Hong Kong", "official_name": "香港特別行政區 Hong Kong Special Administrative Region", "alltags": {"ref:en": "HK", "ref:vi": "Cảng", "ref:zh": "港", "name:ab": "Гонконг", "name:af": "Hongkong", "name:ak": "Hong Kong", "name:am": "ሆንግ ኮንግ", "name:an": "Hong Kong", "name:ar": "هونغ كونغ", "name:as": "হংকং", "name:az": "Honkonq", "name:ba": "Гонконг", "name:be": "Ганконг", "name:bg": "Хонконг", "name:bh": "हांगकांग", "name:bi": "Hong Kong", "name:bm": "Hong Kong", "name:bn": "হংকং", "name:bo": "ཧོང་ཀོང་།", "name:br": "Hong Kong", "name:bs": "Hong Kong", "name:ca": "Hong Kong", "name:ce": "Гонконг", "name:cs": "Hongkong", "name:cv": "Гонконг", "name:cy": "Hong Cong", "name:da": "Hongkong", "name:dv": "ހޮންކޮންގު", "name:ee": "Hong Kong", "name:el": "Χονγκ Κονγκ", "name:en": "Hong Kong", "name:eo": "Hongkongo", "name:es": "Hong Kong", "name:et": "Hongkong", "name:eu": "Hong Kong", "name:fa": "هنگ‌کنگ", "name:fi": "Hongkong", "name:fo": "Hongkong", "name:fr": "Hong Kong", "name:fy": "Hongkong", "name:ga": "Hong Cong", "name:gd": "Hong Kong", "name:gl": "Hong Kong", "name:gu": "હોંગકોંગ", "name:ha": "Hong Kong", "name:he": "הונג קונג", "name:hi": "हांगकांग", "name:hr": "Hong Kong", "name:ht": "Hong Kong", "name:hu": "Hong Kong", "name:hy": "Հոնկոնգ", "name:ia": "Hong Kong", "name:id": "Hong Kong", "name:ie": "Hongkong", "name:ig": "Hong Kong", "name:io": "Hong Kong", "name:is": "Hong Kong", "name:it": "Hong Kong", "name:ja": "香港", "name:jv": "Hong Kong", "name:ka": "ჰონგ-კონგი", "name:ki": "Hong Kong", "name:kk": "Гонконг", "name:kl": "Hongkong", "name:km": "ហុងកុង", "name:kn": "ಹಾಂಗ್ಕಾಂಗ್", "name:ko": "홍콩", "name:ku": "Hong Kong", "name:kw": "Hong Kong", "name:ky": "Гонконг", "name:la": "Hongcongum", "name:lb": "Hong Kong", "name:li": "Hong Kong", "name:ln": "Hong Kong", "name:lo": "ຮົງກົງ", "name:lt": "Honkongas", "name:lv": "Honkonga", "name:mg": "Hong Kong", "name:mi": "Hongipua", "name:mk": "Хонгконг", "name:ml": "ഹോങ്കോങ്", "name:mn": "Хонконг", "name:mr": "हाँग काँग", "name:ms": "Hong Kong", "name:my": "ဟောင်ကောင်", "name:ne": "हङकङ", "name:nl": "Hongkong", "name:nn": "Hongkong", "name:no": "Hongkong", "name:ny": "Hong Kong", "name:oc": "Hongkong", "name:or": "ହଂକଂ", "name:os": "Гонконг", "name:pa": "ਹਾਂਗਕਾਂਗ", "name:pl": "Hongkong", "name:ps": "هنګ کنګ", "name:pt": "Hong Kong", "name:qu": "Hong Kong", "name:ro": "Hong Kong", "name:ru": "Гонконг", "name:rw": "Hongo Kongo", "name:sa": "हांग् कांग् नगरम्", "name:sc": "Hong Kong", "name:si": "හොංකොං", "name:sk": "Hongkong", "name:sl": "Hong Kong", "name:so": "Hong Kong", "name:sq": "Hong Kong", "name:sr": "Хонгконг", "name:st": "Hong Kong", "name:su": "Hong Kong", "name:sv": "Hongkong", "name:sw": "Hong Kong", "name:ta": "ஃகொங்கொங்", "name:te": "హాంగ్‌కాంగ్", "name:tg": "Ҳонгконг", "name:th": "ฮ่องกง", "name:tk": "Gonkong", "name:tl": "Hong Kong", "name:tn": "Hong Kong", "name:tr": "Hong Kong", "name:tt": "Һоң Коң", "name:ug": "شياڭگاڭ", "name:uk": "Гонконґ", "name:ur": "ہانگ کانگ", "name:uz": "Hong Kong", "name:vi": "Hồng Kông", "name:vo": "Honkeän", "name:wa": "Hong Kong", "name:wo": "Ooŋ Koŋ", "name:xh": "Hong Kong", "name:yi": "האנג קאנג", "name:yo": "Họ́ng Kọng", "name:za": "Yanghgangj", "name:zh": "香港", "name:zu": "Hong Kong", "name:nan": "Hiong-káng", "name:yue": "香港", "population": "7346700", "short_name": "HK", "alt_name:cs": "Siang-kang;Voňavý přístav", "alt_name:eo": "Hongkongo", "alt_name:vi": "Hương Cảng", "name:zh-Hans": "香港", "name:zh-Hant": "香港", "name:yue-Latn": "Hoeng1 gong2", "official_name": "香港特別行政區 Hong Kong Special Administrative Region", "shortest_name": "HK", "name:zh_pinyin": "Xiāng gǎng", "population:date": "2016-07-01", "official_name:ar": "منطقة هونغ كونغ الإدارية الخاصة", "official_name:cs": "Zvláštní administrativní oblast Hongkong", "official_name:de": "Sonderverwaltungszone Hongkong", "official_name:en": "Hong Kong Special Administrative Region", "official_name:eo": "Speciala Administra Regiono de Honkongo", "official_name:fr": "Région administrative spéciale de Hong Kong", "official_name:nl": "Speciale Administratieve Regio Hongkong", "official_name:uk": "Особливий адміністративний район Гонконґ", "official_name:za": "Yanghgangj Dwzbez Hingzcwnggih", "official_name:zh": "香港特別行政區"}}, "center_lat": 22.38, "center_lon": 114.13, "area_m2": 1121887306, "timezone": "Asia/Hong_Kong", "population": 7500700, "wikidata_id": "Q8646", "wikipedia_id": "zh:香港"}}