{"type": "Feature", "geometry": {"type": "Polygon", "coordinates": [[[9.513, 47.085], [9.515, 47.122], [9.495, 47.157], [9.488, 47.19], [9.497, 47.207], [9.51, 47.232], [9.531, 47.271], [9.556, 47.252], [9.558, 47.231], [9.579, 47.195], [9.573, 47.188], [9.567, 47.173], [9.565, 47.17], [9.591, 47.165], [9.625, 47.118], [9.621, 47.111], [9.612, 47.079], [9.607, 47.061], [9.603, 47.062], [9.54, 47.065], [9.476, 47.052], [9.513, 47.085]]]}, "properties": {"name": "Liechtenstein", "iso1": "LI", "admin_level": 2, "osm_id": 1155955, "countrylevel_id": "iso1:LI", "osm_data": {"localname": "Liechtenstein", "official_name": "Fürstentum Liechtenstein", "alltags": {"flag": "http://upload.wikimedia.org/wikipedia/commons/4/47/Flag_of_Liechtenstein.svg", "name:ar": "ليختنشتاين", "name:be": "Лiхтэнштэйн", "name:bs": "Lihtenštajn", "name:cs": "Lichtenštejnsko", "name:el": "Λίχτενσταϊν", "name:en": "Liechtenstein", "name:eo": "Liĥtenŝtejno", "name:fa": "لیختن‌اشتاین", "name:fi": "Liechtenstein", "name:fo": "Liktinstein", "name:fr": "Liechtenstein", "name:fy": "Lychtenstein", "name:hr": "Lihtenštajn", "name:ia": "Liechtenstein", "name:io": "Liechtenstein", "name:it": "Liechtenstein", "name:ja": "リヒテンシュタイン", "name:ku": "Lînxiniştayn", "name:lt": "Lichtenšteinas", "name:mi": "Rīkeneteina", "name:mk": "Лихтенштајн", "name:nl": "Liechtenstein", "name:ru": "Лихтенштейн", "name:sk": "Lichtenštajnsko", "name:sr": "Лихтенштајн", "name:ta": "லீக்கின்ஸ்டைன்", "name:uk": "Ліхтенштейн", "name:vo": "Ligtänstän", "int_name": "Liechtenstein", "name:ckb": "لیختنشتاین", "name:jbo": "lixtenctain", "name:nds": "Liechtensteen", "name:tok": "ma Lisensan", "name:tzl": "Lic'htenschtain", "name:sr-Latn": "Lihtenštajn", "official_name": "Fürstentum Liechtenstein", "is_in:continent": "Europe", "default_language": "de", "official_name:cs": "Lichtenštejnské knížectví", "official_name:de": "Fürstentum Liechtenstein", "official_name:en": "Principality of Liechtenstein", "official_name:eo": "Princlando Liĥtenŝtejno", "official_name:es": "Principado de Liechtenstein", "official_name:fi": "Liechtensteinin ruhtinaskunta", "official_name:fr": "Principauté du Liechtenstein", "official_name:mk": "Кнежевство Лихтенштајн", "official_name:pl": "Księstwo Liechtensteinu", "official_name:ru": "Княжество Лихтенштейн", "official_name:sk": "Lichtenštajnské kniežatstvo"}}, "center_lat": 47.14, "center_lon": 9.55, "area_m2": 160314776, "timezone": "Europe/Vaduz", "population": 37922, "wikidata_id": "Q347", "wikipedia_id": "de:Liechtenstein"}}