{"type": "Feature", "geometry": {"type": "Polygon", "coordinates": [[[-63.088, 18.047], [-63.019, 18.057], [-63.026, 18.019], [-63.088, 18.047]]]}, "properties": {"name": "Sint Maarten (Netherlands)", "iso1": "SX", "admin_level": 3, "osm_id": 1231790, "countrylevel_id": "iso1:SX", "osm_data": {"localname": "Sint Maarten (Nederland)", "official_name": "Land Sint Maarten", "alltags": {"sqkm": "54", "name:af": "Sint Maarten (Nederlande)", "name:an": "Sint Maarten (Países Baixos)", "name:ar": "سينت مارتن ( مملكة هولندا)", "name:az": "Sint-Marten (Niderland)", "name:be": "Сінт-Мартэн (Нідэрланды)", "name:bg": "Синт Мартен (Нидерландия)", "name:br": "Sant-Martin (Izelvroioù)", "name:bs": "Sveti Martin (Holandija)", "name:ca": "Saint-Martin (Països Baixos)", "name:cs": "Svatý Martin (nizozemská část)", "name:cy": "Sint Maarten (Yr Iseldiroedd)", "name:da": "Sint Maarten (Holland)", "name:el": "Άγιος Μαρτίνος (Ολλανδία)", "name:en": "Sint Maarten (Netherlands)", "name:eo": "Sankta Marteno (Nederlando)", "name:es": "San Martín (Países Bajos)", "name:et": "Saint-Martini (Holland)", "name:eu": "San Martin (Herbehereak)", "name:fa": "سن مارتن (هلند)", "name:fi": "Saint-Martin (Alankomaat)", "name:fr": "Saint-Martin (Pays-Bas)", "name:fy": "Saint Martin (Nederlân)", "name:gl": "San Martiño (Países Baixos)", "name:he": "סנט מארטן (הולנד)", "name:hi": "सन्त मार्टिन (नीदरलैण्ड)", "name:hr": "Sveti Martin (Nizozemska)", "name:hu": "Szent Márton (Hollandia)", "name:hy": "Սեն Մարտեն (Նիդերլանդներ)", "name:id": "Saint Martin (Belanda)", "name:is": "Saint Martin (Holland)", "name:it": "Sint Maarten (Paesi Bassi)", "name:ja": "サン・マルタン (オランダ)", "name:ka": "სენ-მარტენი (ნიდერლანდები)", "name:kn": "ಸಿಂಟ್ ಮಾರ್ಟೆನ್ (ನೆದರ್ಲ್ಯಾಂಡ್ಸ್)", "name:ko": "신트 마틴 (네덜란드)", "name:la": "Sancti Martini (Nederlandia)", "name:li": "Sint Maarten (Nederland)", "name:lt": "San Martenas (Nīderlande)", "name:lv": "Senmartēna (Nīderlande)", "name:mk": "Свети Мартин (Холандија)", "name:mr": "सेंट मार्टिन (नेदरलँड्स)", "name:ms": "Saint Martin (Belanda)", "name:mt": "Saint Martin (Pajjiżi l-Baxxi)", "name:nb": "Saint Martin (Nederland)", "name:ne": "सेन्ट मार्टिन (नेदरल्यान्ड्स)", "name:nl": "Sint Maarten (Nederland)", "name:nn": "Saint Martin (Nederland)", "name:no": "Saint Martin (Nederland)", "name:oc": "Sant Martin (Païses Basses)", "name:os": "Сен-Мартен (Нидерландтæ)", "name:pl": "Sint Maarten (Holandia)", "name:pt": "São Martinho (Países Baixos)", "name:ro": "Sfântul Martin (Țările de Jos)", "name:ru": "Синт-Мартен (Нидерланды)", "name:sh": "Saint-Martin (Nizozemska)", "name:sk": "Svätý Martin (Holandsko)", "name:sr": "Свети Мартин (Холандија)", "name:su": "Saint Martin (Walanda)", "name:sv": "Saint Martin (Nederländerna)", "name:sw": "Saint Martin (Uholanzi)", "name:ta": "செயிண்ட் மார்டின் (நெதர்லாந்து)", "name:tl": "San Martin (Netherlands)", "name:tr": "Saint Martin (Hollanda)", "name:uk": "Сен-Мартен (Нідерланди)", "name:ur": "سینٹ مارٹن (نیدرلینڈز)", "name:vi": "Saint-Martin (Hà Lan)", "name:yo": "Saint Martin (Nẹ́dálándì)", "name:zh": "荷属圣马丁", "int_name": "Saint Martin (Dutch part)", "name:ast": "San Martín (Países Baxos)", "name:azb": "سنت مارتین فرانسه (هولند شاهلیغی)", "name:cdo": "Sint Maarten (Hò̤-làng)", "name:frr": "Sint Maarten (Nederlönje)", "name:gag": "Sent Martin (Niderland)", "name:gcf": "Sen Mawten (Peyiba)", "name:hak": "Sint-Maartin (Hò-làn)", "name:jam": "Sah Mahtah (Nedalanz)", "name:lfn": "San Marten (Nederland)", "name:lmo": "San Martin (Paes Bass)", "name:nan": "Sint Maarten (Hô-lân)", "name:pms": "San Martin (Pais Bass)", "name:pnb": "سینٹ مارٹن (نیدرلینڈز)", "name:sco": "Saunt Martin (Netherlands)", "name:war": "Saint Martin (Nederlandes)", "name:yue": "荷屬聖馬丁", "population": "37429", "description": "Kingdom of the Netherlands, constituent State", "capital_city": "Philipsburg", "name:zh-Hans": "荷属圣马丁", "name:zh-Hant": "荷屬聖馬丁", "official_name": "Land Sint Maarten", "name:be-tarask": "Сінт-Маартэн (Нідэрлянды)", "note:ISO3166-2:2": "Sint Maarten is a constituant state of the Kingdom of the Netherlands (ISO3166-1 country code NL)", "official_name:en": "Land of Sint Maarten", "official_name:fr": "État de Saint-Martin", "official_name:nl": "Land Sint Maarten"}}, "center_lat": 18.04, "center_lon": -63.06, "area_m2": 34070350, "timezone": "America/Lower_Princes", "population": 37132, "wikidata_id": "Q26273", "wikipedia_id": "nl:Sint Maarten (land)"}}