{"type": "Feature", "geometry": {"type": "Polygon", "coordinates": [[[26.22, 50.18], [26.79, 50.504], [27.196, 50.562], [27.249, 50.393], [27.664, 50.17], [27.547, 50.012], [27.817, 49.735], [27.751, 49.44], [27.867, 49.214], [27.383, 49.008], [27.372, 48.63], [26.567, 48.455], [26.443, 48.539], [26.247, 48.668], [26.181, 49], [26.269, 49.669], [26.145, 49.961], [26.22, 50.18]]]}, "properties": {"name": "Khmelnytskyi Oblast", "iso2": "UA-68", "admin_level": 4, "osm_id": 90742, "countrylevel_id": "iso2:UA-68", "osm_data": {"localname": "Хмельницька область", "official_name": "", "alltags": {"koatuu": "6800000000", "ref:en": "KHM", "ref:ru": "ХМЕ", "name:ar": "خملنيتسكي أوبلاست", "name:be": "Хмяльніцкая вобласць", "name:bg": "Хмелницка област", "name:ca": "Província de Khmelnytskyi", "name:cs": "Chmelnycká oblast", "name:en": "Khmelnytskyi Oblast", "name:eo": "Ĥmelnicka provinco", "name:es": "Óblast de Jmelnitski", "name:et": "Hmelnõtskõi oblast", "name:eu": "Khmelnytskyko oblasta", "name:fa": "استان خملنیتسکی", "name:fi": "Hmelnitskyin alue", "name:fr": "Oblast de Khmelnitski", "name:hr": "Hmeljnička oblast", "name:hu": "Hmelnickiji terület", "name:hy": "Խմելնիցկու մարզ", "name:id": "Oblast Khmelnytskyi", "name:it": "Oblast' di Chmel'nyc'kyj", "name:ja": "フメリヌィーツィクィイ州", "name:ka": "ხმელნიცკის ოლქი", "name:ko": "흐멜니츠키 주", "name:lt": "Chmelnyckio sritis", "name:lv": "Hmeļņickas apgabals", "name:mk": "Хмелничка област", "name:mr": "ख्मेल्नित्स्की ओब्लास्त", "name:nl": "Oblast Chmelnitski", "name:nn": "Khmelnytskyj oblast", "name:no": "Khmelnytskyj oblast", "name:pl": "Obwód chmielnicki", "name:pt": "Oblast de Khmelnitski", "name:ro": "Regiunea Hmelnițki", "name:ru": "Хмельницкая область", "name:sh": "Hmeljnička oblast", "name:sk": "Chmeľnycká oblasť", "name:sr": "Хмељничка област", "name:sv": "Chmelnytskyj oblast", "name:tr": "Hmelnitski Oblastı", "name:uk": "Хмельницька область", "name:vi": "Khmelnytskyi (tỉnh)", "name:zh": "赫梅利尼茨基州", "name:crh": "Hmelnıtskıy vilâyeti", "name:nan": "Xmelnyczkyj séng", "name:pnb": "خمیلنیتسکی اوبلاست", "name:rue": "Хмельницька область", "name:sco": "Khmelnytskyi Oblast", "name:szl": "Chmjylńicki uobwůd", "name:war": "Khmelnytskyi Oblast", "old_name": "Кам’янець-Подільська область", "alt_name:de": "Oblast Chmelnizki", "alt_name:en": "Khmelnitsky Oblast", "name:be-tarask": "Хмяльніцкая вобласьць"}}, "center_lat": 49.51, "center_lon": 26.93, "area_m2": 20603822242, "timezone": "Europe/Kiev", "population": 1274409, "wikidata_id": "Q171331", "wikipedia_id": "uk:Хмельницька область"}}