{"type": "Feature", "geometry": {"type": "Polygon", "coordinates": [[[25.628, 48.673], [26.2, 48.526], [26.443, 48.539], [26.567, 48.455], [27.372, 48.63], [27.534, 48.47], [27.236, 48.373], [26.765, 48.354], [26.63, 48.26], [26.335, 48.184], [26.099, 47.979], [25.311, 47.914], [24.947, 47.729], [24.922, 47.727], [24.912, 48.027], [25.312, 48.367], [25.621, 48.38], [25.628, 48.673]]]}, "properties": {"name": "Chernivtsi Oblast", "iso2": "UA-77", "admin_level": 4, "osm_id": 72526, "countrylevel_id": "iso2:UA-77", "osm_data": {"localname": "Чернівецька область", "official_name": "", "alltags": {"koatuu": "7300000000", "ref:en": "CRV", "ref:ru": "ЧРВ", "ref:uk": "ЧРВ", "name:ar": "تشيرنيفتسي أوبلاست", "name:be": "Чарнавіцкая вобласць", "name:bg": "Черновицка област", "name:ca": "Província de Txernivtsí", "name:cs": "Černovická oblast", "name:en": "Chernivtsi Oblast", "name:eo": "Ĉernivca provinco", "name:es": "Óblast de Chernivtsi", "name:et": "Tšernivtsi oblast", "name:eu": "Txernivtsiko oblasta", "name:fa": "استان چرنیوتسی", "name:fi": "Tšernivtsin alue", "name:fr": "Oblast de Tchernivtsi", "name:hr": "Černivecka oblast", "name:hu": "Csernyivci terület", "name:hy": "Չեռնովցիի մարզ", "name:id": "Oblast Chernivtsi", "name:it": "Oblast' di Černivci", "name:ja": "チェルニウツィー州", "name:ka": "ჩერნოვცის ოლქი", "name:ko": "체르니우치 주", "name:lt": "Černivcių sritis", "name:lv": "Černivcu apgabals", "name:mk": "Черновечка област", "name:mr": "चेर्निव्हत्सी ओब्लास्त", "name:ms": "Oblast Chernivtsi", "name:nl": "Oblast Tsjernivtsi", "name:nn": "Tsjernivtsi oblast", "name:no": "Tsjernivtsi oblast", "name:os": "Черновцыйы облæст", "name:pl": "Obwód czerniowiecki", "name:pt": "Oblast de Chernivtsi", "name:ro": "Regiunea Cernăuți", "name:ru": "Черновицкая область", "name:sh": "Černivecka oblast", "name:sk": "Černovická oblasť", "name:sr": "Чернивачка област", "name:sv": "Tjernivtsi oblast", "name:tr": "Çernovtsi Oblastı", "name:uk": "Чернівецька область", "name:vi": "Chernivtsi (tỉnh)", "name:zh": "切爾諾夫策州", "name:crh": "Çernivtsi vilâyeti", "name:nan": "Chernivci séng", "name:pnb": "چرنیوتسی اوبلاست", "name:rue": "Чернівецька область", "name:sco": "Chernivtsi Oblast", "name:szl": "Czerńowjecki uobwůd", "name:war": "Chernivtsi Oblast", "name:be-tarask": "Чарнавіцкая вобласьць"}}, "center_lat": 48.27, "center_lon": 25.98, "area_m2": 8093037315, "timezone": "Europe/Kiev", "population": 906701, "wikidata_id": "Q168856", "wikipedia_id": "uk:Чернівецька область"}}