{"type": "Feature", "geometry": {"type": "MultiPolygon", "coordinates": [[[[19.265, 40.504], [19.264, 40.504], [19.264, 40.505], [19.266, 40.508], [19.266, 40.509], [19.276, 40.509], [19.276, 40.508], [19.285, 40.503], [19.282, 40.503], [19.285, 40.501], [19.287, 40.48], [19.287, 40.479], [19.288, 40.478], [19.288, 40.477], [19.288, 40.476], [19.289, 40.476], [19.281, 40.475], [19.281, 40.474], [19.279, 40.476], [19.279, 40.477], [19.279, 40.478], [19.279, 40.479], [19.28, 40.479], [19.279, 40.479], [19.278, 40.48], [19.276, 40.484], [19.277, 40.484], [19.274, 40.491], [19.274, 40.49], [19.273, 40.49], [19.273, 40.492], [19.273, 40.491], [19.272, 40.492], [19.271, 40.492], [19.27, 40.492], [19.267, 40.498], [19.265, 40.501], [19.266, 40.502], [19.265, 40.502], [19.264, 40.503], [19.265, 40.504]]], [[[20.984, 40.801], [20.96, 40.772], [20.985, 40.757], [20.984, 40.737], [21.025, 40.709], [21.057, 40.668], [21.056, 40.617], [21.04, 40.592], [21.043, 40.558], [21.006, 40.552], [21, 40.535], [20.968, 40.519], [20.969, 40.488], [20.955, 40.469], [20.932, 40.463], [20.908, 40.476], [20.871, 40.471], [20.843, 40.48], [20.831, 40.454], [20.789, 40.43], [20.79, 40.362], [20.78, 40.348], [20.764, 40.322], [20.739, 40.312], [20.707, 40.268], [20.722, 40.254], [20.721, 40.216], [20.707, 40.199], [20.679, 40.19], [20.675, 40.165], [20.693, 40.154], [20.675, 40.126], [20.677, 40.103], [20.618, 40.083], [20.594, 40.071], [20.55, 40.064], [20.512, 40.083], [20.494, 40.065], [20.45, 40.074], [20.411, 40.052], [20.415, 40.035], [20.395, 39.998], [20.374, 39.989], [20.33, 39.994], [20.319, 39.974], [20.345, 39.946], [20.337, 39.925], [20.365, 39.904], [20.411, 39.844], [20.414, 39.815], [20.391, 39.789], [20.368, 39.788], [20.348, 39.804], [20.304, 39.817], [20.291, 39.801], [20.307, 39.781], [20.295, 39.755], [20.322, 39.735], [20.266, 39.695], [20.265, 39.671], [20.231, 39.685], [20.22, 39.646], [20.191, 39.645], [20.134, 39.654], [20.088, 39.683], [20.018, 39.697], [20.009, 39.692], [19.981, 39.704], [19.999, 39.742], [19.976, 39.747], [19.976, 39.748], [19.974, 39.749], [19.975, 39.75], [19.999, 39.793], [20.001, 39.8], [20.001, 39.801], [20.021, 39.846], [20.013, 39.873], [19.987, 39.87], [19.952, 39.894], [19.909, 39.908], [19.922, 39.92], [19.925, 39.924], [19.937, 39.942], [19.924, 39.955], [19.923, 39.957], [19.869, 40.031], [19.867, 40.034], [19.86, 40.04], [19.859, 40.041], [19.858, 40.042], [19.856, 40.043], [19.854, 40.044], [19.852, 40.045], [19.844, 40.049], [19.84, 40.05], [19.839, 40.05], [19.836, 40.051], [19.812, 40.047], [19.791, 40.068], [19.752, 40.083], [19.751, 40.099], [19.712, 40.113], [19.659, 40.125], [19.634, 40.144], [19.633, 40.144], [19.632, 40.144], [19.631, 40.144], [19.631, 40.145], [19.63, 40.145], [19.629, 40.145], [19.628, 40.144], [19.625, 40.145], [19.622, 40.147], [19.621, 40.147], [19.62, 40.148], [19.619, 40.149], [19.617, 40.15], [19.605, 40.158], [19.598, 40.16], [19.597, 40.16], [19.596, 40.161], [19.594, 40.161], [19.555, 40.179], [19.553, 40.179], [19.474, 40.214], [19.439, 40.241], [19.372, 40.308], [19.378, 40.315], [19.377, 40.316], [19.369, 40.337], [19.368, 40.338], [19.369, 40.338], [19.369, 40.34], [19.368, 40.344], [19.33, 40.389], [19.289, 40.423], [19.321, 40.439], [19.337, 40.434], [19.393, 40.391], [19.393, 40.39], [19.409, 40.363], [19.407, 40.34], [19.425, 40.321], [19.461, 40.33], [19.462, 40.331], [19.485, 40.352], [19.484, 40.353], [19.48, 40.362], [19.48, 40.363], [19.481, 40.365], [19.481, 40.366], [19.481, 40.367], [19.482, 40.369], [19.482, 40.371], [19.48, 40.374], [19.479, 40.375], [19.481, 40.39], [19.481, 40.391], [19.484, 40.416], [19.484, 40.418], [19.486, 40.418], [19.487, 40.421], [19.489, 40.422], [19.493, 40.429], [19.486, 40.451], [19.481, 40.452], [19.462, 40.461], [19.454, 40.47], [19.447, 40.475], [19.445, 40.477], [19.438, 40.484], [19.438, 40.485], [19.437, 40.486], [19.426, 40.497], [19.405, 40.499], [19.389, 40.519], [19.387, 40.521], [19.387, 40.522], [19.386, 40.522], [19.387, 40.522], [19.386, 40.529], [19.385, 40.529], [19.384, 40.53], [19.383, 40.531], [19.382, 40.532], [19.381, 40.532], [19.38, 40.532], [19.379, 40.532], [19.378, 40.534], [19.379, 40.536], [19.378, 40.537], [19.377, 40.539], [19.377, 40.54], [19.378, 40.54], [19.379, 40.54], [19.365, 40.583], [19.364, 40.584], [19.331, 40.633], [19.319, 40.643], [19.317, 40.644], [19.314, 40.647], [19.314, 40.649], [19.314, 40.651], [19.312, 40.665], [19.334, 40.676], [19.362, 40.709], [19.37, 40.741], [19.376, 40.794], [19.361, 40.826], [19.388, 40.841], [19.406, 40.893], [19.407, 40.896], [19.414, 40.912], [19.443, 40.936], [19.464, 40.954], [19.475, 40.977], [19.448, 40.996], [19.446, 40.999], [19.444, 41.001], [19.444, 41.03], [19.456, 41.069], [19.458, 41.083], [19.457, 41.104], [19.454, 41.117], [19.453, 41.12], [19.452, 41.12], [19.451, 41.122], [19.45, 41.123], [19.447, 41.132], [19.446, 41.132], [19.444, 41.134], [19.443, 41.136], [19.442, 41.137], [19.441, 41.138], [19.441, 41.139], [19.441, 41.141], [19.441, 41.142], [19.437, 41.146], [19.446, 41.148], [19.471, 41.159], [19.472, 41.161], [19.473, 41.163], [19.474, 41.175], [19.474, 41.176], [19.478, 41.182], [19.481, 41.187], [19.482, 41.19], [19.483, 41.191], [19.508, 41.223], [19.509, 41.225], [19.51, 41.225], [19.512, 41.23], [19.513, 41.231], [19.513, 41.232], [19.518, 41.266], [19.507, 41.288], [19.498, 41.298], [19.497, 41.299], [19.496, 41.3], [19.493, 41.301], [19.492, 41.303], [19.474, 41.314], [19.451, 41.301], [19.448, 41.304], [19.435, 41.31], [19.433, 41.313], [19.433, 41.314], [19.433, 41.317], [19.431, 41.32], [19.429, 41.321], [19.426, 41.323], [19.425, 41.323], [19.423, 41.324], [19.422, 41.325], [19.421, 41.325], [19.421, 41.326], [19.42, 41.328], [19.42, 41.329], [19.42, 41.33], [19.42, 41.331], [19.42, 41.332], [19.419, 41.334], [19.42, 41.336], [19.419, 41.337], [19.42, 41.338], [19.419, 41.339], [19.42, 41.341], [19.419, 41.341], [19.42, 41.342], [19.42, 41.343], [19.419, 41.344], [19.419, 41.345], [19.419, 41.347], [19.42, 41.357], [19.42, 41.364], [19.42, 41.367], [19.419, 41.368], [19.419, 41.369], [19.419, 41.373], [19.42, 41.373], [19.421, 41.373], [19.422, 41.374], [19.423, 41.381], [19.422, 41.385], [19.421, 41.386], [19.418, 41.389], [19.414, 41.391], [19.406, 41.394], [19.406, 41.395], [19.405, 41.396], [19.405, 41.397], [19.405, 41.399], [19.403, 41.401], [19.4, 41.403], [19.397, 41.406], [19.392, 41.41], [19.392, 41.411], [19.392, 41.414], [19.397, 41.413], [19.398, 41.413], [19.397, 41.412], [19.396, 41.412], [19.395, 41.412], [19.397, 41.41], [19.398, 41.41], [19.399, 41.411], [19.407, 41.405], [19.407, 41.401], [19.408, 41.4], [19.428, 41.398], [19.442, 41.401], [19.438, 41.407], [19.446, 41.426], [19.451, 41.434], [19.485, 41.454], [19.509, 41.487], [19.514, 41.504], [19.514, 41.518], [19.511, 41.533], [19.505, 41.541], [19.503, 41.541], [19.5, 41.542], [19.488, 41.544], [19.479, 41.547], [19.463, 41.555], [19.461, 41.561], [19.453, 41.579], [19.461, 41.583], [19.462, 41.583], [19.502, 41.57], [19.503, 41.57], [19.508, 41.569], [19.52, 41.569], [19.521, 41.569], [19.533, 41.57], [19.534, 41.57], [19.547, 41.574], [19.567, 41.585], [19.576, 41.597], [19.581, 41.605], [19.592, 41.618], [19.592, 41.622], [19.592, 41.626], [19.59, 41.635], [19.59, 41.636], [19.589, 41.636], [19.589, 41.637], [19.587, 41.64], [19.587, 41.642], [19.59, 41.638], [19.596, 41.64], [19.598, 41.642], [19.597, 41.642], [19.593, 41.645], [19.59, 41.645], [19.591, 41.645], [19.591, 41.646], [19.589, 41.648], [19.587, 41.649], [19.587, 41.648], [19.586, 41.648], [19.586, 41.646], [19.585, 41.646], [19.58, 41.642], [19.581, 41.642], [19.57, 41.638], [19.57, 41.656], [19.58, 41.689], [19.574, 41.745], [19.571, 41.749], [19.572, 41.749], [19.577, 41.767], [19.59, 41.765], [19.591, 41.763], [19.592, 41.764], [19.596, 41.766], [19.599, 41.805], [19.591, 41.813], [19.59, 41.813], [19.588, 41.814], [19.588, 41.813], [19.588, 41.814], [19.587, 41.814], [19.586, 41.814], [19.586, 41.813], [19.586, 41.812], [19.585, 41.812], [19.585, 41.811], [19.585, 41.81], [19.585, 41.809], [19.585, 41.808], [19.584, 41.809], [19.582, 41.809], [19.58, 41.811], [19.58, 41.81], [19.58, 41.809], [19.58, 41.81], [19.573, 41.813], [19.57, 41.814], [19.569, 41.815], [19.568, 41.816], [19.567, 41.817], [19.566, 41.817], [19.563, 41.818], [19.563, 41.819], [19.56, 41.821], [19.552, 41.825], [19.551, 41.826], [19.55, 41.827], [19.549, 41.828], [19.548, 41.828], [19.527, 41.838], [19.526, 41.838], [19.525, 41.839], [19.516, 41.842], [19.508, 41.845], [19.507, 41.845], [19.506, 41.845], [19.504, 41.846], [19.467, 41.855], [19.464, 41.856], [19.461, 41.856], [19.457, 41.857], [19.436, 41.86], [19.435, 41.86], [19.427, 41.861], [19.425, 41.862], [19.403, 41.854], [19.386, 41.85], [19.377, 41.847], [19.373, 41.849], [19.375, 41.876], [19.347, 41.914], [19.352, 41.958], [19.377, 41.974], [19.371, 42.037], [19.379, 42.065], [19.385, 42.079], [19.476, 42.055], [19.475, 42.126], [19.456, 42.149], [19.435, 42.156], [19.427, 42.184], [19.399, 42.191], [19.359, 42.219], [19.358, 42.236], [19.396, 42.272], [19.387, 42.283], [19.416, 42.31], [19.42, 42.33], [19.414, 42.351], [19.437, 42.381], [19.468, 42.389], [19.497, 42.431], [19.521, 42.451], [19.563, 42.501], [19.562, 42.514], [19.598, 42.529], [19.616, 42.543], [19.61, 42.576], [19.663, 42.629], [19.679, 42.628], [19.723, 42.661], [19.753, 42.639], [19.752, 42.614], [19.775, 42.592], [19.748, 42.573], [19.743, 42.545], [19.766, 42.502], [19.793, 42.481], [19.831, 42.466], [19.841, 42.48], [19.896, 42.485], [19.91, 42.507], [19.943, 42.518], [20.003, 42.51], [20.018, 42.544], [20.078, 42.556], [20.1, 42.533], [20.168, 42.506], [20.193, 42.453], [20.219, 42.436], [20.226, 42.414], [20.208, 42.402], [20.24, 42.38], [20.236, 42.347], [20.257, 42.319], [20.306, 42.315], [20.329, 42.328], [20.354, 42.31], [20.395, 42.299], [20.405, 42.285], [20.457, 42.272], [20.524, 42.211], [20.543, 42.161], [20.568, 42.121], [20.555, 42.083], [20.595, 42.043], [20.612, 41.985], [20.627, 41.961], [20.619, 41.939], [20.576, 41.917], [20.594, 41.877], [20.558, 41.868], [20.561, 41.845], [20.573, 41.798], [20.521, 41.751], [20.514, 41.723], [20.529, 41.685], [20.517, 41.663], [20.525, 41.636], [20.544, 41.622], [20.558, 41.582], [20.519, 41.563], [20.471, 41.559], [20.472, 41.53], [20.454, 41.522], [20.469, 41.498], [20.495, 41.492], [20.514, 41.437], [20.56, 41.408], [20.552, 41.377], [20.527, 41.354], [20.498, 41.347], [20.498, 41.322], [20.515, 41.287], [20.522, 41.246], [20.517, 41.238], [20.533, 41.199], [20.559, 41.182], [20.596, 41.133], [20.583, 41.115], [20.595, 41.095], [20.633, 41.087], [20.629, 41.075], [20.628, 41.074], [20.628, 41.073], [20.634, 41.069], [20.637, 41.067], [20.638, 41.067], [20.639, 41.067], [20.64, 41.067], [20.641, 41.067], [20.641, 41.066], [20.642, 41.066], [20.644, 41.067], [20.646, 41.069], [20.649, 41.057], [20.646, 41.051], [20.64, 41.05], [20.634, 41.047], [20.634, 41.046], [20.635, 41.043], [20.634, 41.011], [20.634, 41.01], [20.634, 41.009], [20.646, 40.961], [20.641, 40.947], [20.641, 40.946], [20.641, 40.944], [20.641, 40.938], [20.641, 40.93], [20.642, 40.93], [20.641, 40.929], [20.657, 40.904], [20.658, 40.903], [20.672, 40.902], [20.673, 40.902], [20.685, 40.901], [20.732, 40.911], [20.801, 40.898], [20.824, 40.904], [20.838, 40.928], [20.848, 40.938], [20.897, 40.919], [20.948, 40.923], [20.978, 40.89], [20.948, 40.88], [20.967, 40.852], [20.934, 40.832], [20.941, 40.806], [20.907, 40.789], [20.92, 40.763], [20.984, 40.801]]]]}, "properties": {"name": "Albania", "iso1": "AL", "admin_level": 2, "osm_id": 53292, "countrylevel_id": "iso1:AL", "osm_data": {"localname": "Shqip√´ria", "official_name": "Republika e Shqip√´ris√´", "alltags": {"flag": "http://upload.wikimedia.org/wikipedia/commons/3/36/Flag_of_Albania.svg", "name:ab": "–ê—Ä–Ω–∞—É—ã“≠—Ç”ô—ã–ª–∞", "name:af": "Albani√´", "name:ak": "Albania", "name:am": "·ä†·àç·â£·äí·ã´", "name:an": "Albania", "name:ar": "ÿ£ŸÑÿ®ÿßŸÜŸäÿß", "name:as": "‡¶Ü‡¶≤‡¶¨‡ßá‡¶®‡¶ø‡¶Ø‡¶º‡¶æ", "name:av": "–ê–ª–±–∞ÃÅ–Ω–∏—è", "name:az": "Albaniya", "name:ba": "–ê–ª–±–∞ÃÅ–Ω–∏—è", "name:be": "–ê–ª–±–∞ÃÅ–Ω—ñ—è", "name:bg": "–ê–ª–±–∞–Ω–∏—è", "name:bh": "‡§Ö‡§≤‡•ç‡§¨‡§æ‡§®‡§ø‡§Ø‡§æ", "name:bi": "Albania", "name:bm": "Alibani", "name:bn": "‡¶Ü‡¶≤‡¶¨‡ßá‡¶®‡¶ø‡¶Ø‡¶º‡¶æ", "name:bo": "‡Ω®‡Ω£‡ºã‡Ωî‡ºã‡Ωâ‡Ω≤‡ºã‡Ω°‡ºç", "name:br": "Albania", "name:bs": "Albanija", "name:ca": "Alb√†nia", "name:ce": "–ê–ª–±–∞ÃÅ–Ω–∏", "name:co": "Albania", "name:cs": "Alb√°nie", "name:cu": "–ê–ª–≤–∞–Ω—óÍôó", "name:cv": "–ê–ª–±–∞–Ω–∏", "name:cy": "Albania", "name:da": "Albanien", "name:dv": "ﬁáﬁ¶ﬁçﬁ∞ﬁÑﬁ≠ﬁÇﬁ®ﬁáﬁß", "name:dz": "‡Ω®‡Ω±‡Ω£‡ºã‡Ωñ‡Ω∫‡ºã‡Ωì‡Ω≤‡ºã‡Ω°", "name:ee": "Albania", "name:el": "ŒëŒªŒ≤Œ±ŒΩŒØŒ±", "name:en": "Albania", "name:eo": "Albanujo", "name:es": "Albania", "name:et": "Albaania", "name:eu": "Albania", "name:fa": "ÿ¢ŸÑÿ®ÿßŸÜ€å", "name:ff": "Albaniya", "name:fi": "Albania", "name:fo": "Albania", "name:fr": "Albanie", "name:fy": "Albaanje", "name:ga": "An Alb√°in", "name:gd": "Alb√†inia", "name:gl": "Albania", "name:gn": "Ava√±a", "name:gu": "‡™Ü‡™≤‡´ç‡™¨‡´á‡™®‡™ø‡™Ø‡™æ", "name:gv": "Yn Albaan", "name:ha": "Albaniya", "name:he": "◊ê÷∑◊ú÷∞◊ë÷∑÷º◊†÷∞◊ô÷∏◊î", "name:hi": "‡§Ö‡§≤‡•ç‡§¨‡§æ‡§®‡§ø‡§Ø‡§æ", "name:hr": "Albanija", "name:ht": "Albani", "name:hu": "Alb√°nia", "name:hy": "‘±’¨’¢’°’∂’´’°", "name:ia": "Albania", "name:id": "Albania", "name:ie": "Albania", "name:ig": "Albania", "name:io": "Albania", "name:is": "Alban√≠a", "name:it": "Albania", "name:ja": "„Ç¢„É´„Éê„Éã„Ç¢", "name:jv": "Albania", "name:ka": "·Éê·Éö·Éë·Éê·Éú·Éî·Éó·Éò", "name:kg": "Albania", "name:ki": "Ar≈©mbƒ©nia", "name:kk": "–ê–ª–±–∞–Ω–∏—è", "name:kl": "Albania", "name:km": "·û¢·û∂·ûõ·üã·ûî·û∂·ûì·û∏", "name:kn": "‡≤Ö‡≤≤‡≥ç‡≤¨‡≥á‡≤®‡≤ø‡≤Ø", "name:ko": "ÏïåÎ∞îÎãàÏïÑ", "name:ks": "ÿßŸÆ€™ŸÑÿ®ÿßŸÜŸê€åÿß", "name:ku": "Albanya", "name:kv": "–ê–ª–±–∞–Ω–∏—è", "name:kw": "Albani", "name:ky": "–ê–ª–±–∞–Ω–∏—è", "name:la": "Albania", "name:lb": "Albanien", "name:lg": "Alibaniya", "name:li": "Albani√´", "name:ln": "Albania", "name:lo": "‡ªÅ‡∫≠‡∫•‡ªÄ‡∫ö‡ªÄ‡∫ô‡∫ç", "name:lt": "Albanija", "name:lv": "AlbƒÅnija", "name:mg": "Albania", "name:mi": "Arapeinia", "name:mk": "–ê–ª–±–∞–Ω–∏—ò–∞", "name:ml": "‡¥Ö‡µΩ‡¥¨‡µá‡¥®‡¥ø‡¥Ø", "name:mn": "–ê–ª–±–∞–Ω–∏", "name:mr": "‡§Ü‡§≤‡•ç‡§¨‡•á‡§®‡§ø‡§Ø‡§æ", "name:ms": "Albania", "name:mt": "Albanija", "name:my": "·Ä°·Äö·Ä∫·Äú·Ä∫·Äò·Ä±·Ä∏·Äî·ÄÆ·Ä∏·Äö·Ä¨·Ä∏·Åè", "name:na": "Arbainiya", "name:ne": "‡§Ö‡§≤‡•ç‡§¨‡§æ‡§®‡§ø‡§Ø‡§æ", "name:nl": "Albani√´", "name:nn": "Albania", "name:no": "Albania", "name:nv": "Dzi≈Çigaii Bik√©yah", "name:oc": "Albania", "name:om": "Albeeniyaa", "name:or": "‡¨Ü‡¨≤‡¨¨‡¨æ‡¨®‡¨ø‡¨Ü", "name:os": "–ê–ª–±–∞–Ω–∏", "name:pa": "‡®Ö‡®≤‡®¨‡®æ‡®®‡©Ä‡®Ü", "name:pi": "‡§Ö‡§≤‡•ç‡§¨‡§æ‡§®‡§ø‡§Ø‡§æ", "name:pl": "Albania", "name:ps": "ÿßŸÑÿ®ÿßŸÜ€åÿß", "name:pt": "Alb√¢nia", "name:qu": "Albanya", "name:rm": "Albania", "name:rn": "Alubaniya", "name:ro": "Albania", "name:ru": "–ê–ª–±–∞–Ω–∏—è", "name:rw": "Alubaniya", "name:sa": "‡§Ö‡§≤‡•ç‡§¨‡•á‡§®‡§ø‡§Ø‡§æ", "name:sc": "Albania", "name:se": "Alb√°nia", "name:sg": "Alban√Øi", "name:sh": "Albanija", "name:si": "‡∂á‡∂Ω‡∑ä‡∂∂‡∑ö‡∂±‡∑í‡∂∫‡∑è‡∑Ä", "name:sk": "Alb√°nsko", "name:sl": "Albanija", "name:sn": "Albania", "name:so": "Albania", "name:sq": "Shqip√´ria", "name:sr": "–ê–ª–±–∞–Ω–∏—ò–∞", "name:ss": "I-Alibheniya", "name:st": "Albania", "name:su": "Albania", "name:sv": "Albanien", "name:sw": "Albania", "name:ta": "‡ÆÖ‡Æ≤‡Øç‡Æ™‡Øá‡Æ©‡Æø‡ÆØ‡Ææ", "name:te": "‡∞Ö‡∞≤‡±ç‡∞¨‡±á‡∞®‡∞ø‡∞Ø‡∞æ", "name:tg": "–ê–ª–±–∞–Ω–∏—è", "name:th": "‡∏õ‡∏£‡∏∞‡πÄ‡∏ó‡∏®‡πÅ‡∏≠‡∏•‡πÄ‡∏ö‡πÄ‡∏ô‡∏µ‡∏¢", "name:ti": "·ä†·àç·â£·äí·ã´", "name:tk": "Albani√Ωa", "name:tl": "Albanya", "name:to": " ªAlipania", "name:tr": "Arnavutluk", "name:ts": "Albania", "name:tt": "–ê–ª–±–∞–Ω–∏—è", "name:tw": "Albania", "name:ty": "Arapania", "name:ug": "ÿ¶ÿßŸÑÿ®ÿßŸÜŸâŸä€ï", "name:uk": "–ê–ª–±–∞ÃÅ–Ω—ñ—è", "name:ur": "ÿßŸÑÿ®ÿßŸÜ€åÿß", "name:uz": "Albaniya", "name:vi": "Albania", "name:vo": "Lalban√§n", "name:wo": "Albaani", "name:yi": "◊ê◊ú◊ë◊ê◊†◊ô◊¢", "name:yo": "Alb√°n√≠√†", "name:zh": "ÈòøÁàæÂ∑¥Â∞º‰∫û", "name:zu": "I-Albaniya", "int_name": "Albania", "name:ace": "Albania", "name:ady": "–ê–ª–±–∞–Ω–∏–µ", "name:als": "Albanien", "name:ang": "Albania", "name:arc": "‹ê‹†‹í‹¢‹ù‹ê", "name:arz": "ÿßŸÑÿ®ÿßŸÜŸäÿß", "name:ast": "Albania", "name:azb": "ÿ¢ŸÑÿ®ÿßŸÜ€å", "name:bar": "Oibanien", "name:bcl": "Albanya", "name:bpy": "‡¶Ü‡¶≤‡¶¨‡ßá‡¶®‡¶ø‡¶Ø‡¶º‡¶æ", "name:bxr": "–ê–ª–±–∞–Ω–∏", "name:cdo": "Albania", "name:ceb": "Albanya", "name:chr": "·é†·é∏·èá·èÇ·èØ", "name:ckb": "ÿ¶ÿßŸÑÿ®ÿßŸÜ€åÿß", "name:crh": "Arnavutlƒ±q", "name:csb": "Alba≈Ñsk√¥", "name:diq": "Arnawutiye", "name:dsb": "Alba≈Ñska", "name:dty": "‡§Ö‡§≤‡•ç‡§¨‡§æ‡§®‡§ø‡§Ø‡§æ", "name:eml": "Alban√Æ", "name:ext": "Alb√°nia", "name:frp": "Albanie", "name:frr": "Albaanien", "name:fur": "Albanie", "name:gag": "Albaniya", "name:gom": "‡§Ö‡§≤‡•ç‡§¨‡§æ‡§®‡§ø‡§Ø‡§æ", "name:got": "êå∞êåªêå±êå∞êåΩêåæêå∞", "name:hak": "√Ç-ng√¨-p√¢-n√¨-√¢", "name:haw": "‚ÄòAlepania", "name:hif": "Albania", "name:hsb": "Albanska", "name:ilo": "Albania", "name:jam": "Albienia", "name:jbo": "ckipyris", "name:kaa": "Albaniya", "name:kab": "Albanya", "name:kbd": "–ê–ª–±–∞–Ω–∏—ç", "name:koi": "–®—Ç–∏–ø—Ä–∏ÃÅ—è", "name:krc": "–ê–ª–±–∞–Ω–∏—è", "name:ksh": "Albanien", "name:lad": "◊ê◊ú◊ë◊ê◊†◊ô◊î", "name:lij": "Albania", "name:lmo": "Albania", "name:lrc": "ÿ¢ŸÑÿ®ÿßŸÜ€å", "name:ltg": "Albaneja", "name:lzh": "ÈòøÁàæÂ∑¥Â∞º‰∫û", "name:mai": "‡§Ö‡§≤‡•ç‡§¨‡§æ‡§®‡§ø‡§Ø‡§æ", "name:mdf": "–ê–ª–±–∞–Ω–∏—è", "name:mhr": "–ê–ª–±–∞–Ω–∏–π", "name:min": "Albania", "name:mrj": "–ê–ª–±–∞–Ω–∏", "name:mwl": "Alb√°nia", "name:myv": "–ê–ª–±–∞–Ω–∏—è", "name:mzn": "ÿ¢ŸÑÿ®ÿßŸÜ€å", "name:nah": "Albania", "name:nan": "Albania", "name:nap": "Albania", "name:nds": "Albanien", "name:new": "‡§Ö‡§≤‡•ç‡§¨‡§æ‡§®‡§ø‡§Ø‡§æ", "name:nov": "Albania", "name:olo": "Albuanii", "name:pag": "Shqip", "name:pam": "Albania", "name:pap": "Albania", "name:pcd": "Albanie", "name:pdc": "Albaani", "name:pih": "Elbanya", "name:pms": "Alban√¨a", "name:pnb": "ÿßŸÑÿ®ÿßŸÜ€åÿß", "name:pnt": "ŒëŒªŒ≤Œ±ŒΩŒØŒ±", "name:rmy": "Shkiperiya", "name:rue": "–ê–ª–±–∞–Ω—ñ—è", "name:sah": "–ê–ª–±–∞–Ω–∏—è", "name:scn": "Alban√¨a", "name:sco": "Albanie", "name:srn": "Albanikondre", "name:stq": "Albanien", "name:szl": "Alba≈Ñijo", "name:tet": "Alb√°nia", "name:tok": "ma Sipe", "name:tpi": "Albenia", "name:tum": "Albania", "name:tzl": "Schqiperia", "name:udm": "–ê–ª–±–∞–Ω–∏—è", "name:vec": "Alban√¨a", "name:vep": "Albanii", "name:vls": "Albani√´", "name:war": "Albanya", "name:wuu": "ÈòøÂ∞îÂ∑¥Â∞º‰∫ö", "name:xal": "–ê—Ä–Ω–≥—É–¥–∏–Ω –û—Ä–Ω", "name:xmf": "·Éê·Éö·Éë·Éê·Éú·Éî·Éó·Éò", "name:yue": "ÈòøÁàæÂ∑¥Â∞º‰∫û", "name:zea": "Albani√´", "ref:nuts": "AL", "population": "2876591", "ref:nuts:1": "AL", "alt_name:ab": "–ê–ª–±–∞–Ω–∏–∞", "alt_name:eo": "Albanio", "alt_name:qu": "Shkipirya", "alt_name:tt": "–ê—Ä–Ω–∞—É—Ç–ª—ã–∫", "alt_name:uk": "–®–∫—ñ–ø–µ—Ä—ñ—è", "name:nds-nl": "Albani√´", "alt_name:rmy": "Albaniya", "alt_name:war": "Albania", "capital_city": "Tirana", "name:bat-smg": "Albanƒójƒó", "name:cbk-zam": "Albania", "name:fiu-vro": "Albaania", "name:roa-rup": "Arbinishia", "name:roa-tara": "Albanie", "official_name": "Republika e Shqip√´ris√´", "name:be-tarask": "–ê–ª—å–±–∞ÃÅ–Ω—ñ—è", "name:zh_pinyin": "ƒÄƒõrbƒÅn√≠y√†", "alt_name:roa-rup": "Arbini»ôia", "default_language": "sq", "official_name:ab": "–ê—Ä–Ω–∞—É—ã“≠—Ç”ô—ã–ª–∞ –ê“≥”ô—ã–Ω“≠“õ–∞—Ä—Ä–∞", "official_name:af": "Republiek Albani√´", "official_name:am": "·ã®·ä£·àç·â£·äí·ã´ ·à¨·çë·â•·àä·ä≠", "official_name:ar": "ÿ¨ŸÖŸáŸàÿ±Ÿäÿ© ÿ£ŸÑÿ®ÿßŸÜŸäÿß", "official_name:av": "–†–µ—Å–ø—ÉÃÅ–±–ª–∏–∫–∞ –ê–ª–±–∞ÃÅ–Ω–∏—è", "official_name:az": "Albaniya Respublikasƒ±", "official_name:ba": "–ê–ª–±–∞–Ω–∏—è –†–µ—Å–ø—É–±–ª–∏–∫–∞“ª—ã", "official_name:be": "–†—ç—Å–ø—ÉÃÅ–±–ª—ñ–∫–∞ –ê–ª–±–∞ÃÅ–Ω—ñ—è", "official_name:bg": "–†–µ–ø—É–±–ª–∏–∫–∞ –ê–ª–±–∞–Ω–∏—è", "official_name:bn": "‡¶™‡ßç‡¶∞‡¶ú‡¶æ‡¶§‡¶®‡ßç‡¶§‡ßç‡¶∞‡ßÄ ‡¶Ü‡¶≤‡¶¨‡ßá‡¶®‡¶ø‡¶Ø‡¶º‡¶æ", "official_name:br": "Republik Albania", "official_name:bs": "Republika Albanija", "official_name:ce": "–ê–ª–±–∞–Ω–∏ –†–µ—Å–ø—É–±–ª–∏–∫–∞", "official_name:co": "Republica d'Albania", "official_name:cs": "Alb√°nsk√° republika", "official_name:cu": "–ê–ª–≤–∞–Ω—ñÃÅÍôó –î–∏–º–æ–∫—Ä–∞—Ç—ñÃÅÍôó", "official_name:cv": "–ê–ª–±–∞–Ω–∏ —Ä–µ—Å–ø—É–±–ª–∏–∫–∏", "official_name:cy": "Gweriniaeth Albania", "official_name:da": "Republikken Albanien", "official_name:de": "Republik Albanien", "official_name:el": "ŒîŒ∑ŒºŒøŒ∫œÅŒ±œÑŒØŒ± œÑŒ∑œÇ ŒëŒªŒ≤Œ±ŒΩŒØŒ±œÇ", "official_name:en": "Republic of Albania", "official_name:eo": "Respubliko Albanujo", "official_name:es": "Rep√∫blica de Albania", "official_name:et": "Albaania Vabariik", "official_name:eu": "Albaniako Errepublika", "official_name:fa": "ÿ¨ŸÖŸáŸàÿ±€å ÿ¢ŸÑÿ®ÿßŸÜ€å", "official_name:ff": "Republik bu Albaniya", "official_name:fi": "Albanian tasavalta", "official_name:fo": "L√Ω√∞veldi√∞ Albania", "official_name:fr": "R√©publique d'Albanie", "official_name:ga": "Poblacht na hAlb√°ine", "official_name:gd": "Poblachd Alb√†inia", "official_name:gl": "Rep√∫blica de Albania", "official_name:gn": "Tet√£ Ava√±a", "official_name:gu": "‡™Ü‡™≤‡´ç‡™¨‡´á‡™®‡™ø‡™Ø‡™æ ‡™ó‡™£‡™∞‡™æ‡™ú‡´ç‡™Ø", "official_name:gv": "Pobblaght ny h-Albaan", "official_name:he": "◊®÷∂◊§÷º◊ï÷º◊ë÷∞÷º◊ú÷¥◊ô◊ß÷∑◊™ ◊ê÷∑◊ú÷∞◊ë÷∑÷º◊†÷∞◊ô÷∏◊î", "official_name:hi": "‡§Ö‡§≤‡•ç‡§¨‡§æ‡§®‡§ø‡§Ø‡§æ ‡§ó‡§£‡§∞‡§æ‡§ú‡•ç‡§Ø", "official_name:hr": "Republika Albanija", "official_name:hu": "Alb√°n K√∂zt√°rsas√°g", "official_name:hy": "‘±’¨’¢’°’∂’´’°’µ’´ ’Ä’°’∂÷Ä’°’∫’•’ø’∏÷Ç’©’µ’∏÷Ç’∂", "official_name:ia": "Republica de Albania", "official_name:id": "Republik Albania", "official_name:ig": "Republic nke Albania", "official_name:is": "L√Ω√∞veldi√∞ Alban√≠a", "official_name:it": "Repubblica d'Albania", "official_name:ja": "„Ç¢„É´„Éê„Éã„Ç¢ÂÖ±ÂíåÂõΩ", "official_name:ka": "·Éê·Éö·Éë·Éê·Éú·Éî·Éó·Éò·É° ·É†·Éî·É°·Éû·É£·Éë·Éö·Éò·Éô·Éê", "official_name:kg": "Repubilika ya Albania", "official_name:kk": "–ê–ª–±–∞–Ω–∏—è –†–µ—Å–ø—É–±–ª–∏–∫–∞—Å—ã", "official_name:kl": "Kunngiitsuuffik Albania", "official_name:km": "·ûî·üí·ûö·ûë·üÅ·ûü·û¢·û∂·ûõ·üã·ûî·û∂·ûì·û∏", "official_name:kn": "‡≤Ö‡≤≤‡≥ç‡≤¨‡≥á‡≤®‡≤ø‡≤Ø ‡≤ó‡≤£‡≤∞‡≤æ‡≤ú‡≥ç‡≤Ø", "official_name:ko": "ÏïåÎ∞îÎãàÏïÑ Í≥µÌôîÍµ≠", "official_name:ku": "Komara Albanyay√™", "official_name:kv": "–ê–ª–±–∞–Ω–∏—è –†–µ—Å–ø—É–±–ª–∏–∫–∞", "official_name:kw": "Repoblek Albani", "official_name:ky": "–ê–ª–±–∞–Ω –†–µ—Å–ø—É–±–ª–∏–∫–∞—Å—ã", "official_name:lb": "Republik Albanien", "official_name:ln": "Republ√≠ki ya Albania", "official_name:lt": "Albanijos Respublika", "official_name:lv": "AlbƒÅnijas Republika", "official_name:mk": "–†–µ–ø—É–±–ª–∏–∫–∞ –ê–ª–±–∞–Ω–∏—ò–∞", "official_name:mn": "–ë“Ø–≥–¥ –ù–∞–π—Ä–∞–º–¥–∞—Ö –ê–ª–±–∞–Ω–∏ –£–ª—Å", "official_name:mr": "‡§Ü‡§≤‡•ç‡§¨‡•á‡§®‡§ø‡§Ø‡§æ‡§ö‡•á ‡§™‡•ç‡§∞‡§ú‡§æ‡§∏‡§§‡•ç‡§§‡§æ‡§ï", "official_name:ms": "Republik Albania", "official_name:mt": "Repubblika tal-Albanija", "official_name:my": "·Ä°·Äö·Ä∫·Äú·Ä∫·Äò·Ä±·Ä∏·Äî·ÄÆ·Ä∏·Äö·Ä¨·Ä∏ ·Äû·Äô·Äπ·Äô·Äê·Äî·Ä≠·ÄØ·ÄÑ·Ä∫·ÄÑ·Ä∂", "official_name:ne": "‡§ó‡§£‡§§‡§®‡•ç‡§§‡•ç‡§∞ ‡§Ö‡§≤‡•ç‡§¨‡§æ‡§®‡§ø‡§Ø‡§æ", "official_name:nl": "Republiek Albani√´", "official_name:nn": "Republikken Albania", "official_name:no": "Republikken Albania", "official_name:or": "‡¨Ü‡¨≤‡¨¨‡¨æ‡¨®‡¨ø‡¨Ü ‡¨ó‡¨£‡¨§‡¨®‡≠ç‡¨§‡≠ç‡¨∞", "official_name:os": "–†–µ—Å–ø—É–±–ª–∏–∫√¶ –ê–ª–±–∞–Ω–∏", "official_name:pa": "‡®Ö‡®≤‡®¨‡®æ‡®®‡©Ä‡®Ü ‡®¶‡®æ ‡®ó‡®£‡®∞‡®æ‡®ú", "official_name:pl": "Republika Albanii", "official_name:ps": "ÿØ ÿßŸÑÿ®ÿßŸÜŸäÿß ÿ¨ŸÖŸáŸàÿ±Ÿäÿ™", "official_name:pt": "Rep√∫blica da Alb√¢nia", "official_name:qu": "Albanya Ripuwlika", "official_name:rm": "Republica Albania", "official_name:ro": "Republica Albania", "official_name:ru": "–†–µ—Å–ø—É–±–ª–∏–∫–∞ –ê–ª–±–∞–Ω–∏—è", "official_name:rw": "Repebulika y‚ÄôAlubaniya", "official_name:se": "Alb√°nia d√°ssev√°ldi", "official_name:sh": "Republika Albanija", "official_name:sk": "Alb√°nska republika", "official_name:sl": "Republika Albanija", "official_name:so": "Jamhuuriyadda Albania", "official_name:sq": "Republika e Shqip√´ris√´", "official_name:sr": "–†–µ–ø—É–±–ª–∏–∫–∞ –ê–ª–±–∞–Ω–∏—ò–∞", "official_name:sv": "Republiken Albanien", "official_name:sw": "Jamhuri ya Albania", "official_name:ta": "‡ÆÖ‡Æ≤‡Øç‡Æ™‡Øá‡Æ©‡Æø‡ÆØ ‡Æï‡ØÅ‡Æü‡Æø‡ÆØ‡Æ∞‡Æö‡ØÅ", "official_name:te": "‡∞∞‡∞ø‡∞™‡∞¨‡±ç‡∞≤‡∞ø‡∞ï‡±ç ‡∞Ü‡∞´‡±ç ‡∞Ö‡∞≤‡±ç‡∞¨‡±á‡∞®‡∞ø‡∞Ø‡∞æ", "official_name:tg": "“∂—É–º“≥—É—Ä–∏–∏ –ê–ª–±–∞–Ω–∏—è", "official_name:th": "‡∏™‡∏≤‡∏ò‡∏≤‡∏£‡∏ì‡∏£‡∏±‡∏ê‡πÅ‡∏≠‡∏•‡πÄ‡∏ö‡πÄ‡∏ô‡∏µ‡∏¢", "official_name:tk": "Albani√Ωa Respublikasy", "official_name:tl": "Republika ng Albanya", "official_name:tr": "Arnavutluk Cumhuriyeti", "official_name:tt": "–ê–ª–±–∞–Ω–∏—è “ñ”©–º“ª“Ø—Ä–∏—è—Ç–µ", "official_name:uk": "–†–µ—Å–ø—É–±–ª—ñ–∫–∞ –ê–ª–±–∞–Ω—ñ—è", "official_name:ur": "ÿ¨ŸÖ€ÅŸàÿ±€å€Å ÿßŸÑÿ®ÿßŸÜ€åÿß", "official_name:uz": "Albaniya Respublikasi", "official_name:vi": "C·ªông ho√† Albania", "official_name:wo": "Republik bu Albaani", "official_name:yo": "Or√≠l·∫πÃÄ√≤m√¨nira il·∫πÃÄ Alb√°n√≠√†", "official_name:zh": "ÈòøÂ∞îÂ∑¥Â∞º‰∫öÂÖ±ÂíåÂõΩ", "official_name:ace": "R√®publik Albania", "official_name:ady": "–†–µ—Å–ø—É–±–ª–∏–∫—ç—É –ê–ª–±–∞–Ω–∏–µ", "official_name:als": "Republik Albanie", "official_name:ang": "Albania Cynewise", "official_name:arc": "‹©‹ò‹õ‹¢‹ù‹ò‹¨‹ê ‹ï‹ê‹†‹í‹¢‹ù‹ê", "official_name:bcl": "Republika kan Albanya", "official_name:bpy": "‡¶™‡ßç‡¶∞‡¶ú‡¶æ‡¶§‡¶®‡ßç‡¶§‡ßç‡¶∞‡¶ø ‡¶Ü‡¶≤‡¶¨‡ßá‡¶®‡¶ø‡¶Ø‡¶º‡¶æ", "official_name:ceb": "Republika sa Albanya", "official_name:chr": "·èç·é¶·èö·é© ·éæ·éø ·é†·éµ·èá·èÇ·èØ", "official_name:ckb": "⁄©€ÜŸÖÿßÿ±€å ÿ¶ÿßŸÑÿ®ÿßŸÜ€åÿß", "official_name:crh": "Arnavutlƒ±q Cumhuriyeti", "official_name:dsb": "Republika Alba≈Ñska", "official_name:dty": "‡§ó‡§£‡§§‡§®‡•ç‡§§‡•ç‡§∞ ‡§Ö‡§≤‡•ç‡§¨‡§æ‡§®‡§ø‡§Ø‡§æ", "official_name:eml": "Rep√≥bblica d'l Alban√Æ", "official_name:ext": "Rep√∫brica d'Alb√°nia", "official_name:frr": "Republiik faan Albaanien", "official_name:haw": "Lepupalika o  ªAlepania", "official_name:hsb": "Albanska republika", "official_name:ilo": "Republika iti Albania", "official_name:jam": "Ripoblik a Albienia", "official_name:kbd": "–ê–ª–±–∞ÃÅ–Ω–∏—ç –†–µ—Å–ø—ÉÃÅ–±–ª–∏–∫—ç", "official_name:koi": "–®—Ç–∏–ø—Ç–∞—Ä –†–µ—Å–ø—É–±–ª–∏–∫–∞", "official_name:krc": "–ê–ª–±–∞–Ω–∏—è –†–µ—Å–ø—É–±–ª–∏–∫–∞", "official_name:lad": "Republika de Albania", "official_name:lmo": "Republica de Albania", "official_name:lrc": "⁄©ŸàŸôŸÖÿ£ÿ±Ÿá ⁄§ŸàŸÑÿßÿ™ ÿ¢ŸÑÿ®ÿßŸÜ€å", "official_name:lzh": "ÈòøÁàæÂ∑¥Â∞º‰∫ûÂÖ±ÂíåÂúã", "official_name:mai": "‡§Ö‡§≤‡•ç‡§¨‡§æ‡§®‡§ø‡§Ø‡§æ ‡§ó‡§£‡§∞‡§æ‡§ú‡•ç‡§Ø", "official_name:mrj": "–†–µ—Å–ø—ÉÃÅ–±–ª–∏–∫–∞ –ê–ª–±–∞ÃÅ–Ω–∏—è", "official_name:myv": "–ê–ª–±–∞–Ω–∏—è –ú–∞—Å—Ç–æ—Ä", "official_name:nah": "TlƒÅcatlahtohcƒÅy≈çtl Albania", "official_name:nan": "Albania Ki≈çng-h√¥-kok", "official_name:nap": "Repubbreca 'e Albania", "official_name:nds": "Republiek Albanien", "official_name:new": "‡§Ö‡§≤‡•ç‡§¨‡§æ‡§®‡§ø‡§Ø‡§æ ‡§ó‡§£‡§∞‡§æ‡§ú‡•ç‡§Ø", "official_name:nov": "Republike de Albania", "official_name:pam": "Republika ning Albania", "official_name:pap": "Republika di Albania", "official_name:pcd": "R√©publique d'Albanie", "official_name:pnt": "ŒîŒ∑ŒºŒøŒ∫œÅŒ±œÑŒØŒ±ŒΩ œÑ' ŒëŒªŒ≤Œ±ŒΩŒØŒ±œÇ", "official_name:rue": "–ê–ª–±–∞–Ω—å—Å–∫–∞ —Ä–µ–ø—É–±–ª—ñ–∫–∞", "official_name:sah": "–ê–ª–±–∞–Ω–∏—è –†–µ—Å–ø—É–±–ª–∏–∫–∞—Ç–∞", "official_name:sco": "Republic o Albanie", "official_name:srn": "Repoliku fu Albani", "official_name:szl": "Republika Alba≈Ñije", "official_name:tet": "Rep√∫blika Alb√°nia niam", "official_name:tpi": "Ripablik bilong Albenia", "official_name:udm": "–†–µ—Å–ø—É–±–ª–∏–∫–∞ –ê–ª–±–∞–Ω–∏—è", "official_name:vec": "Repubblica di Albania", "official_name:vep": "Albanijan Tazovaldkund", "official_name:vls": "Republiek Albani√´", "official_name:war": "Republika han Albanya", "official_name:wuu": "ÈòøÁàæÂ∑¥Â∞º‰∫ûÂÖ±ÂíåÂúã", "official_name:yue": "ÈòøÁàæÂ∑¥Â∞º‰∫ûÂÖ±ÂíåÂúã", "official_name:zea": "Rippebliek Albani√´", "official_name:nds-nl": "Reppubliek Albani√´", "official_name:bat-smg": "Albanƒójƒós Respoblƒóka", "official_name:fiu-vro": "Albaania Vabariik", "official_name:roa-rup": "Republica Arbinishia", "official_name:roa-tara": "Repubbleche de Albanie", "official_name:be-tarask": "–†—ç—Å–ø—É–±–ª—ñ–∫–∞ –ê–ª—å–±–∞–Ω—ñ—è"}}, "center_lat": 41.13, "center_lon": 20.06, "area_m2": 28499279580, "timezone": "Europe/Tirane", "population": 2873457, "wikidata_id": "Q222", "wikipedia_id": "sq:Shqip√´ria"}}