{"type": "Feature", "geometry": {"type": "Polygon", "coordinates": [[[12.446, 41.902], [12.451, 41.906], [12.458, 41.906], [12.455, 41.9], [12.446, 41.902]]]}, "properties": {"name": "Vatican City", "iso1": "VA", "admin_level": 2, "osm_id": 36989, "countrylevel_id": "iso1:VA", "osm_data": {"localname": "Civitas Vaticana", "official_name": "Stato della Città del Vaticano", "alltags": {"flag": "http://upload.wikimedia.org/wikipedia/commons/0/00/Flag_of_the_Vatican_City.svg", "capital": "yes", "country": "yes", "name:af": "Vatikaanstad", "name:am": "ቫቲካን ከተማ", "name:an": "Ciudat d'o Vaticano", "name:ar": "الفاتيكان", "name:az": "Vatikan", "name:ba": "Ватикан", "name:be": "Ватыкан", "name:bg": "Ватикан", "name:bi": "Vatican Siti", "name:bn": "ভ্যাটিকান সিটি", "name:bo": "ཝ་ཏི་ཀན་གྲོང་ཁྱོར།", "name:br": "Keoded ar Vatikan", "name:bs": "Vatikan", "name:ca": "Ciutat del Vaticà", "name:ce": "Ватикан", "name:co": "Cità di u Vaticanu", "name:cs": "Vatikán", "name:cu": "Ватиканъ", "name:cv": "Ватикан", "name:cy": "Y Fatican", "name:da": "Vatikanstaten", "name:dv": "ވެޓިކަން ސިޓީ", "name:dz": "བ་ཊི་ཀཱན།", "name:ee": "Vatican City", "name:el": "Βατικανό", "name:en": "Vatican City", "name:eo": "Vatikano", "name:es": "Ciudad del Vaticano", "name:et": "Vatikan", "name:eu": "Vatikano Hiria", "name:fa": "واتیکان", "name:fi": "Vatikaanivaltio", "name:fo": "Vatikanið", "name:fr": "Cité du Vatican", "name:fy": "Fatikaanstêd", "name:ga": "Cathair na Vatacáine", "name:gd": "Cathair na Bhatacain", "name:gl": "Cidade do Vaticano", "name:gn": "Táva Vatikano", "name:gv": "Ard-valley yn Phaab", "name:he": "קריית הוותיקן", "name:hi": "वैटिकन सिटी", "name:hr": "Vatikan", "name:ht": "Vatikan", "name:hu": "Vatikán", "name:hy": "Վատիկան", "name:ia": "Citate Vatican", "name:id": "Vatikan", "name:ie": "Vaticano", "name:io": "Vatikano", "name:is": "Vatíkanið", "name:it": "Città del Vaticano", "name:ja": "バチカン", "name:jv": "Vatikan", "name:ka": "ვატიკანი", "name:kg": "Vatican", "name:kk": "Ватикан", "name:kl": "Vatikani", "name:km": "បុរីវ៉ាទីកង់", "name:kn": "ವ್ಯಾಟಿಕನ್ ನಗರ", "name:ko": "바티칸 시국", "name:ku": "Vatîkan", "name:kv": "Ватикан", "name:kw": "Cita Vatikan", "name:ky": "Ватикан", "name:la": "Status Civitatis Vaticanæ", "name:lb": "Vatikanstad", "name:li": "Vaticaanstad", "name:ln": "Vatikáni", "name:lt": "Vatikanas", "name:lv": "Vatikāns", "name:mi": "Poho o Pita", "name:mk": "Ватикан", "name:ml": "വത്തിക്കാൻ നഗരം", "name:mn": "Ватикан", "name:mr": "व्हॅटिकन सिटी", "name:ms": "Kota Vatican", "name:mt": "Belt tal-Vatikan", "name:my": "ဗာတီကန်စီးတီး", "name:na": "Batikan", "name:ne": "भ्याटिकन सिटी", "name:nl": "Vaticaanstad", "name:nn": "Vatikanstaten", "name:no": "Vatikanstaten", "name:nv": "Bádikin Sídii", "name:oc": "Vatican", "name:or": "ଭାଟିକାନ ସିଟି", "name:os": "Ватикан", "name:pa": "ਵੈਟੀਕਨ ਸ਼ਹਿਰ", "name:pl": "Watykan", "name:ps": "واټيکان ښار", "name:pt": "Vaticano", "name:qu": "Watikanu llaqta", "name:rm": "Citad dal Vatican", "name:ro": "Vatican", "name:ru": "Ватикан", "name:rw": "Vatikani", "name:sa": "वैटिकन", "name:sc": "Tzitade de su Vaticanu", "name:se": "Vatikána", "name:sh": "Vatikan", "name:si": "වතිකානුව", "name:sk": "Vatikán", "name:sl": "Vatikan", "name:so": "Faatikan", "name:sq": "Vatikani", "name:sr": "Ватикан", "name:ss": "IVathikhi", "name:su": "Vatikan", "name:sv": "Vatikanstaten", "name:sw": "Vatikani", "name:ta": "வத்திக்கான் நகர்", "name:te": "వాటికన్ నగరం", "name:tg": "Вотикон", "name:th": "นครรัฐวาติกัน", "name:tk": "Watikan", "name:tl": "Lungsod ng Vaticano", "name:tr": "Vatikan", "name:tt": "Ватикан", "name:ug": "Watikan Shehiri", "name:uk": "Ватикан", "name:ur": "ویٹیکن سٹی", "name:uz": "Vatikan shahri", "name:vi": "Thành Vatican", "name:vo": "Vatikän", "name:wo": "Watikaa", "name:yi": "וואטיקאן", "name:yo": "Ìlú Fatikan", "name:zh": "梵蒂冈", "name:zu": "Indolobha yaseVathikhani", "ref:whc": "286", "currency": "EUR", "heritage": "1", "int_name": "Vatican City", "name:ace": "Vatikan", "name:als": "Vatikan", "name:ang": "Faticanburg", "name:arc": "ܡܕܝܢܬܐ ܕܘܛܝܩܢ", "name:arz": "مدينة الڤاتيكان", "name:ast": "Vaticanu", "name:bar": "Vatikanstod", "name:bcl": "Ciudad nin Vaticano", "name:bpy": "ভ্যাটিকান সিটি", "name:bxr": "Ватикан", "name:cdo": "Huàng-dá̤-gŏng", "name:ceb": "Dakbayan sa Batikano", "name:ckb": "ڤاتیکان", "name:crh": "Vatikan", "name:csb": "Watikan", "name:diq": "Vatikan", "name:dsb": "Vatikańske město", "name:eml": "Sitê dal Vaticân", "name:ext": "Ciá del Vaticanu", "name:frp": "Vatican", "name:frr": "Watikaanstääd", "name:fur": "Citât dal Vatican", "name:gag": "Vatikan", "name:haw": "Wakikana", "name:hif": "Vatican City", "name:hsb": "Vatikanske město", "name:ilo": "Siudad ti Batikano", "name:jbo": "vatikanus.tcad", "name:kaa": "Vatikan", "name:kbd": "Ватикан", "name:koi": "Ватикан", "name:krc": "Ватикан", "name:ksh": "Vatikan", "name:lad": "Sivdad del Vatikano", "name:lez": "Ватикан", "name:lij": "Çittæ do Vatican", "name:lmo": "Cità del Vatican", "name:ltg": "Vatikans", "name:mhr": "Ватикан", "name:mwl": "Baticano", "name:nah": "Āltepētl in Vaticano", "name:nan": "Vaticano", "name:nap": "Cità d''o Vaticano", "name:nds": "Vatikaan", "name:nov": "Vatikan Urbe", "name:nrm": "Vatican", "name:pag": "Siyudad na Vatikano", "name:pam": "Lakanbalen ning Baticanu", "name:pap": "Siudad Vatikano", "name:pcd": "Vatican", "name:pfl": "Wadigaan", "name:pih": "Watikan Citii", "name:pms": "Sità dël Vatican", "name:pnb": "ویٹیکن", "name:pnt": "Βατικανό", "name:rmy": "Vatican", "name:rue": "Ватікан", "name:sah": "Ватикаан", "name:scn": "Citati dû Vaticanu", "name:sco": "Vatican Ceety", "name:stq": "Vatikanstääd", "name:szl": "Watykůn", "name:tet": "Vatikanu", "name:udm": "Ватикан", "name:vec": "Sità del Vatican", "name:vep": "Vatikan", "name:vls": "Vaticoanstad", "name:war": "Syudad han Vaticano", "name:wuu": "梵蒂冈", "name:xal": "Ватикан Балһсн", "name:xmf": "ვატიკანი", "name:yue": "梵蒂岡", "name:zea": "Vaticaânstad", "population": "836", "name:nds-nl": "Vaticaanstad", "name:bat-smg": "Vatikans", "name:cbk-zam": "Ciudad del Vaticano", "name:fiu-vro": "Vatikan", "name:roa-rup": "Vatican", "whc:criteria": "(i)(ii)(iv)(vi)", "name:roa-tara": "Cetate d'u Vaticane", "official_name": "Stato della Città del Vaticano", "name:be-tarask": "Ватыкан", "is_in:continent": "Europe", "default_language": "it", "official_name:cs": "Vatikánský městský stát", "official_name:de": "Staat Vatikanstadt", "official_name:en": "Vatican City State", "official_name:eo": "Ŝtato Vatikano", "official_name:es": "Estado de la Ciudad del Vaticano", "official_name:fr": "État de la cité du Vatican", "official_name:la": "Status Civitatis Vaticanæ", "heritage:operator": "whc", "whc:inscription_date": "1984"}}, "center_lat": 41.9, "center_lon": 12.45, "area_m2": 507267, "timezone": "Europe/Vatican", "population": 1000, "wikidata_id": "Q237", "wikipedia_id": "it:Città del Vaticano"}}