{"type": "Feature", "geometry": {"type": "Polygon", "coordinates": [[[-76.725, -10.486], [-76.336, -10.286], [-75.976, -10.479], [-75.704, -10.207], [-75.675, -10.047], [-75.369, -9.871], [-74.836, -9.848], [-74.676, -9.447], [-74.491, -9.619], [-74.401, -10.071], [-74.232, -10.185], [-74.277, -10.374], [-74.133, -10.605], [-74.573, -10.913], [-75.017, -10.677], [-75.317, -10.864], [-75.59, -10.811], [-75.923, -10.883], [-76.241, -11.061], [-76.491, -11.089], [-76.725, -10.486]]]}, "properties": {"name": "Pasco", "iso2": "PE-PAS", "admin_level": 4, "osm_id": 1948452, "countrylevel_id": "iso2:PE-PAS", "osm_data": {"localname": "Pasco", "official_name": "", "alltags": {"name:en": "Pasco", "name:es": "Pasco", "name:ja": "パスコ県", "name:pl": "Pasco", "name:ru": "Паско", "name:uk": "Паско", "pe:ubigeo": "19", "population": "280449", "is_in:country": "Peru"}}, "center_lat": -10.4, "center_lon": -75.3, "area_m2": 24127484596, "timezone": "America/Lima", "population": 254065, "wikidata_id": "Q211208", "wikipedia_id": "es:Departamento de Pasco"}}