{"type": "Feature", "geometry": {"type": "Polygon", "coordinates": [[[7.552, 47.345], [7.825, 47.266], [7.839, 47.235], [8.047, 46.787], [8.369, 46.788], [8.395, 46.772], [8.448, 46.763], [8.41, 46.653], [8.303, 46.546], [7.222, 46.329], [7.237, 46.554], [7.354, 46.886], [7.04, 46.98], [6.862, 47.166], [7.552, 47.345]]]}, "properties": {"name": "Bern", "iso2": "CH-BE", "admin_level": 4, "osm_id": 1686344, "countrylevel_id": "iso2:CH-BE", "osm_data": {"localname": "Bern/Berne", "official_name": "", "alltags": {"name:am": "ቤርን", "name:an": "Berna", "name:ar": "برن", "name:be": "Берн", "name:bg": "Берн", "name:bn": "বের্ন", "name:bo": "པོར་ནི", "name:ca": "Cantó de Berna", "name:cs": "Bern", "name:cv": "Берн", "name:el": "Βέρνη", "name:en": "Bern", "name:eo": "Berno", "name:es": "Berna", "name:eu": "Berna", "name:fa": "برن", "name:fr": "Berne", "name:gd": "Berne", "name:gl": "Berna", "name:gv": "Berne", "name:he": "ברן", "name:hi": "बर्न", "name:ht": "Bèn", "name:hy": "Բեռն", "name:is": "Bern", "name:it": "Berna", "name:ja": "ベルン", "name:ka": "ბერნი", "name:ko": "베른", "name:la": "Berna", "name:lt": "Bernas", "name:lv": "Berne", "name:mk": "Берн", "name:ml": "ബേണ്‍", "name:mr": "बर्न", "name:oc": "Bèrna", "name:os": "Берн", "name:pl": "Berno", "name:pt": "Berna", "name:rm": "Berna", "name:ro": "Berna", "name:ru": "Берн", "name:sk": "Bern", "name:sq": "Berni", "name:sr": "Берн", "name:tg": "Берн", "name:th": "เบิร์น", "name:tt": "Берн", "name:ug": "Bérn", "name:uk": "Берн", "name:yi": "בערן", "name:zh": "伯尔尼", "alt_name": "Kanton Bern", "loc_name": "Bärn", "name:arc": "ܒܪܢ", "name:ast": "Berna", "name:frp": "Bèrna", "name:fur": "Berna", "name:gsw": "Bärn", "name:lij": "Berna", "name:lmo": "Berna", "name:lzh": "伯恩", "name:nah": "Berna", "name:pdc": "Bann", "name:pms": "Berna", "name:scn": "Berna", "name:vec": "Berna", "name:wuu": "办合纳", "name:prefix": "Kanton", "swisstopo:KANTONSNUM": "2"}}, "center_lat": 46.82, "center_lon": 7.62, "area_m2": 5956222060, "timezone": "Europe/Zurich", "population": 1034977, "wikidata_id": "Q11911", "wikipedia_id": "de:Kanton Bern"}}