{"type": "Feature", "geometry": {"type": "Polygon", "coordinates": [[[7.327, 47.44], [7.381, 47.432], [7.376, 47.414], [7.421, 47.446], [7.446, 47.462], [7.51, 47.503], [7.555, 47.564], [7.634, 47.561], [7.713, 47.54], [7.957, 47.455], [7.754, 47.343], [7.437, 47.381], [7.376, 47.414], [7.327, 47.44]]]}, "properties": {"name": "Basel-Landschaft", "iso2": "CH-BL", "admin_level": 4, "osm_id": 1686366, "countrylevel_id": "iso2:CH-BL", "osm_data": {"localname": "Basel-Landschaft", "official_name": "", "alltags": {"name:ca": "Basilea-Camp", "name:es": "Basilea-Campiña", "name:fr": "Bâle-Campagne", "name:it": "Basilea Campagna", "name:nl": "Bazel-Land", "name:rm": "Basilea-Champagna", "name:ru": "Базель-Ланд", "alt_name": "Kanton Basel-Landschaft", "loc_name": "Baselland;Baselbiet", "name:prefix": "Kanton", "swisstopo:KANTONSNUM": "13"}}, "center_lat": 47.45, "center_lon": 7.7, "area_m2": 517350266, "timezone": "Europe/Zurich", "population": 288132, "wikidata_id": "Q12146", "wikipedia_id": "de:Kanton Basel-Landschaft"}}