{"type": "Feature", "geometry": {"type": "Polygon", "coordinates": [[[8.426, 47.568], [8.563, 47.599], [8.596, 47.606], [8.606, 47.669], [8.663, 47.686], [8.669, 47.685], [8.77, 47.615], [8.768, 47.616], [8.763, 47.618], [8.762, 47.618], [8.742, 47.607], [8.742, 47.606], [8.743, 47.603], [8.745, 47.602], [8.746, 47.601], [8.746, 47.6], [8.749, 47.6], [8.944, 47.376], [8.808, 47.22], [8.692, 47.163], [8.41, 47.248], [8.426, 47.568]]]}, "properties": {"name": "Zurich", "iso2": "CH-ZH", "admin_level": 4, "osm_id": 1690227, "countrylevel_id": "iso2:CH-ZH", "osm_data": {"localname": "Zürich", "official_name": "", "alltags": {"name:af": "Zürich", "name:am": "ዙሪክ", "name:an": "Zúrich", "name:ar": "زيورخ", "name:az": "Sürix", "name:be": "Цюрых", "name:bg": "Цюрих", "name:bn": "জুরিখ", "name:br": "Zürich", "name:bs": "Zürich", "name:ca": "Zuric", "name:cs": "Curych", "name:cv": "Цюрих", "name:cy": "Zürich", "name:da": "Zürich", "name:el": "Ζυρίχη", "name:en": "Zurich", "name:eo": "Zuriko", "name:es": "Zúrich", "name:et": "Zürich", "name:eu": "Zürich", "name:fa": "زوریخ", "name:fi": "Zürich", "name:fr": "Zurich", "name:ga": "Zürich", "name:gd": "Zürich", "name:gl": "Zúric", "name:he": "ציריך", "name:hi": "ज़्यूरिख़", "name:hr": "Zürich", "name:hu": "Zürich", "name:id": "Zürich", "name:io": "Zürich", "name:is": "Zürich", "name:it": "Zurigo", "name:ja": "チューリッヒ", "name:jv": "Zürich", "name:ka": "ციურიხი", "name:kn": "ಝ್ಯೂರಿಖ್", "name:ko": "취리히", "name:la": "Turicum", "name:lb": "Zürech", "name:lt": "Ciurichas", "name:lv": "Cīrihe", "name:mk": "Цирих", "name:ml": "സൂറിച്ച്", "name:mr": "झ्युरिक", "name:ms": "Zürich", "name:my": "ဇူးရစ်ချ်မြို့", "name:na": "Zürich", "name:nl": "Zürich", "name:nn": "Zürich", "name:no": "Zürich", "name:oc": "Zuric", "name:os": "Цюрих", "name:pl": "Zurych", "name:pt": "Zurique", "name:qu": "Zürich", "name:rm": "Turitg", "name:ro": "Zürich", "name:ru": "Цюрих", "name:sh": "Zürich", "name:sk": "Zürich", "name:sl": "Zürich", "name:sq": "Cyrihu", "name:sr": "Цирих", "name:sv": "Zürich", "name:sw": "Zürich", "name:ta": "சூரிக்", "name:th": "ซูริก", "name:tl": "Zürich", "name:tr": "Zürih", "name:ug": "سيۇرىخ", "name:uk": "Цюрих", "name:ur": "زیورخ", "name:vi": "Zürich", "name:vo": "Zürich", "name:wo": "Zurich", "name:yi": "ציריך", "name:yo": "Zürich", "name:zh": "蘇黎世", "alt_name": "Kanton Zürich", "name:als": "Zürich", "name:arc": "ܬܣܝܪܝܟ", "name:arz": "زوريخ", "name:bar": "Zirich", "name:ckb": "زیورخ", "name:frp": "Tsurique", "name:frr": "Zürich", "name:gsw": "Züri", "name:hsb": "Zürich", "name:ilo": "Zürich", "name:lmo": "Zürigh", "name:nah": "Zurich", "name:nan": "Zürich", "name:nds": "Zürich", "name:pdc": "Zurich", "name:pfl": "Zirich", "name:pms": "Zurigh", "name:pnb": "زیورچ", "name:scn": "Zurìcu", "name:vec": "Zurigo", "name:war": "Zürich", "name:wuu": "苏黎世", "name:yue": "蘇黎世", "alt_name:ca": "Cantó de Zuric", "alt_name:de": "Kanton Zürich", "alt_name:fr": "Canton de Zurich", "alt_name:it": "Canton Zurigo", "name:prefix": "Kanton", "name:be-tarask": "Цюрых", "swisstopo:KANTONSNUM": "1"}}, "center_lat": 47.41, "center_lon": 8.66, "area_m2": 1727180430, "timezone": "Europe/Zurich", "population": 1520968, "wikidata_id": "Q11943", "wikipedia_id": "de:Kanton Zürich"}}