{"type": "Feature", "properties": {"name": "Chechen Republic", "iso2": "RU-CE", "admin_level": 4, "osm_id": 109877, "countrylevel_id": "iso2:RU-CE", "osm_data": {"localname": "Чечня", "official_name": "Чеченская Республика", "alltags": {"int_ref": "RU-CE", "name:af": "Tsjetsjnië", "name:ar": "الشيشان", "name:av": "Чачанистан", "name:az": "Çeçenistan", "name:ba": "Чечен Республикаһы", "name:be": "Чачня", "name:bn": "চেচনিয়া", "name:br": "Tchetchenia", "name:ca": "Txetxènia", "name:ce": "Нохчийчоь", "name:cs": "Čečensko", "name:cv": "Чечен Республики", "name:da": "Tjetjenien", "name:el": "Τσετσενία", "name:en": "Chechen Republic", "name:eo": "Ĉeĉenio", "name:es": "Chechenia", "name:eu": "Txetxenia", "name:fa": "چچن", "name:fi": "Tšetšenia", "name:fo": "Kekenia", "name:fr": "Tchétchénie", "name:ga": "An tSeisnia", "name:hi": "चेचन्या", "name:hu": "Csecsenföld", "name:hy": "Չեչնիա", "name:id": "Chechnya", "name:ka": "ჩეჩნეთის რესპუბლიკა", "name:ko": "체첸 공화국", "name:lt": "Čečėnija", "name:lv": "Čečenija", "name:mn": "Чечень", "name:nl": "Tsjetsjenië", "name:os": "Цæцæн", "name:pl": "Czeczenia", "name:ro": "Cecenia", "name:ru": "Чеченская Республика", "name:sh": "Čečenija", "name:sk": "Čečensko", "name:sl": "Čečenija", "name:sr": "Чеченија", "name:sv": "Tjetjenien", "name:tr": "Çeçenistan", "name:tt": "Чечня", "name:zh": "车臣共和国", "alt_name": "Чечня", "name:bxr": "Чечня", "name:diq": "Çeçenıstan", "name:gag": "Çeçeniya", "name:kbd": "Шэшэней", "name:mhr": "Чечня", "name:sah": "Чечня", "name:xal": "Чеченмудин таңһч", "name:xmf": "ჩეჩნეთი", "oktmo:user": "96000000", "name:az-cyr": "Чеченистан", "addr:country": "RU", "official_name": "Чеченская Республика", "gost_7.67-2003": "РОФ-ЧЕЧ", "name:be-tarask": "Чачэнія", "official_name:ce": "Нохчийн Республика", "official_name:cs": "Čečenská republika", "official_name:de": "Republik Tschetschenien", "official_name:en": "Chechen Republic", "official_name:ru": "Чеченская Республика", "official_name:sk": "Čečenská republika"}}, "center_lat": 43.3, "center_lon": 45.73, "timezone": "Europe/Moscow", "population": 1478726, "wikidata_id": "Q5187", "wikipedia_id": "ru:Чечня"}, "geometry": {"type": "MultiPolygon", "coordinates": [[[[44.832, 43.682], [44.847, 43.581], [44.847, 43.565], [44.861, 43.564], [44.86, 43.55], [44.873, 43.534], [44.895, 43.524], [44.936, 43.519], [44.957, 43.521], [44.957, 43.48], [44.972, 43.48], [44.972, 43.469], [45.011, 43.462], [45.064, 43.463], [45.065, 43.454], [45.115, 43.453], [45.137, 43.42], [45.136, 43.398], [45.126, 43.327], [45.109, 43.312], [45.106, 43.281], [45.127, 43.223], [45.126, 43.193], [45.141, 43.185], [45.143, 43.174], [45.163, 43.178], [45.171, 43.167], [45.185, 43.166], [45.174, 43.142], [45.195, 43.118], [45.183, 43.092], [45.163, 43.073], [45.162, 43.067], [45.128, 43.045], [45.109, 43.027], [45.087, 43.019], [45.071, 42.992], [45.069, 42.972], [45.074, 42.961], [45.095, 42.939], [45.092, 42.928], [45.074, 42.904], [45.072, 42.896], [45.084, 42.882], [45.089, 42.858], [45.087, 42.842], [45.163, 42.834], [45.18, 42.823], [45.194, 42.823], [45.194, 42.805], [45.179, 42.796], [45.172, 42.78], [45.158, 42.783], [45.138, 42.763], [45.116, 42.751], [45.107, 42.74], [45.092, 42.731], [45.08, 42.71], [45.107, 42.704], [45.134, 42.71], [45.158, 42.708], [45.171, 42.687], [45.191, 42.669], [45.217, 42.66], [45.238, 42.64], [45.251, 42.62], [45.256, 42.606], [45.284, 42.606], [45.282, 42.59], [45.295, 42.575], [45.31, 42.569], [45.315, 42.574], [45.325, 42.565], [45.325, 42.547], [45.334, 42.527], [45.354, 42.522], [45.395, 42.538], [45.401, 42.547], [45.419, 42.551], [45.435, 42.541], [45.453, 42.546], [45.463, 42.54], [45.494, 42.535], [45.511, 42.537], [45.523, 42.545], [45.542, 42.538], [45.571, 42.548], [45.599, 42.533], [45.596, 42.517], [45.614, 42.505], [45.632, 42.509], [45.651, 42.499], [45.666, 42.505], [45.687, 42.502], [45.7, 42.481], [45.721, 42.476], [45.776, 42.488], [45.804, 42.498], [45.82, 42.499], [45.822, 42.506], [45.843, 42.516], [45.842, 42.523], [45.863, 42.536], [45.881, 42.536], [45.888, 42.544], [45.908, 42.554], [45.894, 42.581], [45.916, 42.589], [45.926, 42.603], [45.946, 42.595], [45.96, 42.58], [46.005, 42.596], [46.008, 42.609], [46.031, 42.621], [46.009, 42.639], [46.009, 42.658], [46.016, 42.676], [46.044, 42.681], [46.075, 42.681], [46.085, 42.693], [46.085, 42.704], [46.075, 42.718], [46.095, 42.71], [46.1, 42.725], [46.111, 42.72], [46.142, 42.723], [46.177, 42.736], [46.176, 42.744], [46.161, 42.747], [46.166, 42.77], [46.154, 42.775], [46.148, 42.791], [46.117, 42.803], [46.123, 42.817], [46.139, 42.828], [46.161, 42.851], [46.168, 42.851], [46.187, 42.872], [46.187, 42.886], [46.208, 42.89], [46.223, 42.869], [46.239, 42.86], [46.26, 42.868], [46.27, 42.883], [46.295, 42.874], [46.3, 42.865], [46.31, 42.884], [46.306, 42.907], [46.34, 42.891], [46.371, 42.862], [46.366, 42.842], [46.394, 42.854], [46.427, 42.857], [46.448, 42.878], [46.439, 42.886], [46.452, 42.891], [46.49, 42.911], [46.503, 42.916], [46.527, 42.916], [46.534, 42.924], [46.496, 42.945], [46.5, 42.963], [46.492, 42.983], [46.479, 42.997], [46.47, 43.015], [46.496, 43.019], [46.506, 43.015], [46.507, 43.027], [46.521, 43.029], [46.498, 43.036], [46.52, 43.042], [46.525, 43.049], [46.518, 43.066], [46.501, 43.072], [46.506, 43.085], [46.491, 43.091], [46.435, 43.084], [46.421, 43.106], [46.423, 43.12], [46.399, 43.129], [46.388, 43.148], [46.419, 43.167], [46.439, 43.186], [46.423, 43.191], [46.425, 43.201], [46.392, 43.202], [46.41, 43.234], [46.41, 43.256], [46.422, 43.277], [46.424, 43.299], [46.414, 43.304], [46.41, 43.324], [46.396, 43.336], [46.37, 43.342], [46.37, 43.351], [46.335, 43.4], [46.328, 43.45], [46.359, 43.47], [46.388, 43.479], [46.385, 43.496], [46.4, 43.498], [46.413, 43.507], [46.414, 43.522], [46.437, 43.538], [46.427, 43.553], [46.433, 43.565], [46.432, 43.58], [46.415, 43.594], [46.433, 43.606], [46.431, 43.617], [46.446, 43.62], [46.455, 43.63], [46.449, 43.647], [46.458, 43.664], [46.477, 43.674], [46.485, 43.688], [46.519, 43.706], [46.52, 43.713], [46.538, 43.729], [46.545, 43.748], [46.558, 43.76], [46.587, 43.768], [46.613, 43.765], [46.63, 43.77], [46.655, 43.795], [46.65, 43.799], [46.65, 43.82], [46.663, 43.827], [46.66, 43.837], [46.65, 43.831], [46.619, 43.83], [46.616, 43.85], [46.605, 43.848], [46.589, 43.872], [46.571, 43.874], [46.539, 43.858], [46.495, 43.859], [46.495, 43.878], [46.451, 43.875], [46.455, 43.888], [46.449, 43.894], [46.451, 43.922], [46.462, 43.933], [46.455, 43.947], [46.433, 43.957], [46.442, 43.97], [46.437, 43.985], [46.428, 43.987], [46.441, 44.003], [46.321, 44.011], [46.325, 44], [46.336, 43.998], [46.346, 43.987], [46.343, 43.972], [46.359, 43.944], [46.251, 43.946], [46.25, 43.881], [46.218, 43.86], [46.096, 43.861], [46.095, 43.84], [46.08, 43.842], [46.08, 43.816], [46.045, 43.82], [46.004, 43.881], [46.035, 43.888], [46.059, 43.885], [46.072, 43.93], [46.002, 43.94], [45.888, 43.95], [45.86, 43.971], [45.796, 43.971], [45.796, 43.952], [45.72, 43.953], [45.713, 43.962], [45.522, 44.007], [45.521, 44.01], [45.489, 44.01], [45.44, 44.009], [45.438, 43.876], [45.202, 43.877], [45.203, 43.957], [45.053, 43.958], [45.052, 43.888], [45.065, 43.888], [45.064, 43.72], [45.046, 43.708], [45.045, 43.72], [45.028, 43.719], [45.015, 43.727], [44.99, 43.72], [44.979, 43.701], [44.963, 43.695], [44.96, 43.684], [44.945, 43.672], [44.93, 43.673], [44.917, 43.682], [44.911, 43.669], [44.891, 43.659], [44.879, 43.658], [44.853, 43.667], [44.861, 43.685], [44.854, 43.696], [44.842, 43.68], [44.832, 43.682]]]]}}