{"type": "Feature", "properties": {"name": "Albania", "iso1": "AL", "admin_level": 2, "osm_id": 53292, "countrylevel_id": "iso1:AL", "osm_data": {"localname": "ShqipÃ«ria", "official_name": "Republika e ShqipÃ«risÃ«", "alltags": {"flag": "http://upload.wikimedia.org/wikipedia/commons/3/36/Flag_of_Albania.svg", "name:ab": "ĞÑ€Ğ½Ğ°ÑƒÑ‹Ò­Ñ‚Ó™Ñ‹Ğ»Ğ°", "name:af": "AlbaniÃ«", "name:ak": "Albania", "name:am": "áŠ áˆá‰£áŠ’á‹«", "name:an": "Albania", "name:ar": "Ø£Ù„Ø¨Ø§Ù†ÙŠØ§", "name:as": "à¦†à¦²à¦¬à§‡à¦¨à¦¿à¦¯à¦¼à¦¾", "name:av": "ĞĞ»Ğ±Ğ°ÌĞ½Ğ¸Ñ", "name:az": "Albaniya", "name:ba": "ĞĞ»Ğ±Ğ°ÌĞ½Ğ¸Ñ", "name:be": "ĞĞ»Ğ±Ğ°ÌĞ½Ñ–Ñ", "name:bg": "ĞĞ»Ğ±Ğ°Ğ½Ğ¸Ñ", "name:bh": "à¤…à¤²à¥à¤¬à¤¾à¤¨à¤¿à¤¯à¤¾", "name:bi": "Albania", "name:bm": "Alibani", "name:bn": "à¦†à¦²à¦¬à§‡à¦¨à¦¿à¦¯à¦¼à¦¾", "name:bo": "à½¨à½£à¼‹à½”à¼‹à½‰à½²à¼‹à½¡à¼", "name:br": "Albania", "name:bs": "Albanija", "name:ca": "AlbÃ nia", "name:ce": "ĞĞ»Ğ±Ğ°ÌĞ½Ğ¸", "name:co": "Albania", "name:cs": "AlbÃ¡nie", "name:cu": "ĞĞ»Ğ²Ğ°Ğ½Ñ—ê™—", "name:cv": "ĞĞ»Ğ±Ğ°Ğ½Ğ¸", "name:cy": "Albania", "name:da": "Albanien", "name:dv": "Ş‡Ş¦ŞŞ°Ş„Ş­Ş‚Ş¨Ş‡Ş§", "name:dz": "à½¨à½±à½£à¼‹à½–à½ºà¼‹à½“à½²à¼‹à½¡", "name:ee": "Albania", "name:el": "Î‘Î»Î²Î±Î½Î¯Î±", "name:en": "Albania", "name:eo": "Albanujo", "name:es": "Albania", "name:et": "Albaania", "name:eu": "Albania", "name:fa": "Ø¢Ù„Ø¨Ø§Ù†ÛŒ", "name:ff": "Albaniya", "name:fi": "Albania", "name:fo": "Albania", "name:fr": "Albanie", "name:fy": "Albaanje", "name:ga": "An AlbÃ¡in", "name:gd": "AlbÃ inia", "name:gl": "Albania", "name:gn": "AvaÃ±a", "name:gu": "àª†àª²à«àª¬à«‡àª¨àª¿àª¯àª¾", "name:gv": "Yn Albaan", "name:ha": "Albaniya", "name:he": "×Ö·×œÖ°×‘Ö·Ö¼× Ö°×™Ö¸×”", "name:hi": "à¤…à¤²à¥à¤¬à¤¾à¤¨à¤¿à¤¯à¤¾", "name:hr": "Albanija", "name:ht": "Albani", "name:hu": "AlbÃ¡nia", "name:hy": "Ô±Õ¬Õ¢Õ¡Õ¶Õ«Õ¡", "name:ia": "Albania", "name:id": "Albania", "name:ie": "Albania", "name:ig": "Albania", "name:io": "Albania", "name:is": "AlbanÃ­a", "name:it": "Albania", "name:ja": "ã‚¢ãƒ«ãƒãƒ‹ã‚¢", "name:jv": "Albania", "name:ka": "áƒáƒšáƒ‘áƒáƒœáƒ”áƒ—áƒ˜", "name:kg": "Albania", "name:ki": "ArÅ©mbÄ©nia", "name:kk": "ĞĞ»Ğ±Ğ°Ğ½Ğ¸Ñ", "name:kl": "Albania", "name:km": "á¢á¶á›áŸ‹á”á¶á“á¸", "name:kn": "à²…à²²à³à²¬à³‡à²¨à²¿à²¯", "name:ko": "ì•Œë°”ë‹ˆì•„", "name:ks": "Ø§Ù®ÛªÙ„Ø¨Ø§Ù†ÙÛŒØ§", "name:ku": "Albanya", "name:kv": "ĞĞ»Ğ±Ğ°Ğ½Ğ¸Ñ", "name:kw": "Albani", "name:ky": "ĞĞ»Ğ±Ğ°Ğ½Ğ¸Ñ", "name:la": "Albania", "name:lb": "Albanien", "name:lg": "Alibaniya", "name:li": "AlbaniÃ«", "name:ln": "Albania", "name:lo": "à»àº­àº¥à»€àºšà»€àº™àº", "name:lt": "Albanija", "name:lv": "AlbÄnija", "name:mg": "Albania", "name:mi": "Arapeinia", "name:mk": "ĞĞ»Ğ±Ğ°Ğ½Ğ¸Ñ˜Ğ°", "name:ml": "à´…àµ½à´¬àµ‡à´¨à´¿à´¯", "name:mn": "ĞĞ»Ğ±Ğ°Ğ½Ğ¸", "name:mr": "à¤†à¤²à¥à¤¬à¥‡à¤¨à¤¿à¤¯à¤¾", "name:ms": "Albania", "name:mt": "Albanija", "name:my": "á€¡á€šá€ºá€œá€ºá€˜á€±á€¸á€”á€®á€¸á€šá€¬á€¸á", "name:na": "Arbainiya", "name:ne": "à¤…à¤²à¥à¤¬à¤¾à¤¨à¤¿à¤¯à¤¾", "name:nl": "AlbaniÃ«", "name:nn": "Albania", "name:no": "Albania", "name:nv": "DziÅ‚igaii BikÃ©yah", "name:oc": "Albania", "name:om": "Albeeniyaa", "name:or": "à¬†à¬²à¬¬à¬¾à¬¨à¬¿à¬†", "name:os": "ĞĞ»Ğ±Ğ°Ğ½Ğ¸", "name:pa": "à¨…à¨²à¨¬à¨¾à¨¨à©€à¨†", "name:pi": "à¤…à¤²à¥à¤¬à¤¾à¤¨à¤¿à¤¯à¤¾", "name:pl": "Albania", "name:ps": "Ø§Ù„Ø¨Ø§Ù†ÛŒØ§", "name:pt": "AlbÃ¢nia", "name:qu": "Albanya", "name:rm": "Albania", "name:rn": "Alubaniya", "name:ro": "Albania", "name:ru": "ĞĞ»Ğ±Ğ°Ğ½Ğ¸Ñ", "name:rw": "Alubaniya", "name:sa": "à¤…à¤²à¥à¤¬à¥‡à¤¨à¤¿à¤¯à¤¾", "name:sc": "Albania", "name:se": "AlbÃ¡nia", "name:sg": "AlbanÃ¯i", "name:sh": "Albanija", "name:si": "à¶‡à¶½à·Šà¶¶à·šà¶±à·’à¶ºà·à·€", "name:sk": "AlbÃ¡nsko", "name:sl": "Albanija", "name:sn": "Albania", "name:so": "Albania", "name:sq": "ShqipÃ«ria", "name:sr": "ĞĞ»Ğ±Ğ°Ğ½Ğ¸Ñ˜Ğ°", "name:ss": "I-Alibheniya", "name:st": "Albania", "name:su": "Albania", "name:sv": "Albanien", "name:sw": "Albania", "name:ta": "à®…à®²à¯à®ªà¯‡à®©à®¿à®¯à®¾", "name:te": "à°…à°²à±à°¬à±‡à°¨à°¿à°¯à°¾", "name:tg": "ĞĞ»Ğ±Ğ°Ğ½Ğ¸Ñ", "name:th": "à¸›à¸£à¸°à¹€à¸—à¸¨à¹à¸­à¸¥à¹€à¸šà¹€à¸™à¸µà¸¢", "name:ti": "áŠ áˆá‰£áŠ’á‹«", "name:tk": "AlbaniÃ½a", "name:tl": "Albanya", "name:to": "Ê»Alipania", "name:tr": "Arnavutluk", "name:ts": "Albania", "name:tt": "ĞĞ»Ğ±Ğ°Ğ½Ğ¸Ñ", "name:tw": "Albania", "name:ty": "Arapania", "name:ug": "Ø¦Ø§Ù„Ø¨Ø§Ù†Ù‰ÙŠÛ•", "name:uk": "ĞĞ»Ğ±Ğ°ÌĞ½Ñ–Ñ", "name:ur": "Ø§Ù„Ø¨Ø§Ù†ÛŒØ§", "name:uz": "Albaniya", "name:vi": "Albania", "name:vo": "LalbanÃ¤n", "name:wo": "Albaani", "name:yi": "××œ×‘×× ×™×¢", "name:yo": "AlbÃ¡nÃ­Ã ", "name:zh": "é˜¿çˆ¾å·´å°¼äº", "name:zu": "I-Albaniya", "int_name": "Albania", "name:ace": "Albania", "name:ady": "ĞĞ»Ğ±Ğ°Ğ½Ğ¸Ğµ", "name:als": "Albanien", "name:ang": "Albania", "name:arc": "ÜÜ Ü’Ü¢ÜÜ", "name:arz": "Ø§Ù„Ø¨Ø§Ù†ÙŠØ§", "name:ast": "Albania", "name:azb": "Ø¢Ù„Ø¨Ø§Ù†ÛŒ", "name:bar": "Oibanien", "name:bcl": "Albanya", "name:bpy": "à¦†à¦²à¦¬à§‡à¦¨à¦¿à¦¯à¦¼à¦¾", "name:bxr": "ĞĞ»Ğ±Ğ°Ğ½Ğ¸", "name:cdo": "Albania", "name:ceb": "Albanya", "name:chr": "á á¸á‡á‚á¯", "name:ckb": "Ø¦Ø§Ù„Ø¨Ø§Ù†ÛŒØ§", "name:crh": "ArnavutlÄ±q", "name:csb": "AlbaÅ„skÃ´", "name:diq": "Arnawutiye", "name:dsb": "AlbaÅ„ska", "name:dty": "à¤…à¤²à¥à¤¬à¤¾à¤¨à¤¿à¤¯à¤¾", "name:eml": "AlbanÃ®", "name:ext": "AlbÃ¡nia", "name:frp": "Albanie", "name:frr": "Albaanien", "name:fur": "Albanie", "name:gag": "Albaniya", "name:gom": "à¤…à¤²à¥à¤¬à¤¾à¤¨à¤¿à¤¯à¤¾", "name:got": "ğŒ°ğŒ»ğŒ±ğŒ°ğŒ½ğŒ¾ğŒ°", "name:hak": "Ã‚-ngÃ¬-pÃ¢-nÃ¬-Ã¢", "name:haw": "â€˜Alepania", "name:hif": "Albania", "name:hsb": "Albanska", "name:ilo": "Albania", "name:jam": "Albienia", "name:jbo": "ckipyris", "name:kaa": "Albaniya", "name:kab": "Albanya", "name:kbd": "ĞĞ»Ğ±Ğ°Ğ½Ğ¸Ñ", "name:koi": "Ğ¨Ñ‚Ğ¸Ğ¿Ñ€Ğ¸ÌÑ", "name:krc": "ĞĞ»Ğ±Ğ°Ğ½Ğ¸Ñ", "name:ksh": "Albanien", "name:lad": "××œ×‘×× ×™×”", "name:lij": "Albania", "name:lmo": "Albania", "name:lrc": "Ø¢Ù„Ø¨Ø§Ù†ÛŒ", "name:ltg": "Albaneja", "name:lzh": "é˜¿çˆ¾å·´å°¼äº", "name:mai": "à¤…à¤²à¥à¤¬à¤¾à¤¨à¤¿à¤¯à¤¾", "name:mdf": "ĞĞ»Ğ±Ğ°Ğ½Ğ¸Ñ", "name:mhr": "ĞĞ»Ğ±Ğ°Ğ½Ğ¸Ğ¹", "name:min": "Albania", "name:mrj": "ĞĞ»Ğ±Ğ°Ğ½Ğ¸", "name:mwl": "AlbÃ¡nia", "name:myv": "ĞĞ»Ğ±Ğ°Ğ½Ğ¸Ñ", "name:mzn": "Ø¢Ù„Ø¨Ø§Ù†ÛŒ", "name:nah": "Albania", "name:nan": "Albania", "name:nap": "Albania", "name:nds": "Albanien", "name:new": "à¤…à¤²à¥à¤¬à¤¾à¤¨à¤¿à¤¯à¤¾", "name:nov": "Albania", "name:olo": "Albuanii", "name:pag": "Shqip", "name:pam": "Albania", "name:pap": "Albania", "name:pcd": "Albanie", "name:pdc": "Albaani", "name:pih": "Elbanya", "name:pms": "AlbanÃ¬a", "name:pnb": "Ø§Ù„Ø¨Ø§Ù†ÛŒØ§", "name:pnt": "Î‘Î»Î²Î±Î½Î¯Î±", "name:rmy": "Shkiperiya", "name:rue": "ĞĞ»Ğ±Ğ°Ğ½Ñ–Ñ", "name:sah": "ĞĞ»Ğ±Ğ°Ğ½Ğ¸Ñ", "name:scn": "AlbanÃ¬a", "name:sco": "Albanie", "name:srn": "Albanikondre", "name:stq": "Albanien", "name:szl": "AlbaÅ„ijo", "name:tet": "AlbÃ¡nia", "name:tok": "ma Sipe", "name:tpi": "Albenia", "name:tum": "Albania", "name:tzl": "Schqiperia", "name:udm": "ĞĞ»Ğ±Ğ°Ğ½Ğ¸Ñ", "name:vec": "AlbanÃ¬a", "name:vep": "Albanii", "name:vls": "AlbaniÃ«", "name:war": "Albanya", "name:wuu": "é˜¿å°”å·´å°¼äºš", "name:xal": "ĞÑ€Ğ½Ğ³ÑƒĞ´Ğ¸Ğ½ ĞÑ€Ğ½", "name:xmf": "áƒáƒšáƒ‘áƒáƒœáƒ”áƒ—áƒ˜", "name:yue": "é˜¿çˆ¾å·´å°¼äº", "name:zea": "AlbaniÃ«", "ref:nuts": "AL", "population": "2876591", "ref:nuts:1": "AL", "alt_name:ab": "ĞĞ»Ğ±Ğ°Ğ½Ğ¸Ğ°", "alt_name:eo": "Albanio", "alt_name:qu": "Shkipirya", "alt_name:tt": "ĞÑ€Ğ½Ğ°ÑƒÑ‚Ğ»Ñ‹Ğº", "alt_name:uk": "Ğ¨ĞºÑ–Ğ¿ĞµÑ€Ñ–Ñ", "name:nds-nl": "AlbaniÃ«", "alt_name:rmy": "Albaniya", "alt_name:war": "Albania", "capital_city": "Tirana", "name:bat-smg": "AlbanÄ—jÄ—", "name:cbk-zam": "Albania", "name:fiu-vro": "Albaania", "name:roa-rup": "Arbinishia", "name:roa-tara": "Albanie", "official_name": "Republika e ShqipÃ«risÃ«", "name:be-tarask": "ĞĞ»ÑŒĞ±Ğ°ÌĞ½Ñ–Ñ", "name:zh_pinyin": "Ä€Ä›rbÄnÃ­yÃ ", "alt_name:roa-rup": "ArbiniÈ™ia", "default_language": "sq", "official_name:ab": "ĞÑ€Ğ½Ğ°ÑƒÑ‹Ò­Ñ‚Ó™Ñ‹Ğ»Ğ° ĞÒ³Ó™Ñ‹Ğ½Ò­Ò›Ğ°Ñ€Ñ€Ğ°", "official_name:af": "Republiek AlbaniÃ«", "official_name:am": "á‹¨áŠ£áˆá‰£áŠ’á‹« áˆ¬á‘á‰¥áˆŠáŠ­", "official_name:ar": "Ø¬Ù…Ù‡ÙˆØ±ÙŠØ© Ø£Ù„Ø¨Ø§Ù†ÙŠØ§", "official_name:av": "Ğ ĞµÑĞ¿ÑƒÌĞ±Ğ»Ğ¸ĞºĞ° ĞĞ»Ğ±Ğ°ÌĞ½Ğ¸Ñ", "official_name:az": "Albaniya RespublikasÄ±", "official_name:ba": "ĞĞ»Ğ±Ğ°Ğ½Ğ¸Ñ Ğ ĞµÑĞ¿ÑƒĞ±Ğ»Ğ¸ĞºĞ°Ò»Ñ‹", "official_name:be": "Ğ ÑÑĞ¿ÑƒÌĞ±Ğ»Ñ–ĞºĞ° ĞĞ»Ğ±Ğ°ÌĞ½Ñ–Ñ", "official_name:bg": "Ğ ĞµĞ¿ÑƒĞ±Ğ»Ğ¸ĞºĞ° ĞĞ»Ğ±Ğ°Ğ½Ğ¸Ñ", "official_name:bn": "à¦ªà§à¦°à¦œà¦¾à¦¤à¦¨à§à¦¤à§à¦°à§€ à¦†à¦²à¦¬à§‡à¦¨à¦¿à¦¯à¦¼à¦¾", "official_name:br": "Republik Albania", "official_name:bs": "Republika Albanija", "official_name:ce": "ĞĞ»Ğ±Ğ°Ğ½Ğ¸ Ğ ĞµÑĞ¿ÑƒĞ±Ğ»Ğ¸ĞºĞ°", "official_name:co": "Republica d'Albania", "official_name:cs": "AlbÃ¡nskÃ¡ republika", "official_name:cu": "ĞĞ»Ğ²Ğ°Ğ½Ñ–Ìê™— Ğ”Ğ¸Ğ¼Ğ¾ĞºÑ€Ğ°Ñ‚Ñ–Ìê™—", "official_name:cv": "ĞĞ»Ğ±Ğ°Ğ½Ğ¸ Ñ€ĞµÑĞ¿ÑƒĞ±Ğ»Ğ¸ĞºĞ¸", "official_name:cy": "Gweriniaeth Albania", "official_name:da": "Republikken Albanien", "official_name:de": "Republik Albanien", "official_name:el": "Î”Î·Î¼Î¿ÎºÏÎ±Ï„Î¯Î± Ï„Î·Ï‚ Î‘Î»Î²Î±Î½Î¯Î±Ï‚", "official_name:en": "Republic of Albania", "official_name:eo": "Respubliko Albanujo", "official_name:es": "RepÃºblica de Albania", "official_name:et": "Albaania Vabariik", "official_name:eu": "Albaniako Errepublika", "official_name:fa": "Ø¬Ù…Ù‡ÙˆØ±ÛŒ Ø¢Ù„Ø¨Ø§Ù†ÛŒ", "official_name:ff": "Republik bu Albaniya", "official_name:fi": "Albanian tasavalta", "official_name:fo": "LÃ½Ã°veldiÃ° Albania", "official_name:fr": "RÃ©publique d'Albanie", "official_name:ga": "Poblacht na hAlbÃ¡ine", "official_name:gd": "Poblachd AlbÃ inia", "official_name:gl": "RepÃºblica de Albania", "official_name:gn": "TetÃ£ AvaÃ±a", "official_name:gu": "àª†àª²à«àª¬à«‡àª¨àª¿àª¯àª¾ àª—àª£àª°àª¾àªœà«àª¯", "official_name:gv": "Pobblaght ny h-Albaan", "official_name:he": "×¨Ö¶×¤Ö¼×•Ö¼×‘Ö°Ö¼×œÖ´×™×§Ö·×ª ×Ö·×œÖ°×‘Ö·Ö¼× Ö°×™Ö¸×”", "official_name:hi": "à¤…à¤²à¥à¤¬à¤¾à¤¨à¤¿à¤¯à¤¾ à¤—à¤£à¤°à¤¾à¤œà¥à¤¯", "official_name:hr": "Republika Albanija", "official_name:hu": "AlbÃ¡n KÃ¶ztÃ¡rsasÃ¡g", "official_name:hy": "Ô±Õ¬Õ¢Õ¡Õ¶Õ«Õ¡ÕµÕ« Õ€Õ¡Õ¶Ö€Õ¡ÕºÕ¥Õ¿Õ¸Ö‚Õ©ÕµÕ¸Ö‚Õ¶", "official_name:ia": "Republica de Albania", "official_name:id": "Republik Albania", "official_name:ig": "Republic nke Albania", "official_name:is": "LÃ½Ã°veldiÃ° AlbanÃ­a", "official_name:it": "Repubblica d'Albania", "official_name:ja": "ã‚¢ãƒ«ãƒãƒ‹ã‚¢å…±å’Œå›½", "official_name:ka": "áƒáƒšáƒ‘áƒáƒœáƒ”áƒ—áƒ˜áƒ¡ áƒ áƒ”áƒ¡áƒáƒ£áƒ‘áƒšáƒ˜áƒ™áƒ", "official_name:kg": "Repubilika ya Albania", "official_name:kk": "ĞĞ»Ğ±Ğ°Ğ½Ğ¸Ñ Ğ ĞµÑĞ¿ÑƒĞ±Ğ»Ğ¸ĞºĞ°ÑÑ‹", "official_name:kl": "Kunngiitsuuffik Albania", "official_name:km": "á”áŸ’ášá‘áŸáŸá¢á¶á›áŸ‹á”á¶á“á¸", "official_name:kn": "à²…à²²à³à²¬à³‡à²¨à²¿à²¯ à²—à²£à²°à²¾à²œà³à²¯", "official_name:ko": "ì•Œë°”ë‹ˆì•„ ê³µí™”êµ­", "official_name:ku": "Komara AlbanyayÃª", "official_name:kv": "ĞĞ»Ğ±Ğ°Ğ½Ğ¸Ñ Ğ ĞµÑĞ¿ÑƒĞ±Ğ»Ğ¸ĞºĞ°", "official_name:kw": "Repoblek Albani", "official_name:ky": "ĞĞ»Ğ±Ğ°Ğ½ Ğ ĞµÑĞ¿ÑƒĞ±Ğ»Ğ¸ĞºĞ°ÑÑ‹", "official_name:lb": "Republik Albanien", "official_name:ln": "RepublÃ­ki ya Albania", "official_name:lt": "Albanijos Respublika", "official_name:lv": "AlbÄnijas Republika", "official_name:mk": "Ğ ĞµĞ¿ÑƒĞ±Ğ»Ğ¸ĞºĞ° ĞĞ»Ğ±Ğ°Ğ½Ğ¸Ñ˜Ğ°", "official_name:mn": "Ğ‘Ò¯Ğ³Ğ´ ĞĞ°Ğ¹Ñ€Ğ°Ğ¼Ğ´Ğ°Ñ… ĞĞ»Ğ±Ğ°Ğ½Ğ¸ Ğ£Ğ»Ñ", "official_name:mr": "à¤†à¤²à¥à¤¬à¥‡à¤¨à¤¿à¤¯à¤¾à¤šà¥‡ à¤ªà¥à¤°à¤œà¤¾à¤¸à¤¤à¥à¤¤à¤¾à¤•", "official_name:ms": "Republik Albania", "official_name:mt": "Repubblika tal-Albanija", "official_name:my": "á€¡á€šá€ºá€œá€ºá€˜á€±á€¸á€”á€®á€¸á€šá€¬á€¸ á€á€™á€¹á€™á€á€”á€­á€¯á€„á€ºá€„á€¶", "official_name:ne": "à¤—à¤£à¤¤à¤¨à¥à¤¤à¥à¤° à¤…à¤²à¥à¤¬à¤¾à¤¨à¤¿à¤¯à¤¾", "official_name:nl": "Republiek AlbaniÃ«", "official_name:nn": "Republikken Albania", "official_name:no": "Republikken Albania", "official_name:or": "à¬†à¬²à¬¬à¬¾à¬¨à¬¿à¬† à¬—à¬£à¬¤à¬¨à­à¬¤à­à¬°", "official_name:os": "Ğ ĞµÑĞ¿ÑƒĞ±Ğ»Ğ¸ĞºÃ¦ ĞĞ»Ğ±Ğ°Ğ½Ğ¸", "official_name:pa": "à¨…à¨²à¨¬à¨¾à¨¨à©€à¨† à¨¦à¨¾ à¨—à¨£à¨°à¨¾à¨œ", "official_name:pl": "Republika Albanii", "official_name:ps": "Ø¯ Ø§Ù„Ø¨Ø§Ù†ÙŠØ§ Ø¬Ù…Ù‡ÙˆØ±ÙŠØª", "official_name:pt": "RepÃºblica da AlbÃ¢nia", "official_name:qu": "Albanya Ripuwlika", "official_name:rm": "Republica Albania", "official_name:ro": "Republica Albania", "official_name:ru": "Ğ ĞµÑĞ¿ÑƒĞ±Ğ»Ğ¸ĞºĞ° ĞĞ»Ğ±Ğ°Ğ½Ğ¸Ñ", "official_name:rw": "Repebulika yâ€™Alubaniya", "official_name:se": "AlbÃ¡nia dÃ¡ssevÃ¡ldi", "official_name:sh": "Republika Albanija", "official_name:sk": "AlbÃ¡nska republika", "official_name:sl": "Republika Albanija", "official_name:so": "Jamhuuriyadda Albania", "official_name:sq": "Republika e ShqipÃ«risÃ«", "official_name:sr": "Ğ ĞµĞ¿ÑƒĞ±Ğ»Ğ¸ĞºĞ° ĞĞ»Ğ±Ğ°Ğ½Ğ¸Ñ˜Ğ°", "official_name:sv": "Republiken Albanien", "official_name:sw": "Jamhuri ya Albania", "official_name:ta": "à®…à®²à¯à®ªà¯‡à®©à®¿à®¯ à®•à¯à®Ÿà®¿à®¯à®°à®šà¯", "official_name:te": "à°°à°¿à°ªà°¬à±à°²à°¿à°•à± à°†à°«à± à°…à°²à±à°¬à±‡à°¨à°¿à°¯à°¾", "official_name:tg": "Ò¶ÑƒĞ¼Ò³ÑƒÑ€Ğ¸Ğ¸ ĞĞ»Ğ±Ğ°Ğ½Ğ¸Ñ", "official_name:th": "à¸ªà¸²à¸˜à¸²à¸£à¸“à¸£à¸±à¸à¹à¸­à¸¥à¹€à¸šà¹€à¸™à¸µà¸¢", "official_name:tk": "AlbaniÃ½a Respublikasy", "official_name:tl": "Republika ng Albanya", "official_name:tr": "Arnavutluk Cumhuriyeti", "official_name:tt": "ĞĞ»Ğ±Ğ°Ğ½Ğ¸Ñ Ò–Ó©Ğ¼Ò»Ò¯Ñ€Ğ¸ÑÑ‚Ğµ", "official_name:uk": "Ğ ĞµÑĞ¿ÑƒĞ±Ğ»Ñ–ĞºĞ° ĞĞ»Ğ±Ğ°Ğ½Ñ–Ñ", "official_name:ur": "Ø¬Ù…ÛÙˆØ±ÛŒÛ Ø§Ù„Ø¨Ø§Ù†ÛŒØ§", "official_name:uz": "Albaniya Respublikasi", "official_name:vi": "Cá»™ng hoÃ  Albania", "official_name:wo": "Republik bu Albaani", "official_name:yo": "OrÃ­láº¹Ì€Ã²mÃ¬nira iláº¹Ì€ AlbÃ¡nÃ­Ã ", "official_name:zh": "é˜¿å°”å·´å°¼äºšå…±å’Œå›½", "official_name:ace": "RÃ¨publik Albania", "official_name:ady": "Ğ ĞµÑĞ¿ÑƒĞ±Ğ»Ğ¸ĞºÑÑƒ ĞĞ»Ğ±Ğ°Ğ½Ğ¸Ğµ", "official_name:als": "Republik Albanie", "official_name:ang": "Albania Cynewise", "official_name:arc": "Ü©Ü˜Ü›Ü¢ÜÜ˜Ü¬Ü Ü•ÜÜ Ü’Ü¢ÜÜ", "official_name:bcl": "Republika kan Albanya", "official_name:bpy": "à¦ªà§à¦°à¦œà¦¾à¦¤à¦¨à§à¦¤à§à¦°à¦¿ à¦†à¦²à¦¬à§‡à¦¨à¦¿à¦¯à¦¼à¦¾", "official_name:ceb": "Republika sa Albanya", "official_name:chr": "áá¦ášá© á¾á¿ á áµá‡á‚á¯", "official_name:ckb": "Ú©Û†Ù…Ø§Ø±ÛŒ Ø¦Ø§Ù„Ø¨Ø§Ù†ÛŒØ§", "official_name:crh": "ArnavutlÄ±q Cumhuriyeti", "official_name:dsb": "Republika AlbaÅ„ska", "official_name:dty": "à¤—à¤£à¤¤à¤¨à¥à¤¤à¥à¤° à¤…à¤²à¥à¤¬à¤¾à¤¨à¤¿à¤¯à¤¾", "official_name:eml": "RepÃ³bblica d'l AlbanÃ®", "official_name:ext": "RepÃºbrica d'AlbÃ¡nia", "official_name:frr": "Republiik faan Albaanien", "official_name:haw": "Lepupalika o Ê»Alepania", "official_name:hsb": "Albanska republika", "official_name:ilo": "Republika iti Albania", "official_name:jam": "Ripoblik a Albienia", "official_name:kbd": "ĞĞ»Ğ±Ğ°ÌĞ½Ğ¸Ñ Ğ ĞµÑĞ¿ÑƒÌĞ±Ğ»Ğ¸ĞºÑ", "official_name:koi": "Ğ¨Ñ‚Ğ¸Ğ¿Ñ‚Ğ°Ñ€ Ğ ĞµÑĞ¿ÑƒĞ±Ğ»Ğ¸ĞºĞ°", "official_name:krc": "ĞĞ»Ğ±Ğ°Ğ½Ğ¸Ñ Ğ ĞµÑĞ¿ÑƒĞ±Ğ»Ğ¸ĞºĞ°", "official_name:lad": "Republika de Albania", "official_name:lmo": "Republica de Albania", "official_name:lrc": "Ú©ÙˆÙ™Ù…Ø£Ø±Ù‡ Ú¤ÙˆÙ„Ø§Øª Ø¢Ù„Ø¨Ø§Ù†ÛŒ", "official_name:lzh": "é˜¿çˆ¾å·´å°¼äºå…±å’Œåœ‹", "official_name:mai": "à¤…à¤²à¥à¤¬à¤¾à¤¨à¤¿à¤¯à¤¾ à¤—à¤£à¤°à¤¾à¤œà¥à¤¯", "official_name:mrj": "Ğ ĞµÑĞ¿ÑƒÌĞ±Ğ»Ğ¸ĞºĞ° ĞĞ»Ğ±Ğ°ÌĞ½Ğ¸Ñ", "official_name:myv": "ĞĞ»Ğ±Ğ°Ğ½Ğ¸Ñ ĞœĞ°ÑÑ‚Ğ¾Ñ€", "official_name:nah": "TlÄcatlahtohcÄyÅtl Albania", "official_name:nan": "Albania KiÅng-hÃ´-kok", "official_name:nap": "Repubbreca 'e Albania", "official_name:nds": "Republiek Albanien", "official_name:new": "à¤…à¤²à¥à¤¬à¤¾à¤¨à¤¿à¤¯à¤¾ à¤—à¤£à¤°à¤¾à¤œà¥à¤¯", "official_name:nov": "Republike de Albania", "official_name:pam": "Republika ning Albania", "official_name:pap": "Republika di Albania", "official_name:pcd": "RÃ©publique d'Albanie", "official_name:pnt": "Î”Î·Î¼Î¿ÎºÏÎ±Ï„Î¯Î±Î½ Ï„' Î‘Î»Î²Î±Î½Î¯Î±Ï‚", "official_name:rue": "ĞĞ»Ğ±Ğ°Ğ½ÑŒÑĞºĞ° Ñ€ĞµĞ¿ÑƒĞ±Ğ»Ñ–ĞºĞ°", "official_name:sah": "ĞĞ»Ğ±Ğ°Ğ½Ğ¸Ñ Ğ ĞµÑĞ¿ÑƒĞ±Ğ»Ğ¸ĞºĞ°Ñ‚Ğ°", "official_name:sco": "Republic o Albanie", "official_name:srn": "Repoliku fu Albani", "official_name:szl": "Republika AlbaÅ„ije", "official_name:tet": "RepÃºblika AlbÃ¡nia niam", "official_name:tpi": "Ripablik bilong Albenia", "official_name:udm": "Ğ ĞµÑĞ¿ÑƒĞ±Ğ»Ğ¸ĞºĞ° ĞĞ»Ğ±Ğ°Ğ½Ğ¸Ñ", "official_name:vec": "Repubblica di Albania", "official_name:vep": "Albanijan Tazovaldkund", "official_name:vls": "Republiek AlbaniÃ«", "official_name:war": "Republika han Albanya", "official_name:wuu": "é˜¿çˆ¾å·´å°¼äºå…±å’Œåœ‹", "official_name:yue": "é˜¿çˆ¾å·´å°¼äºå…±å’Œåœ‹", "official_name:zea": "Rippebliek AlbaniÃ«", "official_name:nds-nl": "Reppubliek AlbaniÃ«", "official_name:bat-smg": "AlbanÄ—jÄ—s RespoblÄ—ka", "official_name:fiu-vro": "Albaania Vabariik", "official_name:roa-rup": "Republica Arbinishia", "official_name:roa-tara": "Repubbleche de Albanie", "official_name:be-tarask": "Ğ ÑÑĞ¿ÑƒĞ±Ğ»Ñ–ĞºĞ° ĞĞ»ÑŒĞ±Ğ°Ğ½Ñ–Ñ"}}, "center_lat": 41.16, "center_lon": 20.05, "timezone": "Europe/Tirane", "population": 2873457, "wikidata_id": "Q222", "wikipedia_id": "sq:ShqipÃ«ria"}, "geometry": {"type": "MultiPolygon", "coordinates": [[[[19.476, 41.183], [19.476, 41.183], [19.476, 41.183], [19.476, 41.183]]], [[[19.579, 41.629], [19.579, 41.629], [19.579, 41.629], [19.579, 41.629]]], [[[19.61, 41.776], [19.61, 41.776], [19.61, 41.776], [19.61, 41.776]]], [[[19.478, 42.056], [19.478, 42.056], [19.478, 42.056], [19.478, 42.056]]], [[[19.462, 42.059], [19.462, 42.059], [19.462, 42.059], [19.462, 42.059]]], [[[19.471, 42.065], [19.471, 42.065], [19.471, 42.065], [19.471, 42.065]]], [[[19.99, 39.685], [19.99, 39.685], [19.99, 39.685], [19.99, 39.685]]], [[[20.006, 39.689], [20.006, 39.689], [20.006, 39.689], [20.006, 39.689]]], [[[19.996, 39.773], [19.996, 39.773], [19.996, 39.773], [19.996, 39.773]]], [[[19.264, 40.503], [19.264, 40.503], [19.264, 40.503], [19.264, 40.503]]], [[[20.931, 40.792], [20.931, 40.792], [20.931, 40.792], [20.931, 40.792]]], [[[19.991, 39.774], [19.991, 39.774], [19.991, 39.774], [19.991, 39.774]]], [[[19.991, 39.774], [19.991, 39.774], [19.991, 39.774], [19.991, 39.774]]], [[[19.996, 39.776], [19.996, 39.776], [19.996, 39.776], [19.996, 39.776]]], [[[20.984, 40.801], [20.678, 40.095], [20.009, 39.692], [19.873, 40.027], [19.443, 40.235], [19.315, 40.645], [19.593, 41.618], [19.373, 41.849], [19.385, 42.079], [19.42, 42.33], [19.723, 42.661], [20.078, 42.556], [20.457, 42.272], [20.594, 41.877], [20.457, 41.551], [20.633, 41.087], [20.732, 40.911], [20.978, 40.89], [20.984, 40.801]]]]}}