{"type": "Feature", "properties": {"name": "Kosovo", "iso1": "XK", "admin_level": 2, "osm_id": 2088990, "countrylevel_id": "iso1:XK", "osm_data": {"localname": "Kosova / Kosovo", "official_name": "Republika e KosovÃ«s / Ğ ĞµĞ¿ÑƒĞ±Ğ»Ğ¸ĞºĞ° ĞšĞ¾ÑĞ¾Ğ²Ğ¾", "alltags": {"flag": "http://upload.wikimedia.org/wikipedia/commons/1/1f/Flag_of_Kosovo.svg", "name:af": "Kosovo", "name:am": "áŠ®áˆ¶á‰®", "name:an": "Kosovo", "name:ar": "ÙƒÙˆØ³ÙˆÙÙˆ", "name:ay": "Kusuwu", "name:az": "Kosovo", "name:ba": "ĞšĞ¾ÑĞ¾Ğ²Ğ¾", "name:be": "ĞšĞ¾ÑĞ°Ğ²Ğ°", "name:bg": "ĞšĞ¾ÑĞ¾Ğ²Ğ¾", "name:bn": "à¦•à¦¸à§‹à¦­à§‹", "name:bo": "à½à½¼à¼‹à½¦à½¼à¼‹à½à½¼à¼", "name:br": "Kosovo", "name:bs": "Kosovo", "name:ca": "Kosovo", "name:ce": "ĞšĞ¾ÑĞ¾Ğ²Ğ¾", "name:cs": "Kosovo", "name:cv": "ĞšĞ¾ÑĞ¾Ğ²Ğ¾", "name:cy": "Cosofo", "name:da": "Kosovo", "name:el": "ÎšÏŒÏƒÎ¿Î²Î¿", "name:en": "Kosovo", "name:eo": "Kosovo", "name:es": "Kosovo", "name:et": "Kosovo", "name:eu": "Kosovo", "name:fa": "Ú©ÙˆØ²ÙˆÙˆ", "name:fi": "Kosovo", "name:fo": "Kosovo", "name:fr": "Kosovo", "name:fy": "Kosovo", "name:ga": "An Chosaiv", "name:gd": "Cosobho", "name:gl": "Kosovo", "name:gn": "Kosovo", "name:gv": "Kosovo", "name:he": "×§×•×¡×•×‘×•", "name:hi": "à¤•à¥‹à¤¸à¥‹à¤µà¥‹ à¤—à¤£à¤°à¤¾à¤œà¥à¤¯", "name:hr": "Kosovo", "name:hu": "KoszovÃ³", "name:hy": "Ô¿Õ¸Õ½Õ¸Õ¾Õ¸Õ¶", "name:ia": "Kosovo", "name:id": "Kosovo", "name:ie": "Kosovo", "name:ig": "Kosovo", "name:io": "Kosovo", "name:is": "KosÃ³vÃ³", "name:it": "Kosovo", "name:ja": "ã‚³ã‚½ãƒœ", "name:jv": "Kosovo", "name:ka": "áƒ™áƒáƒ¡áƒáƒ•áƒ", "name:kk": "ĞšĞ¾ÑĞ¾Ğ²Ğ¾", "name:kl": "Kosovo", "name:kn": "à²•à³Šà²¸à³Šà²µà³Š", "name:ko": "ì½”ì†Œë³´", "name:ku": "Kosova", "name:kv": "ĞšĞ¾ÑĞ¾Ğ²Ğ¾", "name:kw": "Kosova", "name:ky": "ĞšĞ¾ÑĞ¾Ğ²Ğ¾", "name:la": "Kosovia", "name:lb": "Kosovo", "name:li": "Kosovo", "name:lo": "àº›àº°à»€àº—àº”à»‚àºà»‚àºŠà»‚àº§", "name:lt": "Kosovas", "name:lv": "Kosova", "name:mk": "ĞšĞ¾ÑĞ¾Ğ²Ğ¾", "name:ml": "à´•àµŠà´¸àµ‹à´µàµ‹", "name:mn": "ĞšĞ¾ÑĞ¾Ğ²Ğ¾", "name:mr": "à¤•à¥‹à¤¸à¥‹à¤µà¥à¤¹à¥‹", "name:ms": "Kosovo", "name:mt": "Kosovo", "name:my": "á€€á€­á€¯á€†á€­á€¯á€—á€­á€¯", "name:na": "Kosovo", "name:nl": "Kosovo", "name:nn": "Kosovo", "name:no": "Kosovo", "name:ny": "Kosovo", "name:oc": "Kosova", "name:os": "ĞšĞ¾ÑĞ¾Ğ²Ğ¾", "name:pa": "à¨•à©‹à¨¸à©‹à¨µà©‹ à¨—à¨£à¨°à¨¾à¨œ", "name:pl": "Kosowo", "name:pt": "Kosovo", "name:qu": "Kusuwu", "name:rm": "Cosovo", "name:ro": "Kosovo", "name:ru": "ĞšĞ¾ÑĞ¾Ğ²Ğ¾", "name:rw": "Kosovo", "name:sc": "KÃ²ssovu", "name:sh": "Kosovo i Metohija", "name:si": "à¶šà·œà·ƒà·à·€à·œ", "name:sk": "Kosovo", "name:sl": "Kosovo", "name:sm": "Kosovo", "name:sn": "Kosovo", "name:so": "Kosofo", "name:sq": "Kosovo", "name:sr": "ĞšĞ¾ÑĞ¾Ğ²Ğ¾", "name:su": "Kosovo", "name:sv": "Kosovo", "name:sw": "Kosovo", "name:ta": "à®•à¯Šà®šà¯‹à®µà¯‹", "name:te": "à°•à±Šà°¸à°¾à°µà±‹", "name:th": "à¸›à¸£à¸°à¹€à¸—à¸¨à¸„à¸­à¸‹à¸­à¸§à¸­", "name:tl": "Kosovo", "name:tr": "Kosova", "name:ts": "Kosovo", "name:tt": "ĞšĞ¾ÑĞ¾Ğ²Ğ¾ Ò–Ó©Ğ¼Ò»Ò¯Ñ€Ğ¸ÑÑ‚Ğµ", "name:uk": "ĞšĞ¾ÑĞ¾Ğ²Ğ¾", "name:ur": "Ú©ÙˆØ³ÙˆÙˆÛ", "name:uz": "Kosovo", "name:vi": "Kosovo", "name:vo": "KosovÃ¤n", "name:yo": "KÃ³sÃ³fÃ²", "name:zh": "ç§‘ç´¢æ²ƒ", "currency": "Euro", "int_name": "Kosovo", "name:als": "Kosovo", "name:ast": "Kosovu", "name:azb": "Ú©ÙˆØ²ÙˆÙˆÙˆ", "name:bar": "Kosovo", "name:bat": "Kuosuovs", "name:bcl": "Kosobo", "name:cbk": "Kosovo", "name:cdo": "Kosovo", "name:ceb": "Kosovo", "name:chr": "áªá—á‰", "name:ckb": "Ú©Û†Ø³Û†Ú¤Û†", "name:crh": "Kosovo", "name:diq": "Kosova", "name:dsw": "Kosowo", "name:ext": "Cosovu", "name:fiu": "Kosovo", "name:frp": "Kosovo", "name:frr": "Kosovo", "name:gag": "Kosova", "name:gan": "ç§‘ç´¢æ²ƒ", "name:got": "ğŒºğŒ°ğŒ¿ğƒğ‰ğŒ±ğ‰", "name:hak": "Kosovo", "name:hsb": "Kosowo", "name:jbo": "kosovas", "name:kab": "Kosovo", "name:kbd": "ĞšĞ¾ÑĞ¾Ğ²Ğ¾", "name:ksh": "Kosovo", "name:lad": "Kosovo", "name:lbe": "ĞšĞ¾ÑĞ¾Ğ²Ğ°", "name:lfn": "Cosovo", "name:lij": "Kosovo", "name:lmo": "Kosovo", "name:lrc": "Ú©ÙˆØ²ÙˆÚ¤Ùˆ", "name:mzn": "Ú©ÙˆØ²ÙˆÙˆ Ø¬Ù…Ù‡ÙˆØ±ÛŒ", "name:nah": "Cosovo", "name:nds": "Kosovo", "name:nov": "Kosovo", "name:nrm": "Kosovo", "name:pap": "Kosovo", "name:pcd": "Kosovo", "name:pms": "Kosovo", "name:pnb": "Ú©ÙˆØ³ÙˆÙˆ", "name:pnt": "ÎšÏŒÏƒÎ¿Î²Î¿", "name:roa": "Cosova", "name:rue": "ĞšĞ¾ÑĞ¾Ğ²Ğ¾", "name:sah": "ĞšĞ¾ÑĞ¾Ğ²Ğ°", "name:scn": "KÃ²ssuvu", "name:sco": "Kosovo", "name:srn": "Kosovokondre", "name:stq": "Kosovo", "name:szl": "Kosowo", "name:tzl": "Kosove", "name:vec": "Kosovo", "name:vls": "Kosovo", "name:war": "Kosovo", "name:wuu": "ç§‘ç´¢æ²ƒ", "name:xal": "ĞšĞ¾ÑĞ¾Ğ²Ğ¸Ğ½ Ğ¢Ğ°Ò£Ò»Ñ‡", "name:xmf": "áƒ™áƒáƒ¡áƒáƒ•áƒ", "name:yue": "ç§‘ç´¢æ²ƒ", "capital_city": "Prishtina", "name:sr-Latn": "Kosovo", "official_name": "Republika e KosovÃ«s / Ğ ĞµĞ¿ÑƒĞ±Ğ»Ğ¸ĞºĞ° ĞšĞ¾ÑĞ¾Ğ²Ğ¾", "name:be-tarask": "ĞšĞ¾ÑĞ°Ğ²Ğ°", "according_to:CN": "no", "according_to:IN": "no", "according_to:RS": "no", "according_to:RU": "no", "according_to:UA": "no", "according_to:XK": "yes", "is_in:continent": "Europe", "official_name:ar": "Ø¬Ù…Ù‡ÙˆØ±ÙŠØ© ÙƒÙˆØ³ÙˆÙÙˆ", "official_name:cs": "KosovskÃ¡ republika", "official_name:de": "Republik Kosovo", "official_name:en": "Republic of Kosovo", "official_name:eo": "Respubliko Kosovo", "official_name:es": "RepÃºblica de Kosovo", "official_name:fa": "Ø¬Ù…Ù‡ÙˆØ±ÛŒ Ú©ÙˆØ²ÙˆÙˆ", "official_name:fr": "RÃ©publique du Kosovo", "official_name:ru": "ĞšĞ¾ÑĞ¾Ğ²Ğ¾ (Ñ€ĞµÑĞ¿ÑƒĞ±Ğ»Ğ¸ĞºĞ°)", "official_name:sq": "Republika e KosovÃ«s", "official_name:sr": "Ğ ĞµĞ¿ÑƒĞ±Ğ»Ğ¸ĞºĞ° ĞšĞ¾ÑĞ¾Ğ²Ğ¾", "official_name:sr-Latn": "Republika Kosovo", "official_name:sr:1945-1999": "ĞÑƒÑ‚Ğ¾Ğ½Ğ¾Ğ¼Ğ½Ğ° Ğ¿Ğ¾ĞºÑ€Ğ°Ñ˜Ğ¸Ğ½Ğ° ĞšĞ¾ÑĞ¾Ğ²Ğ¾ Ğ¸ ĞœĞµÑ‚Ğ¾Ñ…Ğ¸Ñ˜Ğ°"}}, "center_lat": 42.59, "center_lon": 20.89, "timezone": "Europe/Belgrade", "population": 1883018, "wikidata_id": "Q1246", "wikipedia_id": "en:Kosovo"}, "geometry": {"type": "MultiPolygon", "coordinates": [[[[20.078, 42.556], [20.457, 42.272], [20.594, 41.877], [21.104, 42.206], [21.587, 42.263], [21.752, 42.701], [21.398, 42.745], [21.137, 43.114], [20.593, 43.205], [20.356, 42.832], [20.078, 42.556]]]]}}