{"type": "Feature", "properties": {"name": "New Taipei", "iso2": "TW-NWT", "admin_level": 4, "osm_id": 1527220, "countrylevel_id": "iso2:TW-NWT", "osm_data": {"localname": "新北市", "official_name": "", "alltags": {"name:ar": "تايبيه الجديدة", "name:en": "New Taipei", "name:es": "Nuevo Taipéi", "name:fr": "Nouveau Taipei", "name:id": "Kota Taipei Baru", "name:it": "Nuova Taipei", "name:ja": "新北市", "name:ko": "신베이 시", "name:ru": "Новый Тайбэй", "name:th": "ซินเป่ย์", "name:vi": "Tân Bắc", "name:zh": "新北市", "nat_ref": "65000010", "name:cdo": "Sĭng-báe̤k", "name:ceb": "Taipei (lalawigan)", "name:hak": "Sîn-pet-sṳ", "name:nan": "Sin-pak-chhī", "name:wuu": "新北市", "name:yue": "新北市", "old_name": "台北縣", "old_name:en": "Taipei County", "old_name:vi": "Đài Bắc", "old_name:zh": "台北縣", "old_name:nan": "Tâi-pak-koān", "name:zh_pinyin": "Xīnběi Shì"}}, "center_lat": 24.97, "center_lon": 121.6, "timezone": "Asia/Taipei", "population": 3995717, "wikidata_id": "Q244898", "wikipedia_id": "zh:新北市"}, "geometry": {"type": "MultiPolygon", "coordinates": [[[[121.915, 25.127], [121.915, 25.127], [121.915, 25.127], [121.915, 25.127]]], [[[121.966, 24.983], [121.48, 24.674], [121.284, 25.117], [121.709, 25.176], [121.804, 25.136], [121.966, 24.983]], [[121.457, 25.109], [121.457, 25.109], [121.457, 25.109], [121.457, 25.109]]], [[[121.703, 25.216], [121.703, 25.216], [121.703, 25.216], [121.703, 25.216]]], [[[121.654, 25.233], [121.654, 25.233], [121.654, 25.233], [121.654, 25.233]]]]}}