{"type": "Feature", "geometry": {"type": "MultiPolygon", "coordinates": [[[[-61.853, 17.612], [-61.854, 17.651], [-61.855, 17.655], [-61.872, 17.685], [-61.887, 17.695], [-61.876, 17.707], [-61.874, 17.71], [-61.865, 17.714], [-61.867, 17.713], [-61.866, 17.713], [-61.866, 17.714], [-61.864, 17.714], [-61.863, 17.713], [-61.864, 17.712], [-61.864, 17.711], [-61.865, 17.709], [-61.866, 17.707], [-61.866, 17.708], [-61.867, 17.709], [-61.866, 17.707], [-61.867, 17.707], [-61.866, 17.707], [-61.864, 17.707], [-61.864, 17.705], [-61.862, 17.702], [-61.862, 17.701], [-61.863, 17.7], [-61.864, 17.698], [-61.865, 17.698], [-61.865, 17.695], [-61.867, 17.694], [-61.867, 17.691], [-61.861, 17.681], [-61.862, 17.681], [-61.864, 17.681], [-61.866, 17.683], [-61.867, 17.685], [-61.867, 17.686], [-61.868, 17.687], [-61.871, 17.693], [-61.873, 17.694], [-61.873, 17.695], [-61.874, 17.696], [-61.875, 17.698], [-61.874, 17.7], [-61.867, 17.701], [-61.866, 17.701], [-61.866, 17.702], [-61.867, 17.702], [-61.867, 17.703], [-61.866, 17.703], [-61.867, 17.704], [-61.866, 17.704], [-61.868, 17.704], [-61.868, 17.705], [-61.868, 17.706], [-61.87, 17.706], [-61.87, 17.705], [-61.871, 17.705], [-61.872, 17.707], [-61.871, 17.706], [-61.872, 17.707], [-61.873, 17.707], [-61.873, 17.708], [-61.874, 17.708], [-61.874, 17.707], [-61.873, 17.707], [-61.872, 17.704], [-61.874, 17.702], [-61.875, 17.701], [-61.876, 17.701], [-61.878, 17.7], [-61.879, 17.699], [-61.879, 17.696], [-61.878, 17.693], [-61.877, 17.69], [-61.876, 17.689], [-61.873, 17.687], [-61.871, 17.689], [-61.87, 17.683], [-61.869, 17.682], [-61.868, 17.681], [-61.867, 17.68], [-61.866, 17.68], [-61.865, 17.678], [-61.864, 17.677], [-61.864, 17.678], [-61.864, 17.679], [-61.865, 17.679], [-61.864, 17.68], [-61.863, 17.679], [-61.863, 17.678], [-61.863, 17.677], [-61.859, 17.672], [-61.859, 17.671], [-61.86, 17.671], [-61.86, 17.669], [-61.86, 17.668], [-61.859, 17.667], [-61.859, 17.666], [-61.858, 17.664], [-61.853, 17.653], [-61.853, 17.652], [-61.853, 17.651], [-61.853, 17.65], [-61.853, 17.648], [-61.852, 17.64], [-61.851, 17.639], [-61.85, 17.634], [-61.85, 17.633], [-61.849, 17.631], [-61.849, 17.627], [-61.85, 17.623], [-61.851, 17.618], [-61.851, 17.615], [-61.85, 17.614], [-61.85, 17.613], [-61.85, 17.611], [-61.848, 17.609], [-61.841, 17.611], [-61.841, 17.612], [-61.84, 17.612], [-61.838, 17.611], [-61.837, 17.612], [-61.835, 17.612], [-61.834, 17.612], [-61.833, 17.614], [-61.832, 17.616], [-61.832, 17.617], [-61.832, 17.62], [-61.834, 17.631], [-61.834, 17.632], [-61.834, 17.633], [-61.834, 17.634], [-61.833, 17.635], [-61.832, 17.638], [-61.83, 17.64], [-61.829, 17.641], [-61.829, 17.642], [-61.828, 17.643], [-61.827, 17.645], [-61.828, 17.647], [-61.829, 17.648], [-61.832, 17.66], [-61.831, 17.677], [-61.829, 17.681], [-61.831, 17.686], [-61.831, 17.687], [-61.83, 17.687], [-61.829, 17.687], [-61.828, 17.687], [-61.827, 17.687], [-61.826, 17.687], [-61.825, 17.687], [-61.823, 17.686], [-61.823, 17.687], [-61.822, 17.687], [-61.821, 17.687], [-61.821, 17.686], [-61.82, 17.686], [-61.817, 17.685], [-61.816, 17.685], [-61.816, 17.686], [-61.815, 17.686], [-61.815, 17.687], [-61.814, 17.687], [-61.814, 17.688], [-61.814, 17.689], [-61.813, 17.69], [-61.812, 17.69], [-61.811, 17.69], [-61.809, 17.689], [-61.809, 17.69], [-61.808, 17.69], [-61.808, 17.691], [-61.807, 17.691], [-61.807, 17.692], [-61.806, 17.692], [-61.806, 17.693], [-61.807, 17.693], [-61.807, 17.694], [-61.807, 17.695], [-61.806, 17.696], [-61.807, 17.696], [-61.807, 17.697], [-61.806, 17.697], [-61.806, 17.698], [-61.806, 17.697], [-61.806, 17.698], [-61.804, 17.698], [-61.803, 17.698], [-61.804, 17.697], [-61.803, 17.697], [-61.802, 17.697], [-61.803, 17.697], [-61.802, 17.697], [-61.802, 17.698], [-61.802, 17.699], [-61.803, 17.698], [-61.803, 17.7], [-61.796, 17.701], [-61.79, 17.695], [-61.79, 17.694], [-61.731, 17.598], [-61.768, 17.556], [-61.822, 17.592], [-61.86, 17.585], [-61.853, 17.612]]], [[[-61.807, 17.697], [-61.808, 17.698], [-61.808, 17.699], [-61.809, 17.7], [-61.809, 17.699], [-61.809, 17.698], [-61.808, 17.698], [-61.809, 17.696], [-61.813, 17.695], [-61.814, 17.695], [-61.815, 17.694], [-61.817, 17.693], [-61.816, 17.694], [-61.816, 17.695], [-61.816, 17.696], [-61.816, 17.697], [-61.816, 17.698], [-61.816, 17.697], [-61.817, 17.697], [-61.817, 17.698], [-61.816, 17.698], [-61.817, 17.698], [-61.817, 17.699], [-61.818, 17.699], [-61.818, 17.7], [-61.819, 17.701], [-61.819, 17.702], [-61.813, 17.704], [-61.807, 17.699], [-61.807, 17.697]]], [[[-61.831, 17.697], [-61.831, 17.696], [-61.83, 17.696], [-61.83, 17.697], [-61.831, 17.697], [-61.831, 17.698], [-61.832, 17.699], [-61.832, 17.7], [-61.831, 17.7], [-61.831, 17.701], [-61.83, 17.701], [-61.829, 17.702], [-61.83, 17.701], [-61.83, 17.702], [-61.829, 17.702], [-61.828, 17.702], [-61.827, 17.702], [-61.826, 17.702], [-61.826, 17.703], [-61.825, 17.702], [-61.825, 17.703], [-61.825, 17.702], [-61.825, 17.703], [-61.824, 17.703], [-61.823, 17.704], [-61.822, 17.702], [-61.822, 17.701], [-61.822, 17.7], [-61.821, 17.7], [-61.822, 17.7], [-61.821, 17.701], [-61.822, 17.702], [-61.82, 17.702], [-61.82, 17.701], [-61.82, 17.7], [-61.821, 17.699], [-61.821, 17.7], [-61.821, 17.699], [-61.821, 17.7], [-61.823, 17.699], [-61.824, 17.699], [-61.825, 17.699], [-61.826, 17.698], [-61.827, 17.697], [-61.83, 17.697], [-61.83, 17.696], [-61.831, 17.696], [-61.832, 17.697], [-61.831, 17.697]]], [[[-61.839, 17.693], [-61.839, 17.692], [-61.838, 17.692], [-61.838, 17.691], [-61.831, 17.687], [-61.837, 17.686], [-61.838, 17.688], [-61.839, 17.689], [-61.839, 17.69], [-61.844, 17.694], [-61.845, 17.693], [-61.845, 17.687], [-61.846, 17.686], [-61.848, 17.688], [-61.849, 17.689], [-61.85, 17.691], [-61.853, 17.693], [-61.854, 17.694], [-61.863, 17.708], [-61.862, 17.713], [-61.862, 17.714], [-61.862, 17.716], [-61.854, 17.719], [-61.848, 17.719], [-61.847, 17.721], [-61.847, 17.722], [-61.846, 17.724], [-61.845, 17.725], [-61.845, 17.726], [-61.846, 17.727], [-61.847, 17.726], [-61.847, 17.724], [-61.848, 17.724], [-61.848, 17.723], [-61.848, 17.722], [-61.848, 17.72], [-61.85, 17.722], [-61.85, 17.719], [-61.851, 17.72], [-61.851, 17.721], [-61.852, 17.723], [-61.852, 17.722], [-61.853, 17.72], [-61.854, 17.72], [-61.852, 17.728], [-61.844, 17.729], [-61.83, 17.713], [-61.827, 17.708], [-61.825, 17.707], [-61.823, 17.704], [-61.824, 17.704], [-61.826, 17.702], [-61.827, 17.702], [-61.828, 17.702], [-61.829, 17.703], [-61.83, 17.703], [-61.829, 17.703], [-61.83, 17.705], [-61.831, 17.709], [-61.83, 17.709], [-61.83, 17.71], [-61.831, 17.71], [-61.833, 17.714], [-61.834, 17.711], [-61.834, 17.71], [-61.834, 17.709], [-61.834, 17.708], [-61.834, 17.707], [-61.835, 17.707], [-61.835, 17.706], [-61.836, 17.707], [-61.836, 17.706], [-61.837, 17.706], [-61.837, 17.705], [-61.838, 17.705], [-61.838, 17.706], [-61.839, 17.706], [-61.84, 17.706], [-61.84, 17.707], [-61.842, 17.707], [-61.843, 17.707], [-61.844, 17.708], [-61.844, 17.716], [-61.843, 17.717], [-61.842, 17.719], [-61.841, 17.719], [-61.841, 17.72], [-61.838, 17.719], [-61.844, 17.728], [-61.844, 17.724], [-61.845, 17.723], [-61.845, 17.715], [-61.846, 17.714], [-61.848, 17.712], [-61.848, 17.713], [-61.848, 17.714], [-61.852, 17.716], [-61.854, 17.715], [-61.855, 17.715], [-61.858, 17.714], [-61.855, 17.714], [-61.854, 17.715], [-61.853, 17.714], [-61.852, 17.713], [-61.849, 17.712], [-61.847, 17.711], [-61.847, 17.71], [-61.847, 17.709], [-61.839, 17.693]]]]}, "properties": {"name": "Barbuda", "iso2": "AG-10", "admin_level": 4, "osm_id": 7742426, "countrylevel_id": "iso2:AG-10", "osm_data": {"localname": "Barbuda", "official_name": "", "alltags": {"name:ar": "باربودا", "name:be": "Барбу́да", "name:br": "Barbuda", "name:ca": "Barbuda", "name:cs": "Barbuda", "name:cy": "Barbiwda", "name:el": "Μπαρμπούντα", "name:en": "Barbuda", "name:eo": "Barbudo", "name:es": "Barbuda", "name:et": "Barbuda", "name:eu": "Barbuda", "name:fa": "بارابودا", "name:fi": "Barbuda", "name:fr": "Barbuda", "name:gl": "Barbuda", "name:he": "ברבודה", "name:hi": "बारबूडा", "name:hu": "Barbuda", "name:id": "Barbuda", "name:it": "Barbuda", "name:ja": "バーブーダ島", "name:kn": "ಬರ್ಬುಡಾ", "name:ko": "바부다 섬", "name:ku": "Berbûda", "name:la": "Barbuda", "name:lt": "Barbuda", "name:mk": "Барбуда", "name:ml": "ബാർബുഡ", "name:mr": "बार्बुडा", "name:nl": "Barbuda", "name:no": "Barbuda", "name:oc": "Barbuda", "name:pl": "Barbuda", "name:pt": "Barbuda", "name:ro": "Barbuda", "name:ru": "Барбу́да", "name:si": "බර්බුඩා", "name:sr": "Барбуда", "name:sv": "Barbuda", "name:ta": "பர்புடா", "name:te": "బార్బుడా", "name:th": "บาร์บูดา", "name:tl": "Barbuda", "name:tr": "Barbuda", "name:uk": "Барбу́да", "name:ur": "باربوڈا", "name:vi": "Barbuda", "name:yo": "Bàrbúdà", "name:zh": "巴布达岛", "maritime": "yes", "name:ceb": "Barbuda", "name:lmo": "Barbuda", "name:nov": "Barbuda", "name:pms": "Barbuda", "name:sco": "Barbuda", "name:xmf": "ბარბუდა", "name:yue": "巴布達島", "alt_name:ta": "பார்புடா", "alt_name:yo": "Barbuda", "alt_name:zh": "巴布達島", "name:zh-Hans": "巴布达岛", "name:zh-Hant": "巴布達島", "admin_type:AG": "territorial"}}, "center_lat": 17.63, "center_lon": -61.79, "area_m2": 143815736, "timezone": "America/Antigua", "population": 1638, "wikidata_id": "Q238752", "wikipedia_id": "en:Barbuda"}}