{"type": "Feature", "geometry": {"type": "Polygon", "coordinates": [[[126.794, 37.582], [127.096, 37.689], [127.163, 37.545], [126.909, 37.434], [126.766, 37.554], [126.794, 37.582]]]}, "properties": {"name": "Seoul", "iso2": "KR-11", "admin_level": 4, "osm_id": 2297418, "countrylevel_id": "iso2:KR-11", "osm_data": {"localname": "서울", "official_name": "서울특별시", "alltags": {"name:af": "Seoel", "name:am": "ሶል", "name:an": "Seúl", "name:ar": "سول", "name:az": "Seul", "name:ba": "Сеул", "name:be": "Сеул", "name:bg": "Сеул", "name:bh": "सियोल", "name:bn": "সিওল", "name:bo": "སེ་ཨུལ།", "name:bs": "Seul", "name:ca": "Seül", "name:cs": "Soul", "name:cv": "Сеул", "name:el": "Σεούλ", "name:en": "Seoul", "name:eo": "Seulo", "name:es": "Seúl", "name:et": "Sŏul", "name:eu": "Seul", "name:fa": "سئول", "name:fi": "Soul", "name:fr": "Séoul", "name:gl": "Seúl", "name:he": "סיאול", "name:hi": "सियोल", "name:hr": "Seul", "name:hu": "Szöul", "name:hy": "Սեուլ", "name:is": "Seúl", "name:it": "Seul", "name:ja": "ソウル", "name:ka": "სეული", "name:kk": "Сеул", "name:km": "សេអ៊ូល", "name:kn": "ಸೌಲ್", "name:ko": "서울", "name:ku": "Sêûl", "name:ky": "Сеул", "name:la": "Seulum", "name:lt": "Seulas", "name:lv": "Seula", "name:mk": "Сеул", "name:ml": "സോൾ", "name:mn": "Сөүл", "name:mr": "सोल", "name:my": "ဆိုးလ်မြို့", "name:nl": "Seoel", "name:oc": "Seol", "name:os": "Сеул", "name:pl": "Seul", "name:pt": "Seul", "name:qu": "Siul", "name:ro": "Seul", "name:ru": "Сеул", "name:sk": "Soul", "name:sl": "Seul", "name:sr": "Сеул", "name:sv": "Seoul", "name:ta": "சியோல்", "name:tg": "Сеул", "name:th": "โซล", "name:tk": "Seul", "name:tr": "Seul", "name:uk": "Сеул", "name:ur": "سؤل", "name:uz": "Seul", "name:vi": "Seoul", "name:vo": "Söul", "name:yi": "סעאל", "name:zh": "首尔", "name:arz": "سول", "name:ast": "Seúl", "name:bjn": "Soul", "name:cdo": "Siū-ék", "name:ckb": "سۆل", "name:crh": "Seul", "name:csb": "Seul", "name:diq": "Seul", "name:dsb": "Soul", "name:ext": "Seúl", "name:gag": "Seul", "name:gan": "首爾", "name:jbo": ".sol.", "name:lzh": "首爾", "name:mhr": "Сеул", "name:nah": "Seul", "name:nan": "Seoul Te̍k-pia̍t-chhī", "name:pnb": "سیول", "name:rue": "Соул", "name:sah": "Сеул", "name:szl": "Seul", "name:tpi": "Sol", "name:wuu": "首尔", "name:yue": "首爾", "population": "10464051", "alt_name:ar": "سيول;سيئول", "alt_name:ur": "سیول", "alt_name:vi": "Xơ-un", "old_name:vi": "Thủ Nhĩ", "old_name:zh": "汉城", "name:bat-smg": "Seuls", "name:fiu-vro": "Sŏul", "name:ko-Latn": "Seoul", "name:zh-Hant": "首爾", "name:roa-tara": "Seul", "official_name": "서울특별시", "name:be-tarask": "Сэул", "official_name:ar": "مدينة سول الخاصة", "official_name:en": "Seoul Special City", "official_name:ko": "서울특별시", "official_name:zh": "首尔特别市", "old_name:zh-Hans": "汉城", "old_name:zh-Hant": "漢城", "official_name:ko-Kore": "서울特別市", "official_name:ko-Latn": "Seoul-teukbyeolsi", "official_name:zh-Hant": "首爾特別市"}}, "center_lat": 37.55, "center_lon": 126.99, "area_m2": 607339871, "timezone": "Asia/Seoul", "population": 9806538, "wikidata_id": "Q8684", "wikipedia_id": "en:Seoul"}}