{"type": "Feature", "geometry": {"type": "Polygon", "coordinates": [[[43.532, 16.63], [43.738, 16.691], [44.049, 16.654], [44.28, 16.484], [44.349, 16.045], [44.046, 15.586], [43.901, 15.534], [43.633, 15.536], [43.754, 15.734], [43.516, 16.237], [43.532, 16.63]]]}, "properties": {"name": "Amran Governorate", "iso2": "YE-AM", "admin_level": 4, "osm_id": 383907, "countrylevel_id": "iso2:YE-AM", "osm_data": {"localname": "محافظة عمران", "official_name": "", "alltags": {"GNS:id": "9236592", "name:ar": "محافظة عمران", "name:cs": "provincie 'Amrán", "name:en": "Amran Governorate", "name:es": "Gobernación de 'Amran", "name:fr": "Gouvernorat d'Amran", "name:ru": "Амран", "alt_name": "Muḩāfaz̧at ‘Amrān", "population": "877786", "GNS:dsg_code": "ADM1", "GNS:dsg_name": "first-order administrative division", "is_in:continent": "Asia", "population:date": "2004-12-17", "sorting_name:cs": "Amrán"}}, "center_lat": 16.17, "center_lon": 43.91, "area_m2": 7947320772, "timezone": "Asia/Aden", "population": 1013000, "wikidata_id": "Q275720", "wikipedia_id": "ar:عمران (محافظة)"}}